{"type":"FeatureCollection","features":[{"type":"Feature","geometry":{"type":"Point","coordinates":[-83.63472,43.01381]},"properties":{"name":"I-69 EB over CENTER RD","condition":"Fair","_color":"#e08a00","_popupRows":[["Condition","Fair"],["Traffic","48,100/day"],["Built","1971"],["Maintained by","State"]]}},{"type":"Feature","geometry":{"type":"Point","coordinates":[-83.63472,43.01404]},"properties":{"name":"I-69 WB over CENTER RD","condition":"Fair","_color":"#e08a00","_popupRows":[["Condition","Fair"],["Traffic","48,100/day"],["Built","1971"],["Maintained by","State"]]}},{"type":"Feature","geometry":{"type":"Point","coordinates":[-83.6151,43.01762]},"properties":{"name":"I-69 EB over GENESEE RD","condition":"Fair","_color":"#e08a00","_popupRows":[["Condition","Fair"],["Traffic","33,948/day"],["Built","1971"],["Maintained by","State"]]}},{"type":"Feature","geometry":{"type":"Point","coordinates":[-83.59534,43.01943]},"properties":{"name":"BELSAY RD over I-69","condition":"Fair","_color":"#e08a00","_popupRows":[["Condition","Fair"],["Traffic","11,800/day"],["Built","1971"],["Maintained by","State"]]}},{"type":"Feature","geometry":{"type":"Point","coordinates":[-83.61509,43.01796]},"properties":{"name":"I-69 WB over GENESEE RD","condition":"Fair","_color":"#e08a00","_popupRows":[["Condition","Fair"],["Traffic","33,948/day"],["Built","1971"],["Maintained by","State"]]}},{"type":"Feature","geometry":{"type":"Point","coordinates":[-83.68281,42.95976]},"properties":{"name":"I-475 SB over MAPLE RD","condition":"Fair","_color":"#e08a00","_popupRows":[["Condition","Fair"],["Traffic","20,200/day"],["Built","1971"],["Maintained by","State"]]}},{"type":"Feature","geometry":{"type":"Point","coordinates":[-83.68179,42.97426]},"properties":{"name":"BRISTOL RD(OLDM121 over I-475","condition":"Fair","_color":"#e08a00","_popupRows":[["Condition","Fair"],["Traffic","17,300/day"],["Built","1971"],["Maintained by","State"]]}},{"type":"Feature","geometry":{"type":"Point","coordinates":[-83.68211,42.98154]},"properties":{"name":"HEMPHILL RD over I-475","condition":"Poor","_color":"#c0392b","_popupRows":[["Condition","Poor"],["Traffic","15,000/day"],["Built","1971"],["Maintained by","State"]]}},{"type":"Feature","geometry":{"type":"Point","coordinates":[-83.68246,42.95977]},"properties":{"name":"I-475 NB over MAPLE RD","condition":"Fair","_color":"#e08a00","_popupRows":[["Condition","Fair"],["Traffic","20,200/day"],["Built","1971"],["Maintained by","State"]]}},{"type":"Feature","geometry":{"type":"Point","coordinates":[-83.68207,42.98046]},"properties":{"name":"LEFT TURN LANE NO1 over I-475","condition":"Fair","_color":"#e08a00","_popupRows":[["Condition","Fair"],["Traffic","3,300/day"],["Built","1971"],["Maintained by","State"]]}},{"type":"Feature","geometry":{"type":"Point","coordinates":[-83.64357,42.96035]},"properties":{"name":"MAPLE AVE over THREAD RIVER","condition":"Good","_color":"#4ea735","_popupRows":[["Condition","Good"],["Traffic","8,600/day"],["Built","2011"],["Maintained by","City"]]}},{"type":"Feature","geometry":{"type":"Point","coordinates":[-83.63552,42.97502]},"properties":{"name":"BRISTOL ROAD over THREAD RIVER","condition":"Good","_color":"#4ea735","_popupRows":[["Condition","Good"],["Traffic","12,844/day"],["Built","1973"],["Maintained by","City"]]}},{"type":"Feature","geometry":{"type":"Point","coordinates":[-83.63813,42.98946]},"properties":{"name":"ATHERTON ROAD over THREAD RIVER","condition":"Fair","_color":"#e08a00","_popupRows":[["Condition","Fair"],["Traffic","10,339/day"],["Built","1928"],["Maintained by","City"]]}},{"type":"Feature","geometry":{"type":"Point","coordinates":[-83.59586,43.04077]},"properties":{"name":"BELSAY ROAD over KEARSLEY CREEK","condition":"Good","_color":"#4ea735","_popupRows":[["Condition","Good"],["Traffic","12,023/day"],["Built","1994"],["Maintained by","City"]]}},{"type":"Feature","geometry":{"type":"Point","coordinates":[-83.58166,43.03362]},"properties":{"name":"DAVISON ROAD over KEARSLEY CREEK","condition":"Good","_color":"#4ea735","_popupRows":[["Condition","Good"],["Traffic","11,350/day"],["Built","2003"],["Maintained by","City"]]}},{"type":"Feature","geometry":{"type":"Point","coordinates":[-83.6925,42.97406]},"properties":{"name":"BRISTOL RD over GIBSON DRAIN","condition":"Fair","_color":"#e08a00","_popupRows":[["Condition","Fair"],["Traffic","25,568/day"],["Built","1977"],["Maintained by","City"]]}},{"type":"Feature","geometry":{"type":"Point","coordinates":[-83.64225,42.99087]},"properties":{"name":"TERM STREET over THREAD CREEK","condition":"Fair","_color":"#e08a00","_popupRows":[["Condition","Fair"],["Traffic","2,324/day"],["Built","2004"],["Maintained by","City"]]}},{"type":"Feature","geometry":{"type":"Point","coordinates":[-83.61511,43.0171]},"properties":{"name":"GENESEE ROAD over GILKEY CREEK","condition":"Good","_color":"#4ea735","_popupRows":[["Condition","Good"],["Traffic","9,818/day"],["Built","1968"],["Maintained by","City"]]}},{"type":"Feature","geometry":{"type":"Point","coordinates":[-83.61514,43.02034]},"properties":{"name":"GENESEE ROAD over GILKEY CREEK","condition":"Fair","_color":"#e08a00","_popupRows":[["Condition","Fair"],["Traffic","11,283/day"],["Built","1970"],["Maintained by","City"]]}},{"type":"Feature","geometry":{"type":"Point","coordinates":[-83.61052,43.00422]},"properties":{"name":"LIPPINCOTT BLVD over GILKEY CREEK","condition":"Good","_color":"#4ea735","_popupRows":[["Condition","Good"],["Traffic","7,000/day"],["Built","1984"],["Maintained by","City"]]}}]}
