{"type":"FeatureCollection","_source":"MTA Flint GTFS bus stops within the City of Burton.","features":[{"type":"Feature","properties":{"name":"3387 Atherton Rd","_color":"#1f6fb2"},"geometry":{"type":"Point","coordinates":[-83.63881,42.98951]}},{"type":"Feature","properties":{"name":"4218 Davison Rd","_color":"#1f6fb2"},"geometry":{"type":"Point","coordinates":[-83.62717,43.03322]}},{"type":"Feature","properties":{"name":"Atherton at Center","_color":"#1f6fb2"},"geometry":{"type":"Point","coordinates":[-83.63344,42.98969]}},{"type":"Feature","properties":{"name":"Center at Robert T Longway","_color":"#1f6fb2"},"geometry":{"type":"Point","coordinates":[-83.63499,43.0258]}},{"type":"Feature","properties":{"name":"Courtland Center","_color":"#1f6fb2"},"geometry":{"type":"Point","coordinates":[-83.63092,43.01864]}},{"type":"Feature","properties":{"name":"Covert at Beechwood","_color":"#1f6fb2"},"geometry":{"type":"Point","coordinates":[-83.62575,43.03983]}},{"type":"Feature","properties":{"name":"Covert at Davison","_color":"#1f6fb2"},"geometry":{"type":"Point","coordinates":[-83.62564,43.03329]}},{"type":"Feature","properties":{"name":"Covert at Farm Crest","_color":"#1f6fb2"},"geometry":{"type":"Point","coordinates":[-83.62569,43.03621]}},{"type":"Feature","properties":{"name":"Covert at Leith","_color":"#1f6fb2"},"geometry":{"type":"Point","coordinates":[-83.62591,43.04314]}},{"type":"Feature","properties":{"name":"Covert at Lila","_color":"#1f6fb2"},"geometry":{"type":"Point","coordinates":[-83.62586,43.0416]}},{"type":"Feature","properties":{"name":"Covert at Risedorph","_color":"#1f6fb2"},"geometry":{"type":"Point","coordinates":[-83.62577,43.03842]}},{"type":"Feature","properties":{"name":"Covert at Weston","_color":"#1f6fb2"},"geometry":{"type":"Point","coordinates":[-83.62593,43.04478]}},{"type":"Feature","properties":{"name":"EBD Atherton at Center","_color":"#1f6fb2"},"geometry":{"type":"Point","coordinates":[-83.63427,42.98946]}},{"type":"Feature","properties":{"name":"EBD Atherton at Clarice","_color":"#1f6fb2"},"geometry":{"type":"Point","coordinates":[-83.6359,42.98943]}},{"type":"Feature","properties":{"name":"EBD Atherton at Ludwig","_color":"#1f6fb2"},"geometry":{"type":"Point","coordinates":[-83.65064,42.98911]}},{"type":"Feature","properties":{"name":"EBD Atherton at Myrton","_color":"#1f6fb2"},"geometry":{"type":"Point","coordinates":[-83.65256,42.98907]}},{"type":"Feature","properties":{"name":"EBD Atherton at Term","_color":"#1f6fb2"},"geometry":{"type":"Point","coordinates":[-83.6425,42.98926]}},{"type":"Feature","properties":{"name":"EBD Atherton at Thread Creek","_color":"#1f6fb2"},"geometry":{"type":"Point","coordinates":[-83.63949,42.98933]}},{"type":"Feature","properties":{"name":"EBD Court E of Center","_color":"#1f6fb2"},"geometry":{"type":"Point","coordinates":[-83.6336,43.01883]}},{"type":"Feature","properties":{"name":"EBD Court at Centennial","_color":"#1f6fb2"},"geometry":{"type":"Point","coordinates":[-83.57895,43.01961]}},{"type":"Feature","properties":{"name":"EBD Court at Commerce","_color":"#1f6fb2"},"geometry":{"type":"Point","coordinates":[-83.62978,43.01882]}},{"type":"Feature","properties":{"name":"EBD Court at Genesee","_color":"#1f6fb2"},"geometry":{"type":"Point","coordinates":[-83.61546,43.01857]}},{"type":"Feature","properties":{"name":"EBD Court at Huntington Bank","_color":"#1f6fb2"},"geometry":{"type":"Point","coordinates":[-83.62595,43.01862]}},{"type":"Feature","properties":{"name":"EBD Davison Rd at N Genesee Rd","_color":"#1f6fb2"},"geometry":{"type":"Point","coordinates":[-83.61508,43.03314]}},{"type":"Feature","properties":{"name":"EBD Davison at Burton Comfort Care","_color":"#1f6fb2"},"geometry":{"type":"Point","coordinates":[-83.60078,43.03337]}},{"type":"Feature","properties":{"name":"EBD Davison at Donegal","_color":"#1f6fb2"},"geometry":{"type":"Point","coordinates":[-83.62954,43.03307]}},{"type":"Feature","properties":{"name":"EBD Davison at Wilmar","_color":"#1f6fb2"},"geometry":{"type":"Point","coordinates":[-83.62242,43.03296]}},{"type":"Feature","properties":{"name":"EBD Hemphill at I-475/Grand Traverse","_color":"#1f6fb2"},"geometry":{"type":"Point","coordinates":[-83.68324,42.98141]}},{"type":"Feature","properties":{"name":"EBD Lapeer at Munson","_color":"#1f6fb2"},"geometry":{"type":"Point","coordinates":[-83.62017,43.0104]}},{"type":"Feature","properties":{"name":"Fenton Rd at E Mandeville St","_color":"#1f6fb2"},"geometry":{"type":"Point","coordinates":[-83.69273,42.97593]}},{"type":"Feature","properties":{"name":"Hemphill Rd @ Kings Ln Apts","_color":"#1f6fb2"},"geometry":{"type":"Point","coordinates":[-83.68922,42.98132]}},{"type":"Feature","properties":{"name":"Meijer","_color":"#1f6fb2"},"geometry":{"type":"Point","coordinates":[-83.63105,42.99271]}},{"type":"Feature","properties":{"name":"Meijer at Atherton","_color":"#1f6fb2"},"geometry":{"type":"Point","coordinates":[-83.62896,42.98989]}},{"type":"Feature","properties":{"name":"Meijer at Burton Glenn","_color":"#1f6fb2"},"geometry":{"type":"Point","coordinates":[-83.62899,42.99184]}},{"type":"Feature","properties":{"name":"NBD Belsay at Court","_color":"#1f6fb2"},"geometry":{"type":"Point","coordinates":[-83.59533,43.02369]}},{"type":"Feature","properties":{"name":"NBD Belsay at Hugh","_color":"#1f6fb2"},"geometry":{"type":"Point","coordinates":[-83.59548,43.02988]}},{"type":"Feature","properties":{"name":"NBD Center at ALDI","_color":"#1f6fb2"},"geometry":{"type":"Point","coordinates":[-83.63482,43.0204]}},{"type":"Feature","properties":{"name":"NBD Center at Burton Place","_color":"#1f6fb2"},"geometry":{"type":"Point","coordinates":[-83.63391,42.99642]}},{"type":"Feature","properties":{"name":"NBD Center at Courtland Center","_color":"#1f6fb2"},"geometry":{"type":"Point","coordinates":[-83.63474,43.01751]}},{"type":"Feature","properties":{"name":"NBD Center at Davison","_color":"#1f6fb2"},"geometry":{"type":"Point","coordinates":[-83.63531,43.03428]}},{"type":"Feature","properties":{"name":"NBD Center at Delaware","_color":"#1f6fb2"},"geometry":{"type":"Point","coordinates":[-83.6355,43.03998]}},{"type":"Feature","properties":{"name":"NBD Center at Gorey","_color":"#1f6fb2"},"geometry":{"type":"Point","coordinates":[-83.63496,43.0245]}},{"type":"Feature","properties":{"name":"NBD Center at Hurley Urgent Care","_color":"#1f6fb2"},"geometry":{"type":"Point","coordinates":[-83.6343,43.0026]}},{"type":"Feature","properties":{"name":"NBD Center at Ivanhoe","_color":"#1f6fb2"},"geometry":{"type":"Point","coordinates":[-83.63517,43.03164]}},{"type":"Feature","properties":{"name":"NBD Center at Klein","_color":"#1f6fb2"},"geometry":{"type":"Point","coordinates":[-83.63486,43.02157]}},{"type":"Feature","properties":{"name":"NBD Center at Lapeer","_color":"#1f6fb2"},"geometry":{"type":"Point","coordinates":[-83.63452,43.00998]}},{"type":"Feature","properties":{"name":"NBD Center at Lippincott","_color":"#1f6fb2"},"geometry":{"type":"Point","coordinates":[-83.63441,43.00486]}},{"type":"Feature","properties":{"name":"NBD Center at Lockwood of Burton","_color":"#1f6fb2"},"geometry":{"type":"Point","coordinates":[-83.63407,42.99937]}},{"type":"Feature","properties":{"name":"NBD Center at Maryland","_color":"#1f6fb2"},"geometry":{"type":"Point","coordinates":[-83.6355,43.04126]}},{"type":"Feature","properties":{"name":"NBD Center at Palmer","_color":"#1f6fb2"},"geometry":{"type":"Point","coordinates":[-83.63515,43.02957]}},{"type":"Feature","properties":{"name":"NBD Center at Risedorph","_color":"#1f6fb2"},"geometry":{"type":"Point","coordinates":[-83.63542,43.03858]}},{"type":"Feature","properties":{"name":"NBD Center at Starlite","_color":"#1f6fb2"},"geometry":{"type":"Point","coordinates":[-83.63525,43.03268]}},{"type":"Feature","properties":{"name":"NBD Genesee at Court","_color":"#1f6fb2"},"geometry":{"type":"Point","coordinates":[-83.615,43.01849]}},{"type":"Feature","properties":{"name":"NBD Kleinpell at Atherton","_color":"#1f6fb2"},"geometry":{"type":"Point","coordinates":[-83.64683,42.98917]}},{"type":"Feature","properties":{"name":"NBD Lapeer at Genesee","_color":"#1f6fb2"},"geometry":{"type":"Point","coordinates":[-83.6149,43.01103]}},{"type":"Feature","properties":{"name":"NBD Saginaw at Bristol","_color":"#1f6fb2"},"geometry":{"type":"Point","coordinates":[-83.67246,42.97381]}},{"type":"Feature","properties":{"name":"NBD Saginaw at Buder","_color":"#1f6fb2"},"geometry":{"type":"Point","coordinates":[-83.67203,42.96996]}},{"type":"Feature","properties":{"name":"NBD Saginaw at DeCamp","_color":"#1f6fb2"},"geometry":{"type":"Point","coordinates":[-83.67384,42.98001]}},{"type":"Feature","properties":{"name":"NBD Saginaw at Donovan","_color":"#1f6fb2"},"geometry":{"type":"Point","coordinates":[-83.67325,42.97751]}},{"type":"Feature","properties":{"name":"NBD Saginaw at Hemphill","_color":"#1f6fb2"},"geometry":{"type":"Point","coordinates":[-83.67411,42.98116]}},{"type":"Feature","properties":{"name":"NBD Saginaw at Jolson","_color":"#1f6fb2"},"geometry":{"type":"Point","coordinates":[-83.66999,42.96284]}},{"type":"Feature","properties":{"name":"NBD Saginaw at Judd","_color":"#1f6fb2"},"geometry":{"type":"Point","coordinates":[-83.67167,42.96708]}},{"type":"Feature","properties":{"name":"NBD Saginaw at Kenneth","_color":"#1f6fb2"},"geometry":{"type":"Point","coordinates":[-83.67285,42.97581]}},{"type":"Feature","properties":{"name":"NBD Saginaw at Morris","_color":"#1f6fb2"},"geometry":{"type":"Point","coordinates":[-83.67118,42.96481]}},{"type":"Feature","properties":{"name":"NBD Saginaw at Parkwood","_color":"#1f6fb2"},"geometry":{"type":"Point","coordinates":[-83.67219,42.97137]}},{"type":"Feature","properties":{"name":"NBD Saginaw at Schumacher","_color":"#1f6fb2"},"geometry":{"type":"Point","coordinates":[-83.67186,42.96853]}},{"type":"Feature","properties":{"name":"NBD Saginaw at Wells","_color":"#1f6fb2"},"geometry":{"type":"Point","coordinates":[-83.67362,42.9791]}},{"type":"Feature","properties":{"name":"NORTHGATE","_color":"#1f6fb2"},"geometry":{"type":"Point","coordinates":[-83.6307,43.03151]}},{"type":"Feature","properties":{"name":"S Grand Traverse & E Bristol Rd","_color":"#1f6fb2"},"geometry":{"type":"Point","coordinates":[-83.68269,42.97451]}},{"type":"Feature","properties":{"name":"S Grand Traverse St & Carman St","_color":"#1f6fb2"},"geometry":{"type":"Point","coordinates":[-83.68279,42.97792]}},{"type":"Feature","properties":{"name":"SBD Belsay Rd at Hugh St","_color":"#1f6fb2"},"geometry":{"type":"Point","coordinates":[-83.59574,43.02972]}},{"type":"Feature","properties":{"name":"SBD Belsay at Dollar Tree","_color":"#1f6fb2"},"geometry":{"type":"Point","coordinates":[-83.59562,43.02406]}},{"type":"Feature","properties":{"name":"SBD Center at Atherton","_color":"#1f6fb2"},"geometry":{"type":"Point","coordinates":[-83.634,42.9917]}},{"type":"Feature","properties":{"name":"SBD Center at Byers","_color":"#1f6fb2"},"geometry":{"type":"Point","coordinates":[-83.63415,42.99582]}},{"type":"Feature","properties":{"name":"SBD Center at Farley","_color":"#1f6fb2"},"geometry":{"type":"Point","coordinates":[-83.63438,43.00017]}},{"type":"Feature","properties":{"name":"SBD Genesee at Lapeer","_color":"#1f6fb2"},"geometry":{"type":"Point","coordinates":[-83.61514,43.01077]}},{"type":"Feature","properties":{"name":"SBD Saginaw at Allen","_color":"#1f6fb2"},"geometry":{"type":"Point","coordinates":[-83.67445,42.98128]}},{"type":"Feature","properties":{"name":"SBD Saginaw at Brady","_color":"#1f6fb2"},"geometry":{"type":"Point","coordinates":[-83.67183,42.96589]}},{"type":"Feature","properties":{"name":"SBD Saginaw at Bristol","_color":"#1f6fb2"},"geometry":{"type":"Point","coordinates":[-83.67286,42.97465]}},{"type":"Feature","properties":{"name":"SBD Saginaw at Buder","_color":"#1f6fb2"},"geometry":{"type":"Point","coordinates":[-83.67232,42.97018]}},{"type":"Feature","properties":{"name":"SBD Saginaw at Decamp","_color":"#1f6fb2"},"geometry":{"type":"Point","coordinates":[-83.67421,42.98042]}},{"type":"Feature","properties":{"name":"SBD Saginaw at Donovan","_color":"#1f6fb2"},"geometry":{"type":"Point","coordinates":[-83.67353,42.97754]}},{"type":"Feature","properties":{"name":"SBD Saginaw at Jolson","_color":"#1f6fb2"},"geometry":{"type":"Point","coordinates":[-83.67042,42.96318]}},{"type":"Feature","properties":{"name":"SBD Saginaw at Judd","_color":"#1f6fb2"},"geometry":{"type":"Point","coordinates":[-83.672,42.96732]}},{"type":"Feature","properties":{"name":"SBD Saginaw at Kenneth","_color":"#1f6fb2"},"geometry":{"type":"Point","coordinates":[-83.67323,42.97625]}},{"type":"Feature","properties":{"name":"SBD Saginaw at Maple","_color":"#1f6fb2"},"geometry":{"type":"Point","coordinates":[-83.66804,42.96038]}},{"type":"Feature","properties":{"name":"SBD Saginaw at Natallie","_color":"#1f6fb2"},"geometry":{"type":"Point","coordinates":[-83.67265,42.97313]}},{"type":"Feature","properties":{"name":"SBD Saginaw at Parkwood","_color":"#1f6fb2"},"geometry":{"type":"Point","coordinates":[-83.67248,42.97162]}},{"type":"Feature","properties":{"name":"SBD Saginaw at Proper","_color":"#1f6fb2"},"geometry":{"type":"Point","coordinates":[-83.67142,42.96467]}},{"type":"Feature","properties":{"name":"SBD Saginaw at Schumacher","_color":"#1f6fb2"},"geometry":{"type":"Point","coordinates":[-83.67216,42.96877]}},{"type":"Feature","properties":{"name":"SBD Saginaw at Wells","_color":"#1f6fb2"},"geometry":{"type":"Point","coordinates":[-83.67386,42.97892]}},{"type":"Feature","properties":{"name":"WBD Atherton at Clarice","_color":"#1f6fb2"},"geometry":{"type":"Point","coordinates":[-83.63551,42.9896]}},{"type":"Feature","properties":{"name":"WBD Atherton at Stonegate","_color":"#1f6fb2"},"geometry":{"type":"Point","coordinates":[-83.64536,42.9892]}},{"type":"Feature","properties":{"name":"WBD Atherton at Term","_color":"#1f6fb2"},"geometry":{"type":"Point","coordinates":[-83.64194,42.98943]}},{"type":"Feature","properties":{"name":"WBD Bristol Rd & Camden Ave","_color":"#1f6fb2"},"geometry":{"type":"Point","coordinates":[-83.68642,42.97427]}},{"type":"Feature","properties":{"name":"WBD Bristol at Fenton","_color":"#1f6fb2"},"geometry":{"type":"Point","coordinates":[-83.6913,42.97419]}},{"type":"Feature","properties":{"name":"WBD Court at Centennial","_color":"#1f6fb2"},"geometry":{"type":"Point","coordinates":[-83.57861,43.01967]}},{"type":"Feature","properties":{"name":"WBD Court at Genesee","_color":"#1f6fb2"},"geometry":{"type":"Point","coordinates":[-83.61297,43.0192]}},{"type":"Feature","properties":{"name":"WBD Davison & Donegal","_color":"#1f6fb2"},"geometry":{"type":"Point","coordinates":[-83.63034,43.03322]}},{"type":"Feature","properties":{"name":"WBD Davison Rd at N Genesee Rd","_color":"#1f6fb2"},"geometry":{"type":"Point","coordinates":[-83.61581,43.03295]}},{"type":"Feature","properties":{"name":"WBD Davison at Crestline","_color":"#1f6fb2"},"geometry":{"type":"Point","coordinates":[-83.59935,43.03363]}},{"type":"Feature","properties":{"name":"WBD Davison at Delaney","_color":"#1f6fb2"},"geometry":{"type":"Point","coordinates":[-83.63234,43.03327]}},{"type":"Feature","properties":{"name":"WBD Davison at Wilmar","_color":"#1f6fb2"},"geometry":{"type":"Point","coordinates":[-83.62282,43.03319]}},{"type":"Feature","properties":{"name":"WBD Lapeer at Munson","_color":"#1f6fb2"},"geometry":{"type":"Point","coordinates":[-83.61959,43.01052]}},{"type":"Feature","properties":{"name":"Walmart on Belsay","_color":"#1f6fb2"},"geometry":{"type":"Point","coordinates":[-83.5996,43.02244]}}]}
