{"type":"FeatureCollection","_source":"City of Burton adopted FY2026-27 capital plan, each project clipped to its named road section on the Genesee County (GCMPC) PASER federal-aid network.","features":[{"type":"Feature","properties":{"name":"N Genesee Rd","_color":"#7b1fa2","_weight":6,"_popupRows":[["Status","Funded for improvement"],["Capital plan","FY2026-27"],["Project","Genesee Rd reconstruction (Atherton to Court)"],["Budgeted","$3.2M"]]},"geometry":{"type":"LineString","coordinates":[[-83.61433,42.9897],[-83.61442,42.99202]]}},{"type":"Feature","properties":{"name":"N Genesee Rd","_color":"#7b1fa2","_weight":6,"_popupRows":[["Status","Funded for improvement"],["Capital plan","FY2026-27"],["Project","Genesee Rd reconstruction (Atherton to Court)"],["Budgeted","$3.2M"]]},"geometry":{"type":"LineString","coordinates":[[-83.61442,42.99202],[-83.61449,42.99573]]}},{"type":"Feature","properties":{"name":"N Genesee Rd","_color":"#7b1fa2","_weight":6,"_popupRows":[["Status","Funded for improvement"],["Capital plan","FY2026-27"],["Project","Genesee Rd reconstruction (Atherton to Court)"],["Budgeted","$3.2M"]]},"geometry":{"type":"LineString","coordinates":[[-83.61449,42.99573],[-83.61469,43.00059]]}},{"type":"Feature","properties":{"name":"N Genesee Rd","_color":"#7b1fa2","_weight":6,"_popupRows":[["Status","Funded for improvement"],["Capital plan","FY2026-27"],["Project","Genesee Rd reconstruction (Atherton to Court)"],["Budgeted","$3.2M"]]},"geometry":{"type":"LineString","coordinates":[[-83.61469,43.00059],[-83.61487,43.00415]]}},{"type":"Feature","properties":{"name":"N Genesee Rd","_color":"#7b1fa2","_weight":6,"_popupRows":[["Status","Funded for improvement"],["Capital plan","FY2026-27"],["Project","Genesee Rd reconstruction (Atherton to Court)"],["Budgeted","$3.2M"]]},"geometry":{"type":"LineString","coordinates":[[-83.61487,43.00415],[-83.615,43.01054]]}},{"type":"Feature","properties":{"name":"N Genesee Rd","_color":"#7b1fa2","_weight":6,"_popupRows":[["Status","Funded for improvement"],["Capital plan","FY2026-27"],["Project","Genesee Rd reconstruction (Atherton to Court)"],["Budgeted","$3.2M"]]},"geometry":{"type":"LineString","coordinates":[[-83.615,43.01054],[-83.61503,43.01297]]}},{"type":"Feature","properties":{"name":"N Genesee Rd","_color":"#7b1fa2","_weight":6,"_popupRows":[["Status","Funded for improvement"],["Capital plan","FY2026-27"],["Project","Genesee Rd reconstruction (Atherton to Court)"],["Budgeted","$3.2M"]]},"geometry":{"type":"LineString","coordinates":[[-83.61503,43.01297],[-83.61508,43.01535]]}},{"type":"Feature","properties":{"name":"N Genesee Rd","_color":"#7b1fa2","_weight":6,"_popupRows":[["Status","Funded for improvement"],["Capital plan","FY2026-27"],["Project","Genesee Rd reconstruction (Atherton to Court)"],["Budgeted","$3.2M"]]},"geometry":{"type":"LineString","coordinates":[[-83.61508,43.01535],[-83.61508,43.01664]]}},{"type":"Feature","properties":{"name":"N Genesee Rd","_color":"#7b1fa2","_weight":6,"_popupRows":[["Status","Funded for improvement"],["Capital plan","FY2026-27"],["Project","Genesee Rd reconstruction (Atherton to Court)"],["Budgeted","$3.2M"]]},"geometry":{"type":"LineString","coordinates":[[-83.61508,43.01664],[-83.61512,43.0171]]}},{"type":"Feature","properties":{"name":"N Genesee Rd","_color":"#7b1fa2","_weight":6,"_popupRows":[["Status","Funded for improvement"],["Capital plan","FY2026-27"],["Project","Genesee Rd reconstruction (Atherton to Court)"],["Budgeted","$3.2M"]]},"geometry":{"type":"LineString","coordinates":[[-83.61512,43.0171],[-83.61511,43.01763]]}},{"type":"Feature","properties":{"name":"N Genesee Rd","_color":"#7b1fa2","_weight":6,"_popupRows":[["Status","Funded for improvement"],["Capital plan","FY2026-27"],["Project","Genesee Rd reconstruction (Atherton to Court)"],["Budgeted","$3.2M"]]},"geometry":{"type":"LineString","coordinates":[[-83.61511,43.01763],[-83.6151,43.01797]]}},{"type":"Feature","properties":{"name":"N Genesee Rd","_color":"#7b1fa2","_weight":6,"_popupRows":[["Status","Funded for improvement"],["Capital plan","FY2026-27"],["Project","Genesee Rd reconstruction (Atherton to Court)"],["Budgeted","$3.2M"]]},"geometry":{"type":"LineString","coordinates":[[-83.6151,43.01797],[-83.61508,43.01872]]}},{"type":"Feature","properties":{"name":"W Court St","_color":"#7b1fa2","_weight":6,"_popupRows":[["Status","Funded for improvement"],["Capital plan","FY2026-27"],["Project","Court St (Genesee to city limits)"],["Budgeted","$1.2M"]]},"geometry":{"type":"LineString","coordinates":[[-83.61692,43.01868],[-83.61508,43.01872]]}},{"type":"Feature","properties":{"name":"W Court St","_color":"#7b1fa2","_weight":6,"_popupRows":[["Status","Funded for improvement"],["Capital plan","FY2026-27"],["Project","Court St (Genesee to city limits)"],["Budgeted","$1.2M"]]},"geometry":{"type":"LineString","coordinates":[[-83.61508,43.01872],[-83.61422,43.0188],[-83.61037,43.0197],[-83.60858,43.01989]]}},{"type":"Feature","properties":{"name":"W Court St","_color":"#7b1fa2","_weight":6,"_popupRows":[["Status","Funded for improvement"],["Capital plan","FY2026-27"],["Project","Court St (Genesee to city limits)"],["Budgeted","$1.2M"]]},"geometry":{"type":"LineString","coordinates":[[-83.60858,43.01989],[-83.6005,43.02008],[-83.59957,43.02033],[-83.59879,43.02081],[-83.59794,43.02186],[-83.59725,43.02234],[-83.5954,43.02246]]}},{"type":"Feature","properties":{"name":"W Court St","_color":"#7b1fa2","_weight":6,"_popupRows":[["Status","Funded for improvement"],["Capital plan","FY2026-27"],["Project","Court St (Genesee to city limits)"],["Budgeted","$1.2M"]]},"geometry":{"type":"LineString","coordinates":[[-83.5954,43.02246],[-83.59354,43.02242],[-83.59213,43.02159]]}},{"type":"Feature","properties":{"name":"W Court St","_color":"#7b1fa2","_weight":6,"_popupRows":[["Status","Funded for improvement"],["Capital plan","FY2026-27"],["Project","Court St (Genesee to city limits)"],["Budgeted","$1.2M"]]},"geometry":{"type":"LineString","coordinates":[[-83.59213,43.02159],[-83.59072,43.0207],[-83.58902,43.02025],[-83.58205,43.0202],[-83.57879,43.01966]]}},{"type":"Feature","properties":{"name":"W Court St","_color":"#7b1fa2","_weight":6,"_popupRows":[["Status","Funded for improvement"],["Capital plan","FY2026-27"],["Project","Court St (Genesee to city limits)"],["Budgeted","$1.2M"]]},"geometry":{"type":"LineString","coordinates":[[-83.57879,43.01966],[-83.57683,43.01918],[-83.57575,43.01911]]}},{"type":"Feature","properties":{"name":"Covert Rd","_color":"#7b1fa2","_weight":6,"_popupRows":[["Status","Funded for improvement"],["Capital plan","FY2026-27"],["Project","Covert Rd (Davison to city limits)"],["Budgeted","$1.1M"]]},"geometry":{"type":"LineString","coordinates":[[-83.62549,43.03314],[-83.62555,43.03617]]}},{"type":"Feature","properties":{"name":"Covert Rd","_color":"#7b1fa2","_weight":6,"_popupRows":[["Status","Funded for improvement"],["Capital plan","FY2026-27"],["Project","Covert Rd (Davison to city limits)"],["Budgeted","$1.1M"]]},"geometry":{"type":"LineString","coordinates":[[-83.62555,43.03617],[-83.62561,43.03737]]}},{"type":"Feature","properties":{"name":"Covert Rd","_color":"#7b1fa2","_weight":6,"_popupRows":[["Status","Funded for improvement"],["Capital plan","FY2026-27"],["Project","Covert Rd (Davison to city limits)"],["Budgeted","$1.1M"]]},"geometry":{"type":"LineString","coordinates":[[-83.62561,43.03737],[-83.62561,43.03752]]}},{"type":"Feature","properties":{"name":"Covert Rd","_color":"#7b1fa2","_weight":6,"_popupRows":[["Status","Funded for improvement"],["Capital plan","FY2026-27"],["Project","Covert Rd (Davison to city limits)"],["Budgeted","$1.1M"]]},"geometry":{"type":"LineString","coordinates":[[-83.62561,43.03752],[-83.62563,43.03831]]}},{"type":"Feature","properties":{"name":"Covert Rd","_color":"#7b1fa2","_weight":6,"_popupRows":[["Status","Funded for improvement"],["Capital plan","FY2026-27"],["Project","Covert Rd (Davison to city limits)"],["Budgeted","$1.1M"]]},"geometry":{"type":"LineString","coordinates":[[-83.62563,43.03831],[-83.62563,43.03859]]}},{"type":"Feature","properties":{"name":"Covert Rd","_color":"#7b1fa2","_weight":6,"_popupRows":[["Status","Funded for improvement"],["Capital plan","FY2026-27"],["Project","Covert Rd (Davison to city limits)"],["Budgeted","$1.1M"]]},"geometry":{"type":"LineString","coordinates":[[-83.62563,43.03859],[-83.62564,43.03976]]}},{"type":"Feature","properties":{"name":"Covert Rd","_color":"#7b1fa2","_weight":6,"_popupRows":[["Status","Funded for improvement"],["Capital plan","FY2026-27"],["Project","Covert Rd (Davison to city limits)"],["Budgeted","$1.1M"]]},"geometry":{"type":"LineString","coordinates":[[-83.62564,43.03976],[-83.62568,43.04154]]}},{"type":"Feature","properties":{"name":"Covert Rd","_color":"#7b1fa2","_weight":6,"_popupRows":[["Status","Funded for improvement"],["Capital plan","FY2026-27"],["Project","Covert Rd (Davison to city limits)"],["Budgeted","$1.1M"]]},"geometry":{"type":"LineString","coordinates":[[-83.62568,43.04154],[-83.62576,43.04308]]}},{"type":"Feature","properties":{"name":"Covert Rd","_color":"#7b1fa2","_weight":6,"_popupRows":[["Status","Funded for improvement"],["Capital plan","FY2026-27"],["Project","Covert Rd (Davison to city limits)"],["Budgeted","$1.1M"]]},"geometry":{"type":"LineString","coordinates":[[-83.62576,43.04308],[-83.62578,43.04398]]}},{"type":"Feature","properties":{"name":"Covert Rd","_color":"#7b1fa2","_weight":6,"_popupRows":[["Status","Funded for improvement"],["Capital plan","FY2026-27"],["Project","Covert Rd (Davison to city limits)"],["Budgeted","$1.1M"]]},"geometry":{"type":"LineString","coordinates":[[-83.62578,43.04398],[-83.62584,43.04468]]}},{"type":"Feature","properties":{"name":"E Maple Ave","_color":"#7b1fa2","_weight":6,"_popupRows":[["Status","Funded for improvement"],["Capital plan","FY2026-27"],["Project","Maple Ave (Dort to Center)"],["Budgeted","$260k"]]},"geometry":{"type":"LineString","coordinates":[[-83.65244,42.96026],[-83.64753,42.96032]]}},{"type":"Feature","properties":{"name":"E Maple Ave","_color":"#7b1fa2","_weight":6,"_popupRows":[["Status","Funded for improvement"],["Capital plan","FY2026-27"],["Project","Maple Ave (Dort to Center)"],["Budgeted","$260k"]]},"geometry":{"type":"LineString","coordinates":[[-83.64753,42.96032],[-83.64645,42.96034]]}},{"type":"Feature","properties":{"name":"E Maple Ave","_color":"#7b1fa2","_weight":6,"_popupRows":[["Status","Funded for improvement"],["Capital plan","FY2026-27"],["Project","Maple Ave (Dort to Center)"],["Budgeted","$260k"]]},"geometry":{"type":"LineString","coordinates":[[-83.64645,42.96034],[-83.64288,42.96037]]}},{"type":"Feature","properties":{"name":"E Maple Ave","_color":"#7b1fa2","_weight":6,"_popupRows":[["Status","Funded for improvement"],["Capital plan","FY2026-27"],["Project","Maple Ave (Dort to Center)"],["Budgeted","$260k"]]},"geometry":{"type":"LineString","coordinates":[[-83.64288,42.96037],[-83.64243,42.96036]]}},{"type":"Feature","properties":{"name":"E Maple Ave","_color":"#7b1fa2","_weight":6,"_popupRows":[["Status","Funded for improvement"],["Capital plan","FY2026-27"],["Project","Maple Ave (Dort to Center)"],["Budgeted","$260k"]]},"geometry":{"type":"LineString","coordinates":[[-83.64243,42.96036],[-83.63923,42.96041]]}},{"type":"Feature","properties":{"name":"E Maple Ave","_color":"#7b1fa2","_weight":6,"_popupRows":[["Status","Funded for improvement"],["Capital plan","FY2026-27"],["Project","Maple Ave (Dort to Center)"],["Budgeted","$260k"]]},"geometry":{"type":"LineString","coordinates":[[-83.63923,42.96041],[-83.63687,42.96046]]}},{"type":"Feature","properties":{"name":"E Maple Ave","_color":"#7b1fa2","_weight":6,"_popupRows":[["Status","Funded for improvement"],["Capital plan","FY2026-27"],["Project","Maple Ave (Dort to Center)"],["Budgeted","$260k"]]},"geometry":{"type":"LineString","coordinates":[[-83.63687,42.96046],[-83.63413,42.96046]]}},{"type":"Feature","properties":{"name":"E Maple Ave","_color":"#7b1fa2","_weight":6,"_popupRows":[["Status","Funded for improvement"],["Capital plan","FY2026-27"],["Project","Maple Ave (Dort to Center)"],["Budgeted","$260k"]]},"geometry":{"type":"LineString","coordinates":[[-83.63413,42.96046],[-83.63286,42.96048]]}},{"type":"Feature","properties":{"name":"W Hemphill Rd","_color":"#7b1fa2","_weight":6,"_popupRows":[["Status","Funded for improvement"],["Capital plan","FY2026-27"],["Project","Hemphill Rd (city limits to Saginaw)"],["Budgeted","$212k"]]},"geometry":{"type":"LineString","coordinates":[[-83.6906,42.98141],[-83.68886,42.98142]]}},{"type":"Feature","properties":{"name":"W Hemphill Rd","_color":"#7b1fa2","_weight":6,"_popupRows":[["Status","Funded for improvement"],["Capital plan","FY2026-27"],["Project","Hemphill Rd (city limits to Saginaw)"],["Budgeted","$212k"]]},"geometry":{"type":"LineString","coordinates":[[-83.68521,42.9815],[-83.68292,42.98154]]}},{"type":"Feature","properties":{"name":"W Hemphill Rd","_color":"#7b1fa2","_weight":6,"_popupRows":[["Status","Funded for improvement"],["Capital plan","FY2026-27"],["Project","Hemphill Rd (city limits to Saginaw)"],["Budgeted","$212k"]]},"geometry":{"type":"LineString","coordinates":[[-83.68292,42.98154],[-83.68232,42.98154]]}},{"type":"Feature","properties":{"name":"W Hemphill Rd","_color":"#7b1fa2","_weight":6,"_popupRows":[["Status","Funded for improvement"],["Capital plan","FY2026-27"],["Project","Hemphill Rd (city limits to Saginaw)"],["Budgeted","$212k"]]},"geometry":{"type":"LineString","coordinates":[[-83.68232,42.98154],[-83.68212,42.98155]]}},{"type":"Feature","properties":{"name":"W Hemphill Rd","_color":"#7b1fa2","_weight":6,"_popupRows":[["Status","Funded for improvement"],["Capital plan","FY2026-27"],["Project","Hemphill Rd (city limits to Saginaw)"],["Budgeted","$212k"]]},"geometry":{"type":"LineString","coordinates":[[-83.68212,42.98155],[-83.68159,42.98156]]}},{"type":"Feature","properties":{"name":"E Bristol Rd","_color":"#7b1fa2","_weight":6,"_popupRows":[["Status","Funded for improvement"],["Capital plan","FY2026-27"],["Project","Bristol Rd (Saginaw to Dort)"],["Budgeted","$120k"]]},"geometry":{"type":"LineString","coordinates":[[-83.67265,42.97444],[-83.66921,42.97449]]}},{"type":"Feature","properties":{"name":"E Bristol Rd","_color":"#7b1fa2","_weight":6,"_popupRows":[["Status","Funded for improvement"],["Capital plan","FY2026-27"],["Project","Bristol Rd (Saginaw to Dort)"],["Budgeted","$120k"]]},"geometry":{"type":"LineString","coordinates":[[-83.66921,42.97449],[-83.66601,42.97452]]}},{"type":"Feature","properties":{"name":"E Bristol Rd","_color":"#7b1fa2","_weight":6,"_popupRows":[["Status","Funded for improvement"],["Capital plan","FY2026-27"],["Project","Bristol Rd (Saginaw to Dort)"],["Budgeted","$120k"]]},"geometry":{"type":"LineString","coordinates":[[-83.66601,42.97452],[-83.66504,42.97457]]}},{"type":"Feature","properties":{"name":"E Bristol Rd","_color":"#7b1fa2","_weight":6,"_popupRows":[["Status","Funded for improvement"],["Capital plan","FY2026-27"],["Project","Bristol Rd (Saginaw to Dort)"],["Budgeted","$120k"]]},"geometry":{"type":"LineString","coordinates":[[-83.66504,42.97457],[-83.66331,42.97458]]}},{"type":"Feature","properties":{"name":"E Bristol Rd","_color":"#7b1fa2","_weight":6,"_popupRows":[["Status","Funded for improvement"],["Capital plan","FY2026-27"],["Project","Bristol Rd (Saginaw to Dort)"],["Budgeted","$120k"]]},"geometry":{"type":"LineString","coordinates":[[-83.66331,42.97458],[-83.66135,42.9746]]}},{"type":"Feature","properties":{"name":"E Bristol Rd","_color":"#7b1fa2","_weight":6,"_popupRows":[["Status","Funded for improvement"],["Capital plan","FY2026-27"],["Project","Bristol Rd (Saginaw to Dort)"],["Budgeted","$120k"]]},"geometry":{"type":"LineString","coordinates":[[-83.66135,42.9746],[-83.6597,42.97464]]}},{"type":"Feature","properties":{"name":"E Bristol Rd","_color":"#7b1fa2","_weight":6,"_popupRows":[["Status","Funded for improvement"],["Capital plan","FY2026-27"],["Project","Bristol Rd (Saginaw to Dort)"],["Budgeted","$120k"]]},"geometry":{"type":"LineString","coordinates":[[-83.6597,42.97464],[-83.65718,42.97468]]}},{"type":"Feature","properties":{"name":"E Bristol Rd","_color":"#7b1fa2","_weight":6,"_popupRows":[["Status","Funded for improvement"],["Capital plan","FY2026-27"],["Project","Bristol Rd (Saginaw to Dort)"],["Budgeted","$120k"]]},"geometry":{"type":"LineString","coordinates":[[-83.65718,42.97468],[-83.65292,42.97472]]}},{"type":"Feature","properties":{"name":"S Grand Traverse St","_color":"#7b1fa2","_weight":6,"_popupRows":[["Status","Funded for improvement"],["Capital plan","FY2026-27"],["Project","N Grand Traverse (Bristol to Hemphill)"],["Budgeted","$100k"]]},"geometry":{"type":"LineString","coordinates":[[-83.68129,42.97428],[-83.68133,42.97509]]}},{"type":"Feature","properties":{"name":"S Grand Traverse St","_color":"#7b1fa2","_weight":6,"_popupRows":[["Status","Funded for improvement"],["Capital plan","FY2026-27"],["Project","N Grand Traverse (Bristol to Hemphill)"],["Budgeted","$100k"]]},"geometry":{"type":"LineString","coordinates":[[-83.68133,42.97509],[-83.68135,42.97579]]}},{"type":"Feature","properties":{"name":"S Grand Traverse St","_color":"#7b1fa2","_weight":6,"_popupRows":[["Status","Funded for improvement"],["Capital plan","FY2026-27"],["Project","N Grand Traverse (Bristol to Hemphill)"],["Budgeted","$100k"]]},"geometry":{"type":"LineString","coordinates":[[-83.68135,42.97579],[-83.68139,42.9765]]}},{"type":"Feature","properties":{"name":"S Grand Traverse St","_color":"#7b1fa2","_weight":6,"_popupRows":[["Status","Funded for improvement"],["Capital plan","FY2026-27"],["Project","N Grand Traverse (Bristol to Hemphill)"],["Budgeted","$100k"]]},"geometry":{"type":"LineString","coordinates":[[-83.68139,42.9765],[-83.68142,42.97719]]}},{"type":"Feature","properties":{"name":"S Grand Traverse St","_color":"#7b1fa2","_weight":6,"_popupRows":[["Status","Funded for improvement"],["Capital plan","FY2026-27"],["Project","N Grand Traverse (Bristol to Hemphill)"],["Budgeted","$100k"]]},"geometry":{"type":"LineString","coordinates":[[-83.68142,42.97719],[-83.68145,42.97791]]}},{"type":"Feature","properties":{"name":"S Grand Traverse St","_color":"#7b1fa2","_weight":6,"_popupRows":[["Status","Funded for improvement"],["Capital plan","FY2026-27"],["Project","N Grand Traverse (Bristol to Hemphill)"],["Budgeted","$100k"]]},"geometry":{"type":"LineString","coordinates":[[-83.68145,42.97791],[-83.68149,42.97867]]}},{"type":"Feature","properties":{"name":"S Grand Traverse St","_color":"#7b1fa2","_weight":6,"_popupRows":[["Status","Funded for improvement"],["Capital plan","FY2026-27"],["Project","N Grand Traverse (Bristol to Hemphill)"],["Budgeted","$100k"]]},"geometry":{"type":"LineString","coordinates":[[-83.68149,42.97867],[-83.6815,42.97938]]}},{"type":"Feature","properties":{"name":"S Grand Traverse St","_color":"#7b1fa2","_weight":6,"_popupRows":[["Status","Funded for improvement"],["Capital plan","FY2026-27"],["Project","N Grand Traverse (Bristol to Hemphill)"],["Budgeted","$100k"]]},"geometry":{"type":"LineString","coordinates":[[-83.6815,42.97938],[-83.68153,42.9801]]}},{"type":"Feature","properties":{"name":"S Grand Traverse St","_color":"#7b1fa2","_weight":6,"_popupRows":[["Status","Funded for improvement"],["Capital plan","FY2026-27"],["Project","N Grand Traverse (Bristol to Hemphill)"],["Budgeted","$100k"]]},"geometry":{"type":"LineString","coordinates":[[-83.68153,42.9801],[-83.68156,42.9805]]}},{"type":"Feature","properties":{"name":"S Grand Traverse St","_color":"#7b1fa2","_weight":6,"_popupRows":[["Status","Funded for improvement"],["Capital plan","FY2026-27"],["Project","N Grand Traverse (Bristol to Hemphill)"],["Budgeted","$100k"]]},"geometry":{"type":"LineString","coordinates":[[-83.68156,42.9805],[-83.68158,42.98083]]}},{"type":"Feature","properties":{"name":"S Grand Traverse St","_color":"#7b1fa2","_weight":6,"_popupRows":[["Status","Funded for improvement"],["Capital plan","FY2026-27"],["Project","N Grand Traverse (Bristol to Hemphill)"],["Budgeted","$100k"]]},"geometry":{"type":"LineString","coordinates":[[-83.68158,42.98083],[-83.68159,42.98156]]}},{"type":"Feature","properties":{"name":"S Grand Traverse St","_color":"#7b1fa2","_weight":6,"_popupRows":[["Status","Funded for improvement"],["Capital plan","FY2026-27"],["Project","N Grand Traverse (Bristol to Hemphill)"],["Budgeted","$100k"]]},"geometry":{"type":"LineString","coordinates":[[-83.68256,42.97426],[-83.68274,42.9779]]}},{"type":"Feature","properties":{"name":"S Grand Traverse St","_color":"#7b1fa2","_weight":6,"_popupRows":[["Status","Funded for improvement"],["Capital plan","FY2026-27"],["Project","N Grand Traverse (Bristol to Hemphill)"],["Budgeted","$100k"]]},"geometry":{"type":"LineString","coordinates":[[-83.68274,42.9779],[-83.68276,42.97864]]}},{"type":"Feature","properties":{"name":"S Grand Traverse St","_color":"#7b1fa2","_weight":6,"_popupRows":[["Status","Funded for improvement"],["Capital plan","FY2026-27"],["Project","N Grand Traverse (Bristol to Hemphill)"],["Budgeted","$100k"]]},"geometry":{"type":"LineString","coordinates":[[-83.68276,42.97864],[-83.6828,42.97935]]}},{"type":"Feature","properties":{"name":"S Grand Traverse St","_color":"#7b1fa2","_weight":6,"_popupRows":[["Status","Funded for improvement"],["Capital plan","FY2026-27"],["Project","N Grand Traverse (Bristol to Hemphill)"],["Budgeted","$100k"]]},"geometry":{"type":"LineString","coordinates":[[-83.6828,42.97935],[-83.68283,42.98009]]}},{"type":"Feature","properties":{"name":"S Grand Traverse St","_color":"#7b1fa2","_weight":6,"_popupRows":[["Status","Funded for improvement"],["Capital plan","FY2026-27"],["Project","N Grand Traverse (Bristol to Hemphill)"],["Budgeted","$100k"]]},"geometry":{"type":"LineString","coordinates":[[-83.68283,42.98009],[-83.68284,42.98046]]}},{"type":"Feature","properties":{"name":"S Grand Traverse St","_color":"#7b1fa2","_weight":6,"_popupRows":[["Status","Funded for improvement"],["Capital plan","FY2026-27"],["Project","N Grand Traverse (Bristol to Hemphill)"],["Budgeted","$100k"]]},"geometry":{"type":"LineString","coordinates":[[-83.68284,42.98046],[-83.68287,42.9808]]}},{"type":"Feature","properties":{"name":"S Grand Traverse St","_color":"#7b1fa2","_weight":6,"_popupRows":[["Status","Funded for improvement"],["Capital plan","FY2026-27"],["Project","N Grand Traverse (Bristol to Hemphill)"],["Budgeted","$100k"]]},"geometry":{"type":"LineString","coordinates":[[-83.68287,42.9808],[-83.68292,42.98154]]}},{"type":"Feature","properties":{"name":"N Genesee Rd","_color":"#7b1fa2","_weight":6,"_popupRows":[["Status","Funded for improvement"],["Capital plan","FY2026-27"],["Project","Genesee Rd (Court to Davison)"],["Budgeted","$35k"]]},"geometry":{"type":"LineString","coordinates":[[-83.6151,43.01797],[-83.61508,43.01872]]}},{"type":"Feature","properties":{"name":"N Genesee Rd","_color":"#7b1fa2","_weight":6,"_popupRows":[["Status","Funded for improvement"],["Capital plan","FY2026-27"],["Project","Genesee Rd (Court to Davison)"],["Budgeted","$35k"]]},"geometry":{"type":"LineString","coordinates":[[-83.61526,43.02727],[-83.61542,43.03305]]}},{"type":"Feature","properties":{"name":"N Genesee Rd","_color":"#7b1fa2","_weight":6,"_popupRows":[["Status","Funded for improvement"],["Capital plan","FY2026-27"],["Project","Genesee Rd (Court to Davison)"],["Budgeted","$35k"]]},"geometry":{"type":"LineString","coordinates":[[-83.61542,43.03305],[-83.6155,43.03459]]}},{"type":"Feature","properties":{"name":"N Genesee Rd","_color":"#7b1fa2","_weight":6,"_popupRows":[["Status","Funded for improvement"],["Capital plan","FY2026-27"],["Project","Genesee Rd (Court to Davison)"],["Budgeted","$35k"]]},"geometry":{"type":"LineString","coordinates":[[-83.61508,43.01872],[-83.61525,43.02622]]}},{"type":"Feature","properties":{"name":"N Genesee Rd","_color":"#7b1fa2","_weight":6,"_popupRows":[["Status","Funded for improvement"],["Capital plan","FY2026-27"],["Project","Genesee Rd (Court to Davison)"],["Budgeted","$35k"]]},"geometry":{"type":"LineString","coordinates":[[-83.61525,43.02622],[-83.61526,43.02727]]}},{"type":"Feature","properties":{"name":"S Belsay Rd","_color":"#7b1fa2","_weight":6,"_popupRows":[["Status","Funded for improvement"],["Capital plan","FY2026-27"],["Project","Belsay Rd (Lapeer to I-69)"],["Budgeted","$20k"]]},"geometry":{"type":"LineString","coordinates":[[-83.59513,43.01098],[-83.59525,43.01544]]}},{"type":"Feature","properties":{"name":"S Belsay Rd","_color":"#7b1fa2","_weight":6,"_popupRows":[["Status","Funded for improvement"],["Capital plan","FY2026-27"],["Project","Belsay Rd (Lapeer to I-69)"],["Budgeted","$20k"]]},"geometry":{"type":"LineString","coordinates":[[-83.59525,43.01544],[-83.59527,43.01726]]}},{"type":"Feature","properties":{"name":"S Belsay Rd","_color":"#7b1fa2","_weight":6,"_popupRows":[["Status","Funded for improvement"],["Capital plan","FY2026-27"],["Project","Belsay Rd (Lapeer to I-69)"],["Budgeted","$20k"]]},"geometry":{"type":"LineString","coordinates":[[-83.59527,43.01726],[-83.59531,43.01771]]}},{"type":"Feature","properties":{"name":"S Belsay Rd","_color":"#7b1fa2","_weight":6,"_popupRows":[["Status","Funded for improvement"],["Capital plan","FY2026-27"],["Project","Belsay Rd (Lapeer to I-69)"],["Budgeted","$20k"]]},"geometry":{"type":"LineString","coordinates":[[-83.59531,43.01771],[-83.59534,43.01854]]}},{"type":"Feature","properties":{"name":"S Belsay Rd","_color":"#7b1fa2","_weight":6,"_popupRows":[["Status","Funded for improvement"],["Capital plan","FY2026-27"],["Project","Belsay Rd (Lapeer to I-69)"],["Budgeted","$20k"]]},"geometry":{"type":"LineString","coordinates":[[-83.59534,43.01854],[-83.59535,43.01944]]}},{"type":"Feature","properties":{"name":"S Belsay Rd","_color":"#7b1fa2","_weight":6,"_popupRows":[["Status","Funded for improvement"],["Capital plan","FY2026-27"],["Project","Belsay Rd (Lapeer to I-69)"],["Budgeted","$20k"]]},"geometry":{"type":"LineString","coordinates":[[-83.59535,43.01944],[-83.59536,43.01977]]}}]}
