{"type":"FeatureCollection","_source":"Genesee County parks (GCMPC Genesee_County_Parks), park footprints whose center lies within the City of Burton, colored by who runs the park.","features":[{"type":"Feature","properties":{"name":"Kelly Lake Park","category":"City of Burton","_color":"#2e7d32","_fillOpacity":0.45,"_weight":1,"_popupRows":[["Type","City of Burton Park"],["Owner","City of Burton"],["Size","40.7 acres"]]},"geometry":{"type":"Polygon","coordinates":[[[-83.62238,43.01461],[-83.61523,43.01725],[-83.61522,43.01701],[-83.6175,43.01613],[-83.61752,43.01332],[-83.62,43.01331],[-83.61995,43.01142],[-83.6224,43.01142],[-83.62241,43.01199],[-83.62319,43.01199],[-83.62324,43.01365],[-83.6245,43.01365],[-83.62451,43.01383],[-83.62324,43.01383],[-83.62326,43.01435],[-83.62238,43.01461]]]}},{"type":"Feature","properties":{"name":"For-Mar Nature Preserve and Arboretum","category":"Genesee County","_color":"#1565c0","_fillOpacity":0.45,"_weight":1,"_popupRows":[["Type","County Park"],["Owner","Genesee County Parks"],["Size","364.3 acres"]]},"geometry":{"type":"Polygon","coordinates":[[[-83.60534,43.03346],[-83.61523,43.03318],[-83.61542,43.03809],[-83.61405,43.03811],[-83.61406,43.0384],[-83.6141,43.03937],[-83.61547,43.03934],[-83.61561,43.04394],[-83.60845,43.04405],[-83.60852,43.04764],[-83.60361,43.04769],[-83.60358,43.04709],[-83.60321,43.0471],[-83.60323,43.0477],[-83.60203,43.04771],[-83.60201,43.04711],[-83.60113,43.04712],[-83.60083,43.04065],[-83.60329,43.04058],[-83.60312,43.03353],[-83.60534,43.03346]]]}},{"type":"Feature","properties":{"name":"Davison Roadside Park","category":"Genesee County","_color":"#1565c0","_fillOpacity":0.45,"_weight":1,"_popupRows":[["Type","County Park"],["Owner","Genesee County Parks"],["Size","5.2 acres"]]},"geometry":{"type":"Polygon","coordinates":[[[-83.58861,43.03284],[-83.58898,43.03279],[-83.59206,43.03318],[-83.59255,43.03341],[-83.58744,43.03347],[-83.58741,43.03335],[-83.58861,43.03284]]]}},{"type":"Feature","properties":{"name":"Water Tower Park","category":"City of Burton","_color":"#2e7d32","_fillOpacity":0.45,"_weight":1,"_popupRows":[["Type","City of Burton Park"],["Owner","City of Burton"],["Size","0.3 acres"]]},"geometry":{"type":"Polygon","coordinates":[[[-83.67189,42.97514],[-83.67172,42.97514],[-83.67155,42.97452],[-83.67188,42.97452],[-83.67189,42.97514]]]}},{"type":"Feature","properties":{"name":"Fireman's Park","category":"City of Burton","_color":"#2e7d32","_fillOpacity":0.45,"_weight":1,"_popupRows":[["Type","City of Burton Park"],["Owner","City of Burton"],["Size","0.3 acres"]]},"geometry":{"type":"Polygon","coordinates":[[[-83.59573,43.00985],[-83.59532,43.00988],[-83.59531,43.00954],[-83.59572,43.00953],[-83.59573,43.00985]]]}},{"type":"Feature","properties":{"name":"Veteran's Memorial Park","category":"City of Burton","_color":"#2e7d32","_fillOpacity":0.45,"_weight":1,"_popupRows":[["Type","City of Burton Park"],["Owner","City of Burton"],["Size","1 acres"]]},"geometry":{"type":"Polygon","coordinates":[[[-83.63103,42.96595],[-83.63049,42.96596],[-83.63047,42.96513],[-83.63101,42.96513],[-83.63103,42.96595]]]}},{"type":"Feature","properties":{"name":"Settlement Park","category":"City of Burton","_color":"#2e7d32","_fillOpacity":0.45,"_weight":1,"_popupRows":[["Type","City of Burton Park"],["Owner","City of Burton"],["Size","3.8 acres"]]},"geometry":{"type":"Polygon","coordinates":[[[-83.63895,42.98849],[-83.63808,42.98851],[-83.63804,42.98765],[-83.63741,42.98766],[-83.63739,42.98725],[-83.63664,42.98727],[-83.63663,42.98673],[-83.638,42.9867],[-83.63804,42.98763],[-83.63867,42.98761],[-83.63904,42.98848],[-83.63895,42.98849]]]}}]}
