{"type":"FeatureCollection","_source":"State of Michigan 2024 Voting Precincts (Secretary of State), open data. City of Burton precincts only; boundary + precinct number/name (no voter counts).","features":[{"type":"Feature","properties":{"name":"City of Burton, Precinct 1","precinct":"1"},"geometry":{"type":"Polygon","coordinates":[[[-83.63034,43.00793],[-83.63036,43.00932],[-83.63037,43.01009],[-83.63036,43.01028],[-83.63036,43.01035],[-83.63038,43.01088],[-83.63042,43.01288],[-83.63043,43.01356],[-83.63045,43.01389],[-83.63046,43.01413],[-83.63047,43.01438],[-83.63061,43.01872],[-83.63061,43.01882],[-83.63063,43.01936],[-83.63068,43.02086],[-83.63069,43.02089],[-83.63074,43.02232],[-83.63076,43.02292],[-83.63076,43.0231],[-83.6308,43.02398],[-83.63082,43.02454],[-83.63069,43.02618],[-83.63216,43.02617],[-83.63216,43.02617],[-83.63441,43.02615],[-83.63484,43.02614],[-83.6351,43.02614],[-83.6351,43.02614],[-83.6351,43.02611],[-83.63508,43.02601],[-83.63508,43.02601],[-83.63506,43.02568],[-83.63506,43.02568],[-83.63505,43.02532],[-83.63502,43.0245],[-83.635,43.02322],[-83.635,43.02317],[-83.635,43.02317],[-83.63495,43.02244],[-83.63496,43.02209],[-83.63496,43.02209],[-83.63491,43.02094],[-83.63489,43.02033],[-83.63489,43.02022],[-83.63489,43.02022],[-83.63489,43.02012],[-83.63487,43.01951],[-83.63484,43.01874],[-83.63484,43.01874],[-83.63479,43.01619],[-83.63479,43.01619],[-83.63477,43.01562],[-83.63475,43.01512],[-83.63473,43.01458],[-83.63473,43.01405],[-83.63473,43.01405],[-83.63473,43.01405],[-83.63473,43.01381],[-83.6347,43.01326],[-83.63468,43.01239],[-83.63468,43.01231],[-83.63468,43.01227],[-83.63466,43.01154],[-83.63466,43.01136],[-83.63464,43.01011],[-83.63464,43.01011],[-83.63461,43.00801],[-83.63461,43.00786],[-83.63461,43.00786],[-83.63457,43.00688],[-83.63449,43.00495],[-83.63449,43.00495],[-83.63449,43.0049],[-83.6345,43.00418],[-83.6345,43.00418],[-83.63524,43.00416],[-83.63697,43.00411],[-83.63697,43.00411],[-83.63738,43.0041],[-83.63838,43.00407],[-83.63888,43.00405],[-83.63917,43.00404],[-83.63934,43.00404],[-83.64036,43.00401],[-83.6426,43.00395],[-83.64278,43.00394],[-83.6429,43.00394],[-83.64295,43.00394],[-83.6431,43.00393],[-83.64408,43.00392],[-83.6441,43.00392],[-83.6441,43.00392],[-83.64411,43.00392],[-83.64411,43.00392],[-83.64413,43.00232],[-83.64413,43.00228],[-83.64377,42.99922],[-83.64377,42.99922],[-83.6438,42.99682],[-83.6438,42.99648],[-83.6438,42.99648],[-83.6438,42.99646],[-83.6438,42.99624],[-83.64377,42.99385],[-83.64375,42.99199],[-83.64375,42.99157],[-83.64375,42.99157],[-83.64375,42.99157],[-83.64374,42.99017],[-83.64373,42.98945],[-83.64372,42.98933],[-83.64372,42.98933],[-83.64226,42.98936],[-83.64226,42.98936],[-83.63986,42.98942],[-83.63951,42.98943],[-83.63912,42.98944],[-83.63813,42.98947],[-83.63813,42.98947],[-83.63661,42.98949],[-83.63573,42.98953],[-83.63376,42.98955],[-83.63376,42.98955],[-83.6325,42.98957],[-83.62918,42.9896],[-83.62582,42.98964],[-83.62406,42.98966],[-83.62406,42.98966],[-83.62287,42.98966],[-83.62157,42.98966],[-83.62157,42.98966],[-83.61918,42.98968],[-83.61918,42.98968],[-83.61433,42.9897],[-83.61437,42.99071],[-83.61442,42.99202],[-83.61443,42.99338],[-83.61443,42.99341],[-83.61443,42.99341],[-83.61449,42.99573],[-83.61449,42.99573],[-83.6145,42.99591],[-83.61452,42.99672],[-83.61452,42.99684],[-83.61453,42.99701],[-83.61464,43.00048],[-83.61465,43.00061],[-83.61487,43.00415],[-83.61487,43.00415],[-83.61487,43.00415],[-83.61732,43.00415],[-83.61893,43.00415],[-83.61971,43.00416],[-83.61971,43.00416],[-83.61971,43.00442],[-83.61972,43.00459],[-83.61975,43.0056],[-83.61979,43.00724],[-83.61979,43.0073],[-83.6198,43.00777],[-83.61987,43.00777],[-83.62026,43.00777],[-83.62054,43.00777],[-83.62082,43.00777],[-83.6211,43.00777],[-83.62113,43.00777],[-83.62138,43.00777],[-83.62167,43.00777],[-83.62194,43.00777],[-83.62224,43.00777],[-83.62251,43.00777],[-83.6228,43.00777],[-83.62307,43.00777],[-83.62335,43.00777],[-83.62362,43.00777],[-83.62391,43.00777],[-83.62419,43.00777],[-83.62476,43.00777],[-83.62479,43.00777],[-83.62492,43.00777],[-83.62528,43.00777],[-83.62555,43.00777],[-83.62561,43.00777],[-83.62584,43.00777],[-83.62616,43.00777],[-83.62618,43.00777],[-83.6264,43.00777],[-83.62668,43.00777],[-83.62698,43.00777],[-83.62723,43.00777],[-83.62725,43.00777],[-83.62753,43.00777],[-83.6278,43.00777],[-83.62787,43.00777],[-83.62808,43.00777],[-83.62836,43.00777],[-83.62851,43.00777],[-83.62864,43.00777],[-83.62892,43.00777],[-83.62912,43.00777],[-83.62921,43.00777],[-83.62957,43.00777],[-83.62973,43.00777],[-83.63034,43.00793]]]}},{"type":"Feature","properties":{"name":"City of Burton, Precinct 2","precinct":"2"},"geometry":{"type":"Polygon","coordinates":[[[-83.65937,42.96717],[-83.65937,42.96717],[-83.65938,42.96736],[-83.65618,42.96742],[-83.65399,42.96745],[-83.65266,42.96747],[-83.65266,42.96747],[-83.65266,42.96757],[-83.65275,42.97017],[-83.65319,42.97079],[-83.65379,42.97138],[-83.6546,42.9722],[-83.65508,42.97266],[-83.65579,42.97335],[-83.65641,42.97395],[-83.65717,42.97468],[-83.6597,42.97464],[-83.6597,42.97464],[-83.66135,42.9746],[-83.66135,42.9746],[-83.66138,42.9746],[-83.66331,42.97458],[-83.66331,42.97458],[-83.66488,42.97457],[-83.66504,42.97457],[-83.66504,42.97457],[-83.66538,42.97455],[-83.66601,42.97452],[-83.66601,42.97452],[-83.6662,42.97452],[-83.66921,42.97449],[-83.66921,42.97449],[-83.67265,42.97444],[-83.67255,42.97371],[-83.67255,42.97371],[-83.67251,42.97337],[-83.67251,42.97337],[-83.67247,42.97297],[-83.67247,42.97297],[-83.67236,42.97221],[-83.67236,42.97221],[-83.67235,42.97221],[-83.67234,42.972],[-83.67234,42.972],[-83.67233,42.97175],[-83.67231,42.9715],[-83.67231,42.9715],[-83.67225,42.97106],[-83.67221,42.97078],[-83.67221,42.97078],[-83.67219,42.97051],[-83.67216,42.97008],[-83.67216,42.97008],[-83.6721,42.96957],[-83.67207,42.96935],[-83.67207,42.96935],[-83.67198,42.96865],[-83.67198,42.96865],[-83.67192,42.9681],[-83.6719,42.96793],[-83.6719,42.96793],[-83.67179,42.9672],[-83.67179,42.9672],[-83.67173,42.96647],[-83.67173,42.96647],[-83.67164,42.96577],[-83.67164,42.96577],[-83.67155,42.96536],[-83.67141,42.96505],[-83.67133,42.96487],[-83.67133,42.96487],[-83.67115,42.96457],[-83.67114,42.96454],[-83.67114,42.96454],[-83.67101,42.96426],[-83.67079,42.96389],[-83.67073,42.96379],[-83.67064,42.96366],[-83.67025,42.96308],[-83.67025,42.96308],[-83.67013,42.96291],[-83.66979,42.96238],[-83.66979,42.96238],[-83.66978,42.96236],[-83.66968,42.96219],[-83.66938,42.9618],[-83.66928,42.96169],[-83.66916,42.96157],[-83.66748,42.96006],[-83.66747,42.96005],[-83.66744,42.96003],[-83.66744,42.96003],[-83.66297,42.96009],[-83.66297,42.96009],[-83.66136,42.96012],[-83.66136,42.96012],[-83.66136,42.96013],[-83.66136,42.96082],[-83.66136,42.96159],[-83.66137,42.96229],[-83.66184,42.96387],[-83.66184,42.96389],[-83.65997,42.96364],[-83.65979,42.96361],[-83.65979,42.96361],[-83.65978,42.96361],[-83.65932,42.96362],[-83.65932,42.96362],[-83.65937,42.96717]]]}},{"type":"Feature","properties":{"name":"City of Burton, Precinct 3","precinct":"3"},"geometry":{"type":"Polygon","coordinates":[[[-83.59727,43.01797],[-83.59853,43.01874],[-83.59887,43.01888],[-83.59955,43.01911],[-83.59997,43.01919],[-83.60038,43.01923],[-83.60229,43.01936],[-83.60229,43.01936],[-83.60236,43.01936],[-83.6041,43.01932],[-83.60519,43.01931],[-83.60519,43.01931],[-83.60664,43.0193],[-83.60855,43.01925],[-83.60886,43.01922],[-83.60927,43.01918],[-83.61002,43.01907],[-83.61025,43.01903],[-83.61025,43.01903],[-83.61093,43.01891],[-83.61136,43.01882],[-83.61174,43.01875],[-83.6122,43.01861],[-83.61258,43.01849],[-83.61311,43.01833],[-83.61338,43.01825],[-83.61338,43.01825],[-83.61346,43.01857],[-83.61346,43.01858],[-83.61362,43.01877],[-83.61379,43.01891],[-83.61379,43.01891],[-83.61417,43.01881],[-83.61422,43.0188],[-83.61437,43.01878],[-83.61464,43.01874],[-83.61474,43.01874],[-83.61508,43.01872],[-83.61508,43.01872],[-83.61615,43.0187],[-83.61692,43.01868],[-83.61692,43.01868],[-83.61775,43.01868],[-83.61864,43.01867],[-83.62412,43.0187],[-83.62498,43.01871],[-83.62498,43.01871],[-83.62509,43.01871],[-83.62923,43.01872],[-83.62985,43.01871],[-83.62985,43.01871],[-83.63001,43.01872],[-83.63061,43.01872],[-83.63047,43.01438],[-83.63046,43.01413],[-83.63045,43.01389],[-83.63043,43.01356],[-83.63042,43.01288],[-83.63038,43.01088],[-83.63036,43.01035],[-83.63036,43.01028],[-83.63037,43.01009],[-83.63036,43.00932],[-83.63034,43.00793],[-83.62973,43.00777],[-83.62957,43.00777],[-83.62921,43.00777],[-83.62912,43.00777],[-83.62892,43.00777],[-83.62864,43.00777],[-83.62851,43.00777],[-83.62836,43.00777],[-83.62808,43.00777],[-83.62787,43.00777],[-83.6278,43.00777],[-83.62753,43.00777],[-83.62725,43.00777],[-83.62723,43.00777],[-83.62698,43.00777],[-83.62668,43.00777],[-83.6264,43.00777],[-83.62618,43.00777],[-83.62616,43.00777],[-83.62584,43.00777],[-83.62561,43.00777],[-83.62555,43.00777],[-83.62528,43.00777],[-83.62492,43.00777],[-83.62479,43.00777],[-83.62476,43.00777],[-83.62419,43.00777],[-83.62391,43.00777],[-83.62362,43.00777],[-83.62335,43.00777],[-83.62307,43.00777],[-83.6228,43.00777],[-83.62251,43.00777],[-83.62224,43.00777],[-83.62194,43.00777],[-83.62167,43.00777],[-83.62138,43.00777],[-83.62113,43.00777],[-83.6211,43.00777],[-83.62082,43.00777],[-83.62054,43.00777],[-83.62026,43.00777],[-83.61987,43.00777],[-83.6198,43.00777],[-83.61979,43.0073],[-83.61979,43.00724],[-83.61975,43.0056],[-83.61972,43.00459],[-83.61971,43.00442],[-83.61971,43.00416],[-83.61971,43.00416],[-83.61893,43.00415],[-83.61732,43.00415],[-83.61487,43.00415],[-83.61487,43.00415],[-83.61487,43.00415],[-83.61465,43.00061],[-83.61464,43.00048],[-83.61457,43.00048],[-83.61391,43.00049],[-83.61162,43.00054],[-83.61101,43.00056],[-83.61039,43.00057],[-83.61006,43.00058],[-83.6098,43.00059],[-83.60974,43.00059],[-83.60913,43.0006],[-83.6089,43.0006],[-83.60851,43.00061],[-83.60828,43.00062],[-83.6079,43.00063],[-83.60767,43.00063],[-83.6073,43.00064],[-83.60704,43.00065],[-83.60702,43.00001],[-83.60677,42.99709],[-83.60677,42.99708],[-83.6065,42.99709],[-83.60632,42.99709],[-83.60571,42.99711],[-83.6047,42.99714],[-83.60458,42.99715],[-83.59971,42.99729],[-83.59893,42.99732],[-83.59851,42.99733],[-83.59822,42.99734],[-83.59771,42.99736],[-83.59729,42.99737],[-83.59701,42.99738],[-83.59673,42.99739],[-83.59647,42.9974],[-83.59621,42.99741],[-83.59595,42.99741],[-83.59569,42.99742],[-83.59543,42.99743],[-83.59509,42.99744],[-83.59494,42.99745],[-83.59481,42.99745],[-83.59481,42.99745],[-83.59478,42.99701],[-83.59477,42.99684],[-83.59474,42.99623],[-83.59471,42.99578],[-83.59469,42.99538],[-83.59449,42.99536],[-83.58977,42.99547],[-83.58968,42.99547],[-83.58969,42.99564],[-83.58909,42.99566],[-83.5885,42.99567],[-83.58851,42.9958],[-83.58851,42.99594],[-83.58737,42.99598],[-83.58714,42.99598],[-83.58688,42.99599],[-83.58672,42.996],[-83.58664,42.996],[-83.58659,42.99601],[-83.58661,42.9966],[-83.58491,42.99666],[-83.58471,42.99667],[-83.58472,42.99679],[-83.58475,42.99747],[-83.5839,42.99748],[-83.58384,42.99748],[-83.58349,42.99748],[-83.58003,42.9975],[-83.58,42.99751],[-83.58,42.99755],[-83.58003,42.99866],[-83.58005,42.99937],[-83.58007,43.00007],[-83.58007,43.00031],[-83.58003,43.00067],[-83.58011,43.00127],[-83.58081,43.00125],[-83.58145,43.00123],[-83.58298,43.0013],[-83.58298,43.0013],[-83.58405,43.00134],[-83.58519,43.00139],[-83.58536,43.0014],[-83.58529,43.00451],[-83.58529,43.00451],[-83.59012,43.00483],[-83.59502,43.00476],[-83.59503,43.00628],[-83.59503,43.00662],[-83.59503,43.00662],[-83.59508,43.00837],[-83.59508,43.00869],[-83.59508,43.00869],[-83.5951,43.00943],[-83.5951,43.00953],[-83.59513,43.01098],[-83.59513,43.01098],[-83.59525,43.01544],[-83.59525,43.01587],[-83.59525,43.01588],[-83.59527,43.01726],[-83.59529,43.01747],[-83.59531,43.01771],[-83.59642,43.01774],[-83.59671,43.01777],[-83.59695,43.01782],[-83.59727,43.01797]]]}},{"type":"Feature","properties":{"name":"City of Burton, Precinct 4","precinct":"4"},"geometry":{"type":"Polygon","coordinates":[[[-83.68282,42.95977],[-83.68247,42.95978],[-83.68199,42.95979],[-83.68192,42.95979],[-83.68166,42.95979],[-83.67991,42.9598],[-83.67991,42.9598],[-83.67908,42.95981],[-83.67816,42.95982],[-83.67815,42.95982],[-83.67664,42.95986],[-83.67449,42.9599],[-83.67389,42.9599],[-83.67351,42.9599],[-83.67319,42.95991],[-83.67319,42.95991],[-83.67296,42.95991],[-83.67263,42.95992],[-83.67118,42.95993],[-83.66896,42.95998],[-83.66744,42.96003],[-83.66744,42.96003],[-83.66747,42.96005],[-83.66748,42.96006],[-83.66916,42.96157],[-83.66928,42.96169],[-83.66938,42.9618],[-83.66968,42.96219],[-83.66978,42.96236],[-83.66979,42.96238],[-83.66979,42.96238],[-83.67013,42.96291],[-83.67025,42.96308],[-83.67025,42.96308],[-83.67064,42.96366],[-83.67073,42.96379],[-83.67079,42.96389],[-83.67101,42.96426],[-83.67114,42.96454],[-83.67114,42.96454],[-83.67115,42.96457],[-83.67133,42.96487],[-83.67133,42.96487],[-83.67141,42.96505],[-83.67155,42.96536],[-83.67164,42.96577],[-83.67164,42.96577],[-83.67173,42.96647],[-83.67173,42.96647],[-83.67179,42.9672],[-83.67179,42.9672],[-83.6719,42.96793],[-83.6719,42.96793],[-83.67192,42.9681],[-83.67198,42.96865],[-83.67198,42.96865],[-83.67207,42.96935],[-83.67207,42.96935],[-83.6721,42.96957],[-83.67216,42.97008],[-83.67216,42.97008],[-83.67219,42.97051],[-83.67221,42.97078],[-83.67221,42.97078],[-83.67225,42.97106],[-83.67231,42.9715],[-83.67231,42.9715],[-83.67233,42.97175],[-83.67234,42.972],[-83.67234,42.972],[-83.67235,42.97221],[-83.67236,42.97221],[-83.67236,42.97221],[-83.67247,42.97297],[-83.67247,42.97297],[-83.67251,42.97337],[-83.67251,42.97337],[-83.67255,42.97371],[-83.67255,42.97371],[-83.67265,42.97444],[-83.66921,42.97449],[-83.66921,42.97449],[-83.6662,42.97452],[-83.66601,42.97452],[-83.66601,42.97452],[-83.66538,42.97455],[-83.66504,42.97457],[-83.66504,42.97457],[-83.66488,42.97457],[-83.66331,42.97458],[-83.66331,42.97458],[-83.66138,42.9746],[-83.66135,42.9746],[-83.66135,42.9746],[-83.6597,42.97464],[-83.6597,42.97464],[-83.65717,42.97468],[-83.65292,42.97472],[-83.65299,42.97629],[-83.65302,42.97698],[-83.65309,42.97938],[-83.65309,42.97938],[-83.65317,42.98196],[-83.65317,42.98196],[-83.65319,42.98196],[-83.65442,42.98193],[-83.65551,42.98193],[-83.65551,42.98193],[-83.6609,42.98187],[-83.6609,42.98187],[-83.66143,42.98186],[-83.66187,42.98184],[-83.66303,42.98183],[-83.66326,42.98183],[-83.66453,42.98183],[-83.66453,42.98183],[-83.66483,42.98182],[-83.66544,42.98181],[-83.66544,42.98181],[-83.66685,42.98179],[-83.6679,42.98178],[-83.66825,42.98178],[-83.66979,42.98176],[-83.67305,42.98172],[-83.67305,42.98172],[-83.67368,42.98171],[-83.67368,42.98171],[-83.67434,42.98169],[-83.67434,42.98169],[-83.67434,42.98169],[-83.6744,42.98169],[-83.67674,42.98163],[-83.67674,42.98163],[-83.67932,42.98161],[-83.67932,42.98161],[-83.67985,42.9816],[-83.68033,42.98159],[-83.68033,42.98159],[-83.68159,42.98156],[-83.68212,42.98155],[-83.68231,42.98154],[-83.68231,42.98154],[-83.68228,42.98085],[-83.68226,42.98046],[-83.682,42.97427],[-83.68194,42.97299],[-83.68193,42.97265],[-83.68199,42.97157],[-83.68208,42.97081],[-83.68208,42.97081],[-83.68215,42.97023],[-83.68215,42.97022],[-83.68223,42.96957],[-83.68231,42.96886],[-83.68231,42.96886],[-83.68232,42.96881],[-83.68244,42.96797],[-83.6825,42.96749],[-83.68275,42.96534],[-83.68282,42.96469],[-83.68283,42.96456],[-83.68287,42.96424],[-83.68288,42.96401],[-83.6829,42.96376],[-83.68294,42.96298],[-83.68295,42.96286],[-83.68296,42.96209],[-83.68296,42.96209],[-83.68291,42.96119],[-83.68282,42.95977],[-83.68282,42.95977],[-83.68282,42.95977]]]}},{"type":"Feature","properties":{"name":"City of Burton, Precinct 5","precinct":"5"},"geometry":{"type":"Polygon","coordinates":[[[-83.63484,43.02614],[-83.63441,43.02615],[-83.63216,43.02617],[-83.63216,43.02617],[-83.63069,43.02618],[-83.63,43.02619],[-83.63,43.02619],[-83.62984,43.02619],[-83.62743,43.02621],[-83.62743,43.02621],[-83.62647,43.02622],[-83.61527,43.02632],[-83.61526,43.02692],[-83.61526,43.02726],[-83.61526,43.02726],[-83.61526,43.02727],[-83.61526,43.02727],[-83.61542,43.03305],[-83.61542,43.03305],[-83.6155,43.03459],[-83.61568,43.03987],[-83.6157,43.04071],[-83.61574,43.04172],[-83.61575,43.04206],[-83.61579,43.04326],[-83.61579,43.04326],[-83.61581,43.04368],[-83.61581,43.04369],[-83.61587,43.04511],[-83.61593,43.04715],[-83.61594,43.04751],[-83.61594,43.04751],[-83.61594,43.04751],[-83.62201,43.04756],[-83.62408,43.04755],[-83.62586,43.04753],[-83.62698,43.04751],[-83.62795,43.04749],[-83.62866,43.0475],[-83.62985,43.04751],[-83.62986,43.04751],[-83.63174,43.04734],[-83.63567,43.04741],[-83.63567,43.04741],[-83.63561,43.04476],[-83.63561,43.04476],[-83.63562,43.04442],[-83.63563,43.04314],[-83.63563,43.04314],[-83.6356,43.04128],[-83.6356,43.04106],[-83.63559,43.04004],[-83.63557,43.03933],[-83.63555,43.03861],[-83.63555,43.03861],[-83.63553,43.03841],[-83.63552,43.03789],[-83.63552,43.03789],[-83.63551,43.03759],[-83.63551,43.03759],[-83.63551,43.03753],[-83.63549,43.03717],[-83.63545,43.03541],[-83.63545,43.03541],[-83.63536,43.03324],[-83.63536,43.03324],[-83.63535,43.03247],[-83.63532,43.03202],[-83.63531,43.03173],[-83.63531,43.03173],[-83.63529,43.03103],[-83.63529,43.03102],[-83.63526,43.03052],[-83.63525,43.03036],[-83.63525,43.03036],[-83.63521,43.02961],[-83.63517,43.02891],[-83.63515,43.02848],[-83.63515,43.02848],[-83.63509,43.02686],[-83.6351,43.02614],[-83.63484,43.02614]]]}},{"type":"Feature","properties":{"name":"City of Burton, Precinct 6","precinct":"6"},"geometry":{"type":"Polygon","coordinates":[[[-83.68226,42.98046],[-83.68228,42.98085],[-83.68231,42.98154],[-83.68231,42.98154],[-83.68232,42.98154],[-83.68292,42.98154],[-83.68292,42.98154],[-83.6844,42.98151],[-83.68521,42.9815],[-83.68521,42.9815],[-83.68786,42.98146],[-83.68786,42.98146],[-83.68861,42.98143],[-83.68886,42.98142],[-83.68886,42.98142],[-83.68957,42.98141],[-83.6906,42.98141],[-83.6906,42.98141],[-83.69029,42.97682],[-83.69036,42.97664],[-83.69043,42.97655],[-83.69047,42.97649],[-83.6905,42.9763],[-83.69223,42.97639],[-83.69222,42.97672],[-83.69283,42.97717],[-83.69283,42.97717],[-83.69281,42.97685],[-83.69281,42.97685],[-83.69279,42.97607],[-83.69279,42.97607],[-83.69277,42.97513],[-83.69276,42.97424],[-83.69276,42.97421],[-83.69276,42.97407],[-83.69276,42.97329],[-83.69276,42.97325],[-83.69276,42.97325],[-83.69278,42.97254],[-83.69278,42.97254],[-83.69277,42.97208],[-83.69277,42.9718],[-83.69277,42.97167],[-83.69277,42.97151],[-83.69278,42.97113],[-83.69277,42.97043],[-83.69277,42.97043],[-83.69276,42.97007],[-83.69276,42.97007],[-83.69276,42.96971],[-83.69276,42.96971],[-83.69274,42.96899],[-83.69275,42.96861],[-83.69275,42.96836],[-83.69275,42.96828],[-83.69275,42.96828],[-83.69274,42.96756],[-83.69273,42.96686],[-83.69273,42.96686],[-83.69267,42.9641],[-83.69267,42.9641],[-83.6926,42.96169],[-83.69252,42.95959],[-83.6923,42.95959],[-83.69156,42.95963],[-83.69156,42.95963],[-83.69045,42.95963],[-83.69024,42.95963],[-83.69024,42.95963],[-83.69005,42.95964],[-83.68952,42.95965],[-83.6889,42.95967],[-83.6885,42.95967],[-83.68763,42.95966],[-83.68656,42.95971],[-83.68656,42.95971],[-83.68613,42.95972],[-83.68609,42.95972],[-83.686,42.95972],[-83.68583,42.95972],[-83.68401,42.95975],[-83.68399,42.95975],[-83.68389,42.95975],[-83.68367,42.95975],[-83.68282,42.95977],[-83.68282,42.95977],[-83.68291,42.96119],[-83.68296,42.96209],[-83.68296,42.96209],[-83.68295,42.96286],[-83.68294,42.96298],[-83.6829,42.96376],[-83.68288,42.96401],[-83.68287,42.96424],[-83.68283,42.96456],[-83.68282,42.96469],[-83.68275,42.96534],[-83.6825,42.96749],[-83.68244,42.96797],[-83.68232,42.96881],[-83.68231,42.96886],[-83.68231,42.96886],[-83.68223,42.96957],[-83.68215,42.97022],[-83.68215,42.97023],[-83.68208,42.97081],[-83.68208,42.97081],[-83.68199,42.97157],[-83.68193,42.97265],[-83.68194,42.97299],[-83.682,42.97427],[-83.68226,42.98046]]]}},{"type":"Feature","properties":{"name":"City of Burton, Precinct 7","precinct":"7"},"geometry":{"type":"Polygon","coordinates":[[[-83.62317,42.96656],[-83.62318,42.96748],[-83.62319,42.96792],[-83.62335,42.97247],[-83.62344,42.97517],[-83.62347,42.97526],[-83.62347,42.97528],[-83.62351,42.9761],[-83.62352,42.97628],[-83.62352,42.97644],[-83.62352,42.97646],[-83.62353,42.97664],[-83.62354,42.97683],[-83.62355,42.97701],[-83.62356,42.97719],[-83.62356,42.97737],[-83.62357,42.97755],[-83.62358,42.97773],[-83.62359,42.97792],[-83.62359,42.9781],[-83.6236,42.97829],[-83.62361,42.97846],[-83.62362,42.97864],[-83.62362,42.97872],[-83.62363,42.97883],[-83.62363,42.979],[-83.62364,42.97918],[-83.62365,42.97936],[-83.62365,42.97945],[-83.62365,42.97955],[-83.62366,42.97972],[-83.62367,42.97991],[-83.62368,42.98009],[-83.62369,42.98027],[-83.6237,42.98045],[-83.6237,42.98063],[-83.6237,42.98066],[-83.62371,42.98082],[-83.62372,42.98099],[-83.62373,42.98118],[-83.62374,42.98135],[-83.62374,42.98154],[-83.62378,42.98233],[-83.62378,42.98236],[-83.62378,42.98246],[-83.62402,42.98867],[-83.62405,42.98953],[-83.62406,42.98966],[-83.62406,42.98966],[-83.62582,42.98964],[-83.62918,42.9896],[-83.6325,42.98957],[-83.63376,42.98955],[-83.63376,42.98955],[-83.63573,42.98953],[-83.63661,42.98949],[-83.63813,42.98947],[-83.63813,42.98947],[-83.63912,42.98944],[-83.63951,42.98943],[-83.63986,42.98942],[-83.64226,42.98936],[-83.64226,42.98936],[-83.64372,42.98933],[-83.6451,42.98931],[-83.6451,42.98931],[-83.6466,42.98929],[-83.6466,42.98929],[-83.64744,42.98927],[-83.64775,42.98926],[-83.64776,42.98926],[-83.64863,42.98925],[-83.6487,42.98925],[-83.64965,42.98923],[-83.64967,42.98923],[-83.65042,42.98921],[-83.65042,42.98921],[-83.65139,42.98919],[-83.65139,42.98919],[-83.65209,42.98918],[-83.65235,42.98918],[-83.65342,42.98917],[-83.65321,42.98318],[-83.65321,42.98317],[-83.65317,42.98196],[-83.65317,42.98196],[-83.65309,42.97938],[-83.65309,42.97938],[-83.65302,42.97698],[-83.65299,42.97629],[-83.65292,42.97472],[-83.65717,42.97468],[-83.65641,42.97395],[-83.65579,42.97335],[-83.65508,42.97266],[-83.6546,42.9722],[-83.65379,42.97138],[-83.65319,42.97079],[-83.65275,42.97017],[-83.65266,42.96757],[-83.65266,42.96747],[-83.65266,42.96747],[-83.65399,42.96745],[-83.65618,42.96742],[-83.65938,42.96736],[-83.65937,42.96717],[-83.65937,42.96717],[-83.65932,42.96362],[-83.65932,42.96362],[-83.65978,42.96361],[-83.65979,42.96361],[-83.65979,42.96361],[-83.65997,42.96364],[-83.66184,42.96389],[-83.66184,42.96387],[-83.66137,42.96229],[-83.66136,42.96159],[-83.66136,42.96082],[-83.66136,42.96013],[-83.66136,42.96012],[-83.66136,42.96012],[-83.65935,42.96015],[-83.65935,42.96015],[-83.65935,42.96015],[-83.65244,42.96026],[-83.65244,42.96026],[-83.64848,42.96031],[-83.64844,42.96031],[-83.64807,42.96031],[-83.64757,42.96032],[-83.64753,42.96032],[-83.64701,42.96033],[-83.64645,42.96034],[-83.64358,42.96036],[-83.64358,42.96036],[-83.64288,42.96037],[-83.64243,42.96036],[-83.64153,42.96038],[-83.63923,42.96041],[-83.63923,42.96041],[-83.63911,42.96041],[-83.63909,42.96041],[-83.63689,42.96046],[-83.63687,42.96046],[-83.63413,42.96046],[-83.63413,42.96046],[-83.6336,42.96046],[-83.63286,42.96048],[-83.63286,42.96048],[-83.62358,42.9607],[-83.62298,42.96071],[-83.62298,42.96071],[-83.62317,42.96656]]]}},{"type":"Feature","properties":{"name":"City of Burton, Precinct 8","precinct":"8"},"geometry":{"type":"Polygon","coordinates":[[[-83.59367,42.97193],[-83.59368,42.97228],[-83.59369,42.97258],[-83.59369,42.97279],[-83.59378,42.97564],[-83.59378,42.97564],[-83.59594,42.9756],[-83.59759,42.97556],[-83.59836,42.97555],[-83.59836,42.97555],[-83.59836,42.97555],[-83.59875,42.97554],[-83.59874,42.97319],[-83.59874,42.97308],[-83.59874,42.97264],[-83.59874,42.97217],[-83.59874,42.97213],[-83.59874,42.97201],[-83.59879,42.97188],[-83.59884,42.97183],[-83.59884,42.97183],[-83.59888,42.9718],[-83.59892,42.97178],[-83.59896,42.97175],[-83.59902,42.97172],[-83.59963,42.97166],[-83.60015,42.97175],[-83.60016,42.97173],[-83.60018,42.97171],[-83.60021,42.97171],[-83.60147,42.97171],[-83.60275,42.97171],[-83.60275,42.97099],[-83.60275,42.97095],[-83.60275,42.9706],[-83.60292,42.97031],[-83.60291,42.97],[-83.60259,42.96996],[-83.60235,42.96993],[-83.60238,42.96987],[-83.60252,42.96954],[-83.60265,42.96922],[-83.60269,42.96914],[-83.60273,42.96888],[-83.60277,42.96888],[-83.60282,42.96888],[-83.6029,42.96888],[-83.60303,42.96888],[-83.60337,42.96888],[-83.60348,42.96888],[-83.60358,42.96888],[-83.60709,42.96882],[-83.60712,42.96826],[-83.60712,42.96816],[-83.60711,42.96782],[-83.60706,42.96764],[-83.60705,42.96729],[-83.60718,42.96729],[-83.60709,42.96711],[-83.60692,42.96678],[-83.60712,42.9667],[-83.60719,42.96667],[-83.60723,42.96666],[-83.60724,42.96646],[-83.60704,42.96621],[-83.60719,42.96618],[-83.60713,42.96581],[-83.60713,42.96577],[-83.6073,42.96548],[-83.60673,42.96512],[-83.6068,42.96506],[-83.60682,42.96503],[-83.60693,42.96493],[-83.60704,42.96483],[-83.60716,42.9646],[-83.60718,42.96454],[-83.60721,42.96437],[-83.6072,42.96413],[-83.60715,42.96413],[-83.6071,42.96394],[-83.60709,42.96388],[-83.60705,42.96374],[-83.60703,42.96365],[-83.60699,42.96354],[-83.60693,42.96342],[-83.60703,42.96323],[-83.60723,42.96314],[-83.6072,42.96311],[-83.60718,42.96309],[-83.60715,42.96306],[-83.60713,42.96303],[-83.6071,42.963],[-83.60707,42.96298],[-83.60704,42.96295],[-83.60701,42.96293],[-83.60698,42.9629],[-83.60693,42.96286],[-83.60706,42.9628],[-83.60721,42.9623],[-83.60722,42.96228],[-83.60714,42.9621],[-83.60718,42.96174],[-83.6075,42.96173],[-83.60761,42.96173],[-83.60808,42.96173],[-83.60822,42.96173],[-83.60936,42.96192],[-83.60942,42.96192],[-83.61297,42.96183],[-83.61319,42.96183],[-83.61319,42.96183],[-83.61319,42.96177],[-83.61319,42.96175],[-83.6132,42.9615],[-83.61321,42.96143],[-83.61323,42.96129],[-83.61328,42.96107],[-83.61336,42.96088],[-83.61336,42.96088],[-83.60634,42.96096],[-83.60634,42.96096],[-83.6032,42.96101],[-83.59853,42.96105],[-83.59673,42.96108],[-83.59641,42.96109],[-83.59489,42.96113],[-83.5936,42.96116],[-83.59335,42.96116],[-83.59335,42.96116],[-83.59139,42.96118],[-83.59131,42.96119],[-83.59093,42.9612],[-83.58849,42.96124],[-83.58843,42.96125],[-83.58841,42.96125],[-83.58841,42.96125],[-83.58364,42.96131],[-83.58081,42.96136],[-83.58081,42.96136],[-83.57672,42.96145],[-83.57672,42.96145],[-83.57376,42.96148],[-83.57377,42.96193],[-83.57385,42.96457],[-83.57386,42.96476],[-83.57391,42.96616],[-83.57391,42.96616],[-83.57397,42.96835],[-83.57397,42.96835],[-83.57397,42.96843],[-83.57402,42.96936],[-83.57403,42.96961],[-83.57405,42.97],[-83.57423,42.97],[-83.57454,42.96999],[-83.57512,42.96998],[-83.57894,42.96993],[-83.57898,42.96993],[-83.57899,42.97039],[-83.57905,42.97039],[-83.57962,42.97039],[-83.58137,42.97036],[-83.58222,42.97035],[-83.58226,42.97035],[-83.58376,42.97033],[-83.58872,42.97025],[-83.5887,42.96975],[-83.58914,42.96971],[-83.5901,42.9697],[-83.59346,42.96968],[-83.5936,42.96968],[-83.59365,42.97141],[-83.59367,42.97193]]]}},{"type":"Feature","properties":{"name":"City of Burton, Precinct 9","precinct":"9"},"geometry":{"type":"Polygon","coordinates":[[[-83.5752,43.00494],[-83.57521,43.00572],[-83.57522,43.00587],[-83.57532,43.00902],[-83.57532,43.00903],[-83.57575,43.00493],[-83.57576,43.00477],[-83.58014,43.00489],[-83.58528,43.00504],[-83.58528,43.00504],[-83.58529,43.00451],[-83.58529,43.00451],[-83.58536,43.0014],[-83.58519,43.00139],[-83.58405,43.00134],[-83.58298,43.0013],[-83.58298,43.0013],[-83.58145,43.00123],[-83.58081,43.00125],[-83.58011,43.00127],[-83.58003,43.00067],[-83.58007,43.00031],[-83.58007,43.00007],[-83.58005,42.99937],[-83.58003,42.99866],[-83.58,42.99755],[-83.58,42.99751],[-83.58003,42.9975],[-83.58349,42.99748],[-83.58384,42.99748],[-83.5839,42.99748],[-83.58475,42.99747],[-83.58472,42.99679],[-83.58471,42.99667],[-83.58491,42.99666],[-83.58661,42.9966],[-83.58659,42.99601],[-83.58664,42.996],[-83.58672,42.996],[-83.58688,42.99599],[-83.58714,42.99598],[-83.58737,42.99598],[-83.58851,42.99594],[-83.58851,42.9958],[-83.5885,42.99567],[-83.58909,42.99566],[-83.58969,42.99564],[-83.58968,42.99547],[-83.58977,42.99547],[-83.59449,42.99536],[-83.59469,42.99538],[-83.5944,42.99013],[-83.5944,42.99013],[-83.59429,42.98829],[-83.59429,42.98828],[-83.59419,42.98657],[-83.59401,42.98362],[-83.59399,42.98319],[-83.59397,42.98293],[-83.59397,42.9829],[-83.59397,42.9829],[-83.59395,42.98248],[-83.59379,42.98248],[-83.59292,42.98248],[-83.58427,42.98253],[-83.58423,42.98253],[-83.58422,42.98224],[-83.58339,42.98227],[-83.58333,42.98227],[-83.58333,42.98227],[-83.58292,42.97578],[-83.58208,42.97579],[-83.58207,42.97567],[-83.58198,42.97343],[-83.58238,42.97343],[-83.58228,42.97084],[-83.58227,42.97039],[-83.58226,42.97035],[-83.58222,42.97035],[-83.58137,42.97036],[-83.57962,42.97039],[-83.57905,42.97039],[-83.57899,42.97039],[-83.57898,42.96993],[-83.57894,42.96993],[-83.57512,42.96998],[-83.57454,42.96999],[-83.57423,42.97],[-83.57405,42.97],[-83.57407,42.97045],[-83.57407,42.97046],[-83.57413,42.97179],[-83.57415,42.97212],[-83.57416,42.97227],[-83.57425,42.97404],[-83.57435,42.97587],[-83.57447,42.97958],[-83.57466,42.98425],[-83.57466,42.98457],[-83.57466,42.98502],[-83.57466,42.98502],[-83.57472,42.98674],[-83.57492,42.99037],[-83.57492,42.99037],[-83.57491,42.99202],[-83.57497,42.99399],[-83.57499,42.9944],[-83.57511,42.99755],[-83.57512,42.99829],[-83.57513,42.99948],[-83.57513,43.00044],[-83.57517,43.0018],[-83.57517,43.0018],[-83.57517,43.00187],[-83.57517,43.00203],[-83.57518,43.00288],[-83.57519,43.00362],[-83.57519,43.00362],[-83.57519,43.00408],[-83.57519,43.00409],[-83.5752,43.00494]]]}},{"type":"Feature","properties":{"name":"City of Burton, Precinct 10","precinct":"10"},"geometry":{"type":"Polygon","coordinates":[[[-83.57575,43.01911],[-83.57575,43.01911],[-83.57605,43.02679],[-83.57605,43.0269],[-83.57615,43.02934],[-83.57615,43.02934],[-83.57615,43.03364],[-83.57615,43.03364],[-83.57728,43.03362],[-83.57948,43.03362],[-83.57985,43.03362],[-83.5802,43.03362],[-83.58167,43.03362],[-83.58288,43.03362],[-83.58288,43.03362],[-83.58509,43.03362],[-83.58536,43.03362],[-83.5871,43.03363],[-83.58829,43.03363],[-83.58855,43.03363],[-83.58926,43.03364],[-83.5901,43.03364],[-83.59263,43.03364],[-83.59491,43.03365],[-83.59571,43.03365],[-83.59571,43.03365],[-83.59852,43.03356],[-83.59977,43.03352],[-83.59977,43.03352],[-83.60175,43.03343],[-83.60377,43.03336],[-83.60491,43.03332],[-83.60511,43.03331],[-83.60517,43.0333],[-83.60632,43.03328],[-83.60667,43.03326],[-83.60667,43.03326],[-83.60667,43.03321],[-83.6066,43.02645],[-83.6066,43.02643],[-83.6066,43.02638],[-83.6066,43.02638],[-83.6093,43.02636],[-83.61526,43.02632],[-83.61527,43.02632],[-83.62647,43.02622],[-83.62743,43.02621],[-83.62743,43.02621],[-83.62984,43.02619],[-83.63,43.02619],[-83.63,43.02619],[-83.63069,43.02618],[-83.63082,43.02454],[-83.6308,43.02398],[-83.63076,43.0231],[-83.63076,43.02292],[-83.63074,43.02232],[-83.63069,43.02089],[-83.63068,43.02086],[-83.63063,43.01936],[-83.63061,43.01882],[-83.63061,43.01872],[-83.63001,43.01872],[-83.62985,43.01871],[-83.62985,43.01871],[-83.62923,43.01872],[-83.62509,43.01871],[-83.62498,43.01871],[-83.62498,43.01871],[-83.62412,43.0187],[-83.61864,43.01867],[-83.61775,43.01868],[-83.61692,43.01868],[-83.61692,43.01868],[-83.61615,43.0187],[-83.61508,43.01872],[-83.61508,43.01872],[-83.61474,43.01874],[-83.61464,43.01874],[-83.61437,43.01878],[-83.61422,43.0188],[-83.61417,43.01881],[-83.61379,43.01891],[-83.61379,43.01891],[-83.61362,43.01877],[-83.61346,43.01858],[-83.61346,43.01857],[-83.61338,43.01825],[-83.61338,43.01825],[-83.61311,43.01833],[-83.61258,43.01849],[-83.6122,43.01861],[-83.61174,43.01875],[-83.61136,43.01882],[-83.61093,43.01891],[-83.61025,43.01903],[-83.61025,43.01903],[-83.61002,43.01907],[-83.60927,43.01918],[-83.60886,43.01922],[-83.60855,43.01925],[-83.60664,43.0193],[-83.60519,43.01931],[-83.60519,43.01931],[-83.6041,43.01932],[-83.60236,43.01936],[-83.60229,43.01936],[-83.60229,43.01936],[-83.60038,43.01923],[-83.59997,43.01919],[-83.59955,43.01911],[-83.59887,43.01888],[-83.59853,43.01874],[-83.59727,43.01797],[-83.59695,43.01782],[-83.59671,43.01777],[-83.59642,43.01774],[-83.59531,43.01771],[-83.59529,43.01747],[-83.59527,43.01726],[-83.59525,43.01588],[-83.59525,43.01587],[-83.59525,43.01544],[-83.59513,43.01098],[-83.59513,43.01098],[-83.5951,43.00953],[-83.5951,43.00943],[-83.59508,43.00869],[-83.59508,43.00869],[-83.59508,43.00837],[-83.59503,43.00662],[-83.59503,43.00662],[-83.59503,43.00628],[-83.59502,43.00476],[-83.59012,43.00483],[-83.58529,43.00451],[-83.58528,43.00504],[-83.58528,43.00504],[-83.58014,43.00489],[-83.57576,43.00477],[-83.57575,43.00493],[-83.57532,43.00903],[-83.57534,43.00944],[-83.57534,43.00944],[-83.57534,43.00945],[-83.57541,43.0114],[-83.57541,43.0114],[-83.57562,43.01678],[-83.57575,43.0179],[-83.57575,43.0179],[-83.57576,43.01825],[-83.57576,43.01825],[-83.57575,43.01911]]]}},{"type":"Feature","properties":{"name":"City of Burton, Precinct 11","precinct":"11"},"geometry":{"type":"Polygon","coordinates":[[[-83.57656,43.04741],[-83.57655,43.04821],[-83.57655,43.04821],[-83.57783,43.0482],[-83.57913,43.04819],[-83.57953,43.04819],[-83.58002,43.04818],[-83.58058,43.04816],[-83.58327,43.04811],[-83.58979,43.04799],[-83.58979,43.04799],[-83.59552,43.04794],[-83.5962,43.04793],[-83.5962,43.04793],[-83.59993,43.04788],[-83.59993,43.04788],[-83.6086,43.04777],[-83.61127,43.04774],[-83.61372,43.0477],[-83.61446,43.04743],[-83.61446,43.04743],[-83.61463,43.04735],[-83.61463,43.04735],[-83.61594,43.04751],[-83.61594,43.04751],[-83.61594,43.04751],[-83.61594,43.04751],[-83.61593,43.04715],[-83.61587,43.04511],[-83.61581,43.04369],[-83.61581,43.04368],[-83.61579,43.04326],[-83.61579,43.04326],[-83.61575,43.04206],[-83.61574,43.04172],[-83.6157,43.04071],[-83.61568,43.03987],[-83.6155,43.03459],[-83.61542,43.03305],[-83.61542,43.03305],[-83.61526,43.02727],[-83.61526,43.02727],[-83.61526,43.02726],[-83.61526,43.02726],[-83.61526,43.02692],[-83.61527,43.02632],[-83.61526,43.02632],[-83.6093,43.02636],[-83.6066,43.02638],[-83.6066,43.02638],[-83.6066,43.02643],[-83.6066,43.02645],[-83.60667,43.03321],[-83.60667,43.03326],[-83.60667,43.03326],[-83.60632,43.03328],[-83.60517,43.0333],[-83.60511,43.03331],[-83.60491,43.03332],[-83.60377,43.03336],[-83.60175,43.03343],[-83.59977,43.03352],[-83.59977,43.03352],[-83.59852,43.03356],[-83.59571,43.03365],[-83.59571,43.03365],[-83.59491,43.03365],[-83.59263,43.03364],[-83.5901,43.03364],[-83.58926,43.03364],[-83.58855,43.03363],[-83.58829,43.03363],[-83.5871,43.03363],[-83.58536,43.03362],[-83.58509,43.03362],[-83.58288,43.03362],[-83.58288,43.03362],[-83.58167,43.03362],[-83.5802,43.03362],[-83.57985,43.03362],[-83.57948,43.03362],[-83.57728,43.03362],[-83.57615,43.03364],[-83.57628,43.03775],[-83.57628,43.03788],[-83.57628,43.03788],[-83.57634,43.03821],[-83.57633,43.0392],[-83.57639,43.04005],[-83.57641,43.04036],[-83.57646,43.0429],[-83.57656,43.04741]]]}},{"type":"Feature","properties":{"name":"City of Burton, Precinct 12","precinct":"12"},"geometry":{"type":"Polygon","coordinates":[[[-83.60704,43.00065],[-83.6073,43.00064],[-83.60767,43.00063],[-83.6079,43.00063],[-83.60828,43.00062],[-83.60851,43.00061],[-83.6089,43.0006],[-83.60913,43.0006],[-83.60974,43.00059],[-83.6098,43.00059],[-83.61006,43.00058],[-83.61039,43.00057],[-83.61101,43.00056],[-83.61162,43.00054],[-83.61391,43.00049],[-83.61457,43.00048],[-83.61464,43.00048],[-83.61453,42.99701],[-83.61452,42.99684],[-83.61452,42.99672],[-83.6145,42.99591],[-83.61449,42.99573],[-83.61449,42.99573],[-83.61443,42.99341],[-83.61443,42.99341],[-83.61443,42.99338],[-83.61442,42.99202],[-83.61437,42.99071],[-83.61433,42.9897],[-83.61918,42.98968],[-83.61918,42.98968],[-83.62157,42.98966],[-83.62157,42.98966],[-83.62287,42.98966],[-83.62406,42.98966],[-83.62405,42.98953],[-83.62402,42.98867],[-83.62378,42.98246],[-83.62378,42.98236],[-83.62378,42.98233],[-83.62374,42.98154],[-83.62374,42.98135],[-83.62373,42.98118],[-83.62372,42.98099],[-83.62371,42.98082],[-83.6237,42.98066],[-83.6237,42.98063],[-83.6237,42.98045],[-83.62369,42.98027],[-83.62368,42.98009],[-83.62367,42.97991],[-83.62366,42.97972],[-83.62365,42.97955],[-83.62365,42.97945],[-83.62365,42.97936],[-83.62364,42.97918],[-83.62363,42.979],[-83.62363,42.97883],[-83.62362,42.97872],[-83.62362,42.97864],[-83.62361,42.97846],[-83.6236,42.97829],[-83.62359,42.9781],[-83.62359,42.97792],[-83.62358,42.97773],[-83.62357,42.97755],[-83.62356,42.97737],[-83.62356,42.97719],[-83.62355,42.97701],[-83.62354,42.97683],[-83.62353,42.97664],[-83.62352,42.97646],[-83.62352,42.97644],[-83.62352,42.97628],[-83.62351,42.9761],[-83.62347,42.97528],[-83.62347,42.97526],[-83.62344,42.97517],[-83.62335,42.97247],[-83.62319,42.96792],[-83.62318,42.96748],[-83.62317,42.96656],[-83.62298,42.96071],[-83.62298,42.96071],[-83.618,42.9608],[-83.61336,42.96088],[-83.61328,42.96107],[-83.61323,42.96129],[-83.61321,42.96143],[-83.6132,42.9615],[-83.61319,42.96175],[-83.61319,42.96177],[-83.61319,42.96183],[-83.61319,42.96183],[-83.61297,42.96183],[-83.60942,42.96192],[-83.60936,42.96192],[-83.60822,42.96173],[-83.60808,42.96173],[-83.60761,42.96173],[-83.6075,42.96173],[-83.60718,42.96174],[-83.60714,42.9621],[-83.60722,42.96228],[-83.60721,42.9623],[-83.60706,42.9628],[-83.60693,42.96286],[-83.60698,42.9629],[-83.60701,42.96293],[-83.60704,42.96295],[-83.60707,42.96298],[-83.6071,42.963],[-83.60713,42.96303],[-83.60715,42.96306],[-83.60718,42.96309],[-83.6072,42.96311],[-83.60723,42.96314],[-83.60703,42.96323],[-83.60693,42.96342],[-83.60699,42.96354],[-83.60703,42.96365],[-83.60705,42.96374],[-83.60709,42.96388],[-83.6071,42.96394],[-83.60715,42.96413],[-83.6072,42.96413],[-83.60721,42.96437],[-83.60718,42.96454],[-83.60716,42.9646],[-83.60704,42.96483],[-83.60693,42.96493],[-83.60682,42.96503],[-83.6068,42.96506],[-83.60673,42.96512],[-83.6073,42.96548],[-83.60713,42.96577],[-83.60713,42.96581],[-83.60719,42.96618],[-83.60704,42.96621],[-83.60724,42.96646],[-83.60723,42.96666],[-83.60719,42.96667],[-83.60712,42.9667],[-83.60692,42.96678],[-83.60709,42.96711],[-83.60718,42.96729],[-83.60705,42.96729],[-83.60706,42.96764],[-83.60711,42.96782],[-83.60712,42.96816],[-83.60712,42.96826],[-83.60709,42.96882],[-83.60358,42.96888],[-83.60348,42.96888],[-83.60337,42.96888],[-83.60303,42.96888],[-83.6029,42.96888],[-83.60282,42.96888],[-83.60277,42.96888],[-83.60273,42.96888],[-83.60269,42.96914],[-83.60265,42.96922],[-83.60252,42.96954],[-83.60238,42.96987],[-83.60235,42.96993],[-83.60259,42.96996],[-83.60291,42.97],[-83.60292,42.97031],[-83.60275,42.9706],[-83.60275,42.97095],[-83.60275,42.97099],[-83.60275,42.97171],[-83.60147,42.97171],[-83.60021,42.97171],[-83.60018,42.97171],[-83.60016,42.97173],[-83.60015,42.97175],[-83.59963,42.97166],[-83.59902,42.97172],[-83.59896,42.97175],[-83.59892,42.97178],[-83.59888,42.9718],[-83.59884,42.97183],[-83.59884,42.97183],[-83.59879,42.97188],[-83.59874,42.97201],[-83.59874,42.97213],[-83.59874,42.97217],[-83.59874,42.97264],[-83.59874,42.97308],[-83.59874,42.97319],[-83.59875,42.97554],[-83.59836,42.97555],[-83.59836,42.97555],[-83.59836,42.97555],[-83.59759,42.97556],[-83.59594,42.9756],[-83.59378,42.97564],[-83.59378,42.97564],[-83.59369,42.97279],[-83.59369,42.97258],[-83.59368,42.97228],[-83.59367,42.97193],[-83.59365,42.97141],[-83.5936,42.96968],[-83.59346,42.96968],[-83.5901,42.9697],[-83.58914,42.96971],[-83.5887,42.96975],[-83.58872,42.97025],[-83.58376,42.97033],[-83.58226,42.97035],[-83.58227,42.97039],[-83.58228,42.97084],[-83.58238,42.97343],[-83.58198,42.97343],[-83.58207,42.97567],[-83.58208,42.97579],[-83.58292,42.97578],[-83.58333,42.98227],[-83.58333,42.98227],[-83.58339,42.98227],[-83.58422,42.98224],[-83.58423,42.98253],[-83.58427,42.98253],[-83.59292,42.98248],[-83.59379,42.98248],[-83.59395,42.98248],[-83.59397,42.9829],[-83.59397,42.9829],[-83.59397,42.98293],[-83.59399,42.98319],[-83.59401,42.98362],[-83.59419,42.98657],[-83.59429,42.98828],[-83.59429,42.98829],[-83.5944,42.99013],[-83.5944,42.99013],[-83.59469,42.99538],[-83.59471,42.99578],[-83.59474,42.99623],[-83.59477,42.99684],[-83.59478,42.99701],[-83.59481,42.99745],[-83.59481,42.99745],[-83.59494,42.99745],[-83.59509,42.99744],[-83.59543,42.99743],[-83.59569,42.99742],[-83.59595,42.99741],[-83.59621,42.99741],[-83.59647,42.9974],[-83.59673,42.99739],[-83.59701,42.99738],[-83.59729,42.99737],[-83.59771,42.99736],[-83.59822,42.99734],[-83.59851,42.99733],[-83.59893,42.99732],[-83.59971,42.99729],[-83.60458,42.99715],[-83.6047,42.99714],[-83.60571,42.99711],[-83.60632,42.99709],[-83.6065,42.99709],[-83.60677,42.99708],[-83.60677,42.99709],[-83.60702,43.00001],[-83.60704,43.00065]]]}}]}
