{"type":"FeatureCollection","_source":"U.S. Census Bureau cartographic boundary file cb_2023_26_unsd_500k (Unified School Districts, 1:500,000). Public domain. Filtered to districts serving the City of Burton.","features":[{"type":"Feature","properties":{"name":"Atherton Community Schools","geoid":"2603540"},"geometry":{"type":"Polygon","coordinates":[[[-83.66184,42.96388],[-83.65931,42.96354],[-83.65937,42.96735],[-83.65265,42.96746],[-83.65291,42.97471],[-83.65317,42.98195],[-83.65341,42.98916],[-83.64371,42.98932],[-83.64375,42.99156],[-83.64408,43.00391],[-83.6345,43.00417],[-83.63464,43.01011],[-83.63466,43.01154],[-83.63472,43.01381],[-83.63484,43.01873],[-83.63508,43.026],[-83.63536,43.03323],[-83.62549,43.03313],[-83.61541,43.03305],[-83.61526,43.02631],[-83.62999,43.02618],[-83.63001,43.01871],[-83.62498,43.0187],[-83.62488,43.0152],[-83.62491,43.01425],[-83.62485,43.01272],[-83.62485,43.0126],[-83.62764,43.01273],[-83.6312,43.01292],[-83.63122,43.00783],[-83.62975,43.00782],[-83.62971,43.00709],[-83.62918,43.00782],[-83.61979,43.00778],[-83.6197,43.00415],[-83.61486,43.00414],[-83.61452,42.997],[-83.60423,42.99716],[-83.5948,42.99745],[-83.59477,42.99683],[-83.59439,42.99012],[-83.59396,42.98289],[-83.58429,42.98303],[-83.5841,42.97575],[-83.58575,42.97573],[-83.58552,42.97393],[-83.58337,42.97299],[-83.58381,42.97037],[-83.58374,42.96847],[-83.59356,42.96855],[-83.59377,42.97563],[-83.59875,42.97553],[-83.59855,42.97114],[-83.60353,42.971],[-83.60365,42.96829],[-83.60834,42.96831],[-83.60935,42.96191],[-83.61319,42.96182],[-83.61335,42.96087],[-83.64848,42.9603],[-83.65243,42.96025],[-83.66136,42.96012],[-83.66184,42.96388]]]}},{"type":"Feature","properties":{"name":"Bendle Public Schools","geoid":"2604740"},"geometry":{"type":"Polygon","coordinates":[[[-83.68295,42.96208],[-83.68198,42.97156],[-83.68199,42.97427],[-83.68231,42.98153],[-83.67434,42.98168],[-83.66452,42.98182],[-83.6609,42.98186],[-83.65317,42.98195],[-83.65291,42.97471],[-83.65265,42.96746],[-83.65937,42.96735],[-83.65931,42.96354],[-83.66184,42.96388],[-83.66136,42.96012],[-83.66744,42.96002],[-83.6799,42.9598],[-83.68281,42.95976],[-83.68295,42.96208]]]}},{"type":"Feature","properties":{"name":"Bentley Community Schools","geoid":"2604800"},"geometry":{"type":"Polygon","coordinates":[[[-83.6312,43.01292],[-83.62764,43.01273],[-83.62485,43.0126],[-83.62485,43.01272],[-83.62491,43.01425],[-83.62488,43.0152],[-83.62498,43.0187],[-83.63001,43.01871],[-83.62999,43.02618],[-83.61526,43.02631],[-83.60659,43.02637],[-83.60632,43.03327],[-83.59571,43.03364],[-83.57614,43.03363],[-83.57605,43.02689],[-83.57574,43.01789],[-83.57541,43.01139],[-83.57532,43.00902],[-83.57519,43.00408],[-83.58162,43.00136],[-83.58298,43.00129],[-83.59368,43.00102],[-83.59487,43.00004],[-83.5948,42.99745],[-83.60423,42.99716],[-83.61452,42.997],[-83.61486,43.00414],[-83.6197,43.00415],[-83.61979,43.00778],[-83.62918,43.00782],[-83.62971,43.00709],[-83.62975,43.00782],[-83.63122,43.00783],[-83.6312,43.01292]]]}},{"type":"Feature","properties":{"name":"Carman-Ainsworth Community School District","geoid":"2607890"},"geometry":{"type":"Polygon","coordinates":[[[-83.81265,43.02905],[-83.81002,43.0291],[-83.80993,43.03088],[-83.78654,43.03136],[-83.78342,43.03135],[-83.77353,43.03139],[-83.76944,43.03139],[-83.7678,43.03108],[-83.76796,43.03937],[-83.76753,43.04022],[-83.75908,43.04603],[-83.75505,43.04608],[-83.7333,43.04622],[-83.73318,43.04199],[-83.73302,43.0385],[-83.73346,43.03718],[-83.73597,43.03645],[-83.73752,43.03776],[-83.74237,43.03368],[-83.7398,43.03414],[-83.73824,43.03241],[-83.73884,43.03074],[-83.73932,43.03043],[-83.74013,43.03053],[-83.74045,43.03069],[-83.74058,43.03006],[-83.74004,43.02989],[-83.73999,43.02982],[-83.74232,43.02748],[-83.73174,43.02447],[-83.72952,43.02383],[-83.73019,43.02296],[-83.73014,43.02219],[-83.7317,43.02085],[-83.73345,43.01816],[-83.73472,43.01733],[-83.73493,43.01695],[-83.73685,43.01469],[-83.73932,43.01167],[-83.73802,43.01031],[-83.739,43.00688],[-83.74044,43.00689],[-83.74075,43.00458],[-83.74188,43.00218],[-83.74067,43.00221],[-83.73747,43.00228],[-83.73797,42.99512],[-83.73308,42.99542],[-83.73302,42.99477],[-83.73288,42.99231],[-83.73275,42.98813],[-83.72333,42.9883],[-83.72015,42.98827],[-83.71793,42.98797],[-83.71612,42.98841],[-83.71322,42.98832],[-83.713,42.98101],[-83.69752,42.98119],[-83.6929,42.98121],[-83.6906,42.9814],[-83.68231,42.98153],[-83.68199,42.97427],[-83.68198,42.97156],[-83.68295,42.96208],[-83.68281,42.95976],[-83.69252,42.95959],[-83.70263,42.95938],[-83.70234,42.95153],[-83.70746,42.95153],[-83.70732,42.94785],[-83.71222,42.94781],[-83.71206,42.94317],[-83.71191,42.93689],[-83.70392,42.93691],[-83.70182,42.93538],[-83.70163,42.92964],[-83.69636,42.92968],[-83.69629,42.92772],[-83.69435,42.92781],[-83.69429,42.92959],[-83.69318,42.92949],[-83.69158,42.92936],[-83.69155,42.92832],[-83.69152,42.92785],[-83.69356,42.92592],[-83.69724,42.926],[-83.69736,42.92304],[-83.7013,42.92291],[-83.70125,42.92049],[-83.71113,42.92045],[-83.71089,42.91493],[-83.71574,42.91487],[-83.71686,42.91244],[-83.71697,42.90753],[-83.72292,42.90749],[-83.72283,42.90496],[-83.72758,42.90509],[-83.72757,42.90555],[-83.7302,42.90568],[-83.73016,42.90431],[-83.74097,42.9026],[-83.7412,42.89987],[-83.74481,42.89974],[-83.74975,42.8997],[-83.74988,42.89592],[-83.75547,42.89597],[-83.75557,42.89961],[-83.75722,42.89958],[-83.75744,42.90691],[-83.76366,42.90687],[-83.76378,42.9116],[-83.76998,42.91141],[-83.77009,42.91413],[-83.77032,42.92085],[-83.76047,42.92096],[-83.76046,42.92401],[-83.76558,42.92404],[-83.7656,42.9258],[-83.76395,42.92583],[-83.76408,42.92884],[-83.74097,42.92918],[-83.74126,42.9361],[-83.7314,42.93618],[-83.73167,42.94015],[-83.72674,42.9403],[-83.72655,42.93659],[-83.72349,42.93669],[-83.72349,42.93653],[-83.72163,42.93671],[-83.72244,42.95088],[-83.72285,42.9513],[-83.72482,42.95133],[-83.7275,42.95128],[-83.72748,42.94812],[-83.73194,42.94799],[-83.73208,42.95134],[-83.7393,42.9512],[-83.73937,42.95482],[-83.73848,42.95471],[-83.73902,42.95875],[-83.74039,42.95882],[-83.75109,42.95858],[-83.75181,42.95853],[-83.75181,42.97299],[-83.74583,42.97313],[-83.74352,42.97316],[-83.74354,42.97451],[-83.74355,42.97554],[-83.74336,42.98007],[-83.744,42.9813],[-83.74565,42.98161],[-83.74537,42.98412],[-83.74625,42.98755],[-83.7625,42.98737],[-83.76261,42.99222],[-83.76264,42.99451],[-83.77246,42.9945],[-83.77769,42.99454],[-83.7773,42.98733],[-83.77719,42.98368],[-83.78217,42.98353],[-83.78208,42.97997],[-83.797,42.97974],[-83.79729,42.98715],[-83.79733,42.9874],[-83.7975,42.99411],[-83.81191,42.99401],[-83.81211,43.00119],[-83.81214,43.00458],[-83.81236,43.01564],[-83.81265,43.02905]]]}},{"type":"Feature","properties":{"name":"Davison Community Schools","geoid":"2611430"},"geometry":{"type":"Polygon","coordinates":[[[-83.59487,43.00004],[-83.59368,43.00102],[-83.58298,43.00129],[-83.58162,43.00136],[-83.57519,43.00408],[-83.57532,43.00902],[-83.57541,43.01139],[-83.57574,43.01789],[-83.57605,43.02689],[-83.57614,43.03363],[-83.57135,43.03374],[-83.57143,43.03734],[-83.5666,43.0374],[-83.56672,43.04102],[-83.57167,43.04091],[-83.57209,43.04458],[-83.57186,43.04827],[-83.57654,43.0482],[-83.57709,43.05326],[-83.57699,43.06276],[-83.57715,43.06838],[-83.57215,43.06841],[-83.57256,43.08444],[-83.56509,43.08419],[-83.56505,43.09195],[-83.56335,43.09196],[-83.56348,43.09046],[-83.56195,43.09044],[-83.56161,43.09196],[-83.56178,43.10049],[-83.56636,43.10075],[-83.56864,43.10156],[-83.56927,43.10023],[-83.57063,43.10025],[-83.56954,43.10164],[-83.57108,43.10257],[-83.57318,43.10108],[-83.57457,43.10204],[-83.57253,43.10267],[-83.57219,43.10394],[-83.57324,43.10499],[-83.57568,43.10616],[-83.5769,43.1078],[-83.57852,43.10859],[-83.57851,43.10919],[-83.57771,43.10888],[-83.57404,43.10872],[-83.57331,43.10634],[-83.56761,43.10618],[-83.5676,43.10378],[-83.55677,43.10351],[-83.55154,43.10151],[-83.54834,43.10126],[-83.54345,43.10206],[-83.54336,43.10418],[-83.54118,43.10591],[-83.54009,43.10588],[-83.53728,43.10408],[-83.53276,43.10411],[-83.53101,43.10483],[-83.52906,43.10701],[-83.51878,43.10746],[-83.49914,43.10751],[-83.49901,43.09655],[-83.49416,43.09662],[-83.49422,43.10022],[-83.48986,43.10028],[-83.48983,43.09304],[-83.46935,43.09334],[-83.46932,43.08975],[-83.459,43.08985],[-83.45899,43.07909],[-83.459,43.06846],[-83.45913,43.05764],[-83.45113,43.05783],[-83.45096,43.0541],[-83.45649,43.05394],[-83.45656,43.05155],[-83.45367,43.05154],[-83.45454,43.04583],[-83.45897,43.04447],[-83.45873,43.03575],[-83.45674,43.03624],[-83.44992,43.03635],[-83.45004,43.03927],[-83.44013,43.03905],[-83.43974,43.03004],[-83.45455,43.03007],[-83.4545,43.02397],[-83.44937,43.02416],[-83.44942,43.02529],[-83.44286,43.02561],[-83.44293,43.02428],[-83.44465,43.02433],[-83.44455,43.02265],[-83.45166,43.02249],[-83.45147,43.01987],[-83.44918,43.01983],[-83.44922,43.02078],[-83.43935,43.02087],[-83.43928,43.01929],[-83.43491,43.01913],[-83.4348,43.02179],[-83.42962,43.02178],[-83.42942,43.01582],[-83.42936,43.01279],[-83.43256,43.01265],[-83.43229,43.00919],[-83.4301,43.00916],[-83.42951,43.00534],[-83.4397,43.00527],[-83.439,42.98702],[-83.44785,42.98702],[-83.45275,42.98673],[-83.4527,42.98334],[-83.45737,42.98351],[-83.45688,42.96862],[-83.45678,42.96314],[-83.45856,42.96317],[-83.4665,42.96296],[-83.46636,42.9554],[-83.47112,42.95533],[-83.47097,42.94808],[-83.48069,42.94777],[-83.48083,42.95144],[-83.49041,42.9512],[-83.49052,42.95482],[-83.49538,42.9547],[-83.49549,42.9593],[-83.50584,42.95909],[-83.50618,42.96246],[-83.54513,42.96178],[-83.54507,42.96909],[-83.54364,42.97632],[-83.56492,42.97599],[-83.56563,42.96917],[-83.57396,42.96834],[-83.57406,42.97046],[-83.58381,42.97037],[-83.58337,42.97299],[-83.58552,42.97393],[-83.58575,42.97573],[-83.5841,42.97575],[-83.58429,42.98303],[-83.59396,42.98289],[-83.59439,42.99012],[-83.59477,42.99683],[-83.5948,42.99745],[-83.59487,43.00004]]]}},{"type":"Feature","properties":{"name":"Grand Blanc Community Schools","geoid":"2616350"},"geometry":{"type":"Polygon","coordinates":[[[-83.72292,42.90749],[-83.71697,42.90753],[-83.71686,42.91244],[-83.71574,42.91487],[-83.71089,42.91493],[-83.71113,42.92045],[-83.70125,42.92049],[-83.7013,42.92291],[-83.69736,42.92304],[-83.69724,42.926],[-83.69356,42.92592],[-83.69152,42.92785],[-83.69155,42.92832],[-83.69158,42.92936],[-83.69318,42.92949],[-83.69429,42.92959],[-83.69435,42.92781],[-83.69629,42.92772],[-83.69636,42.92968],[-83.70163,42.92964],[-83.70182,42.93538],[-83.70392,42.93691],[-83.71191,42.93689],[-83.71206,42.94317],[-83.71222,42.94781],[-83.70732,42.94785],[-83.70746,42.95153],[-83.70234,42.95153],[-83.70263,42.95938],[-83.69252,42.95959],[-83.68281,42.95976],[-83.6799,42.9598],[-83.66744,42.96002],[-83.66136,42.96012],[-83.65243,42.96025],[-83.64848,42.9603],[-83.61335,42.96087],[-83.61319,42.96182],[-83.60935,42.96191],[-83.60834,42.96831],[-83.60365,42.96829],[-83.60353,42.971],[-83.59855,42.97114],[-83.59875,42.97553],[-83.59377,42.97563],[-83.59356,42.96855],[-83.58374,42.96847],[-83.58381,42.97037],[-83.57406,42.97046],[-83.57396,42.96834],[-83.57375,42.96147],[-83.57334,42.94737],[-83.57318,42.94618],[-83.56917,42.94613],[-83.55842,42.94657],[-83.55836,42.93778],[-83.55832,42.93249],[-83.57154,42.93192],[-83.57297,42.93232],[-83.57411,42.93261],[-83.57876,42.93153],[-83.5778,42.92856],[-83.57755,42.92439],[-83.58714,42.92397],[-83.58738,42.91762],[-83.57242,42.9173],[-83.5723,42.91323],[-83.58244,42.91261],[-83.58263,42.91217],[-83.58213,42.90962],[-83.58148,42.89503],[-83.58647,42.89487],[-83.58626,42.88759],[-83.58598,42.87673],[-83.58431,42.87669],[-83.58431,42.87431],[-83.58131,42.87313],[-83.59445,42.87295],[-83.598,42.87289],[-83.63042,42.87232],[-83.64994,42.87197],[-83.64972,42.86355],[-83.66987,42.86359],[-83.66983,42.87161],[-83.67056,42.87159],[-83.6704,42.88275],[-83.67072,42.88607],[-83.67033,42.88607],[-83.67056,42.8933],[-83.69024,42.89302],[-83.69076,42.89917],[-83.69071,42.90053],[-83.69124,42.90058],[-83.72262,42.90012],[-83.72283,42.90496],[-83.72292,42.90749]]]}},{"type":"Feature","properties":{"name":"Kearsley Community Schools","geoid":"2620070"},"geometry":{"type":"Polygon","coordinates":[[[-83.68214,43.10497],[-83.67694,43.10512],[-83.67567,43.10512],[-83.67452,43.10514],[-83.67467,43.11252],[-83.65707,43.11274],[-83.65713,43.11456],[-83.65226,43.11467],[-83.65222,43.11271],[-83.64209,43.1119],[-83.63725,43.11183],[-83.63715,43.10554],[-83.62748,43.10585],[-83.62743,43.104],[-83.62792,43.10113],[-83.62906,43.10038],[-83.63146,43.10033],[-83.63517,43.09832],[-83.63689,43.09396],[-83.63686,43.091],[-83.63257,43.0911],[-83.63194,43.09224],[-83.62934,43.09221],[-83.62932,43.09486],[-83.6191,43.09511],[-83.61912,43.0981],[-83.61723,43.0981],[-83.61724,43.09834],[-83.61076,43.09831],[-83.60986,43.09833],[-83.60981,43.09539],[-83.60724,43.09539],[-83.60724,43.09769],[-83.60742,43.09834],[-83.60683,43.09836],[-83.60319,43.09886],[-83.59751,43.09912],[-83.59775,43.1063],[-83.60255,43.10628],[-83.60215,43.10822],[-83.60023,43.10859],[-83.60021,43.11074],[-83.5957,43.11256],[-83.59266,43.11238],[-83.59138,43.11001],[-83.58831,43.10693],[-83.58829,43.10505],[-83.58615,43.10465],[-83.58589,43.10606],[-83.58158,43.10393],[-83.57964,43.10415],[-83.58075,43.10621],[-83.57966,43.10857],[-83.57852,43.10859],[-83.5769,43.1078],[-83.57568,43.10616],[-83.57324,43.10499],[-83.57219,43.10394],[-83.57253,43.10267],[-83.57457,43.10204],[-83.57318,43.10108],[-83.57108,43.10257],[-83.56954,43.10164],[-83.57063,43.10025],[-83.56927,43.10023],[-83.56864,43.10156],[-83.56636,43.10075],[-83.56178,43.10049],[-83.56161,43.09196],[-83.56195,43.09044],[-83.56348,43.09046],[-83.56335,43.09196],[-83.56505,43.09195],[-83.56509,43.08419],[-83.57256,43.08444],[-83.57215,43.06841],[-83.57715,43.06838],[-83.57699,43.06276],[-83.57709,43.05326],[-83.57654,43.0482],[-83.57186,43.04827],[-83.57209,43.04458],[-83.57167,43.04091],[-83.56672,43.04102],[-83.5666,43.0374],[-83.57143,43.03734],[-83.57135,43.03374],[-83.57614,43.03363],[-83.59571,43.03364],[-83.60632,43.03327],[-83.60659,43.02637],[-83.61526,43.02631],[-83.61541,43.03305],[-83.62549,43.03313],[-83.63536,43.03323],[-83.63548,43.03716],[-83.6355,43.03758],[-83.63562,43.04314],[-83.63567,43.0474],[-83.63578,43.05107],[-83.64564,43.05092],[-83.65052,43.05086],[-83.65046,43.0544],[-83.65074,43.05691],[-83.65071,43.05741],[-83.65081,43.0617],[-83.65095,43.06964],[-83.64617,43.0764],[-83.6545,43.07636],[-83.65658,43.07634],[-83.6642,43.0761],[-83.66586,43.07608],[-83.66595,43.08427],[-83.67065,43.08424],[-83.67171,43.08558],[-83.67206,43.09045],[-83.67447,43.09045],[-83.67535,43.09766],[-83.67662,43.09747],[-83.67672,43.09874],[-83.68196,43.09875],[-83.68214,43.10497]]]}}]}
