{"type":"FeatureCollection","_source":"Genesee County 'Legacy Trail Map' (GCMPC non-motorized plan), Major Trail Segments. Segments serving the City of Burton; lengths clipped to the city. Existing trails are solid; planned (programmed/proposed/under construction) are dashed.","features":[{"type":"Feature","properties":{"name":"Court Street Trail","status":"Existing","_color":"#2e7d32","_weight":4,"_dashArray":null,"_popupRows":[["Status","Existing"],["Type","Sidewalk"],["Surface","Concrete"],["In Burton","1.00 mi"]]},"geometry":{"type":"LineString","coordinates":[[-83.67525,43.0178],[-83.67345,43.01826],[-83.67105,43.01831],[-83.66471,43.01843],[-83.66103,43.01847],[-83.65791,43.0185],[-83.65589,43.01852],[-83.65451,43.01853],[-83.65354,43.01854],[-83.65334,43.01857],[-83.65178,43.01858],[-83.65167,43.01859],[-83.65001,43.0186],[-83.64986,43.01855],[-83.64747,43.01858],[-83.64739,43.0186],[-83.64687,43.0186],[-83.64668,43.01858],[-83.64366,43.01864],[-83.63977,43.01873],[-83.63508,43.01882],[-83.63484,43.01873],[-83.6151,43.01871],[-83.61507,43.01871]]}},{"type":"Feature","properties":{"name":"Davison Road Trail","status":"Existing","_color":"#2e7d32","_weight":4,"_dashArray":null,"_popupRows":[["Status","Existing"],["Type","Sidewalk"],["Surface","Concrete"],["In Burton","1.01 mi"]]},"geometry":{"type":"LineString","coordinates":[[-83.59615,43.03363],[-83.59571,43.03364],[-83.58534,43.03372],[-83.57796,43.03371],[-83.57645,43.03371],[-83.57641,43.03371],[-83.57636,43.03371],[-83.57632,43.03372],[-83.57629,43.03373],[-83.57617,43.0337],[-83.57534,43.03371],[-83.57524,43.03371],[-83.5752,43.03371],[-83.57486,43.03372],[-83.57479,43.03373],[-83.57462,43.03373],[-83.57457,43.03374],[-83.57428,43.03375],[-83.57422,43.03374],[-83.57418,43.03375],[-83.56982,43.03385],[-83.56882,43.03387],[-83.56876,43.03386],[-83.56872,43.03386],[-83.56854,43.03387],[-83.56848,43.03389],[-83.56545,43.03396],[-83.5647,43.03398],[-83.56434,43.03399],[-83.56384,43.03399],[-83.56188,43.03404],[-83.56161,43.03404],[-83.56042,43.03405],[-83.56036,43.03404],[-83.5603,43.03405],[-83.55824,43.03407],[-83.55819,43.03406],[-83.55809,43.03406],[-83.55797,43.03408],[-83.55645,43.03409],[-83.55578,43.0341],[-83.55541,43.03412],[-83.55538,43.0341],[-83.55532,43.03412],[-83.55153,43.03421],[-83.55147,43.03422],[-83.55143,43.0342],[-83.55104,43.03422],[-83.55099,43.03423],[-83.5509,43.03422],[-83.55043,43.03423],[-83.55038,43.03424],[-83.55033,43.03423],[-83.54965,43.03425],[-83.54786,43.03429],[-83.54726,43.03431],[-83.54642,43.03431],[-83.54555,43.03434],[-83.54549,43.03435],[-83.54544,43.03433],[-83.54489,43.03435],[-83.54484,43.03435],[-83.54466,43.03434],[-83.54459,43.03436],[-83.54346,43.03437],[-83.54303,43.03438],[-83.54255,43.03438],[-83.54222,43.03438],[-83.54205,43.03437],[-83.54189,43.0344],[-83.54172,43.03439],[-83.54085,43.03442],[-83.54079,43.0344],[-83.54071,43.03443],[-83.54051,43.03442],[-83.54028,43.03445],[-83.53989,43.03444],[-83.53897,43.03446],[-83.53869,43.03446],[-83.53867,43.03447],[-83.53792,43.03448],[-83.53786,43.03447],[-83.5376,43.03446],[-83.53754,43.03452],[-83.53684,43.03451],[-83.53677,43.0345],[-83.53656,43.03448],[-83.53645,43.03448],[-83.53638,43.0345],[-83.5363,43.0345],[-83.53617,43.03448],[-83.53604,43.03448],[-83.53598,43.03449],[-83.53593,43.03447],[-83.53588,43.03449],[-83.53476,43.03451],[-83.53471,43.0345],[-83.53428,43.03452],[-83.53422,43.0345],[-83.53418,43.03452],[-83.53156,43.03455],[-83.53054,43.03457],[-83.52996,43.03458],[-83.52974,43.03458],[-83.52972,43.03458],[-83.5296,43.03458],[-83.52921,43.03459],[-83.52918,43.03458],[-83.52913,43.03459],[-83.52857,43.03459],[-83.52848,43.0346],[-83.52813,43.03461],[-83.52805,43.03459],[-83.52719,43.03459],[-83.52536,43.03462],[-83.52522,43.03463],[-83.52517,43.03463],[-83.52513,43.03462],[-83.52499,43.03462],[-83.52496,43.03463],[-83.52475,43.03463],[-83.52422,43.03464],[-83.52416,43.03464],[-83.52411,43.03465],[-83.52407,43.03465],[-83.52404,43.03464],[-83.52401,43.03464],[-83.52396,43.03465],[-83.52312,43.03466],[-83.52271,43.03466],[-83.52248,43.03466],[-83.5223,43.03466],[-83.52199,43.03467],[-83.52172,43.03468],[-83.52148,43.03468],[-83.52119,43.03468],[-83.52077,43.03469],[-83.52036,43.0347],[-83.52016,43.0347],[-83.51994,43.0347],[-83.51978,43.03471],[-83.51936,43.03472],[-83.51913,43.03472],[-83.51822,43.03473]]}},{"type":"Feature","properties":{"name":"ForMar Trails","status":"Existing","_color":"#2e7d32","_weight":4,"_dashArray":null,"_popupRows":[["Status","Existing"],["Type","Multi-Use Facility"],["In Burton","9.67 mi"]]},"geometry":{"type":"MultiLineString","coordinates":[[[-83.60516,43.03346],[-83.60515,43.03432],[-83.60516,43.03469],[-83.60521,43.03502],[-83.60528,43.03554],[-83.60535,43.03585],[-83.6053,43.03619],[-83.60522,43.03672],[-83.60516,43.03707],[-83.6051,43.03729]],[[-83.61083,43.03707],[-83.61098,43.03709],[-83.61116,43.03715],[-83.61177,43.03742],[-83.61199,43.03746],[-83.61221,43.03749],[-83.61278,43.03745],[-83.61326,43.03742],[-83.61352,43.03739],[-83.61375,43.03735],[-83.61394,43.03729],[-83.61417,43.03723]],[[-83.61417,43.03723],[-83.61431,43.03719]],[[-83.61417,43.03723],[-83.61408,43.03705],[-83.61395,43.03699],[-83.61375,43.03684],[-83.61357,43.03677],[-83.61333,43.03665],[-83.61325,43.03648],[-83.6126,43.03589],[-83.61254,43.03588],[-83.61246,43.03583],[-83.61233,43.03577],[-83.61226,43.03576],[-83.6122,43.03576],[-83.61211,43.03576],[-83.612,43.03575],[-83.61192,43.03573],[-83.61163,43.0358],[-83.61149,43.03593],[-83.61141,43.03603],[-83.61124,43.03633],[-83.6111,43.03659],[-83.61101,43.03676],[-83.61088,43.03699],[-83.61083,43.03707]],[[-83.60692,43.03729],[-83.60712,43.03733],[-83.6073,43.03734],[-83.6077,43.03736],[-83.60792,43.03739],[-83.608,43.03741],[-83.60817,43.03744],[-83.60821,43.03745],[-83.60843,43.03752],[-83.60873,43.0376],[-83.60893,43.03763],[-83.6094,43.0377],[-83.6097,43.03769],[-83.61036,43.03759]],[[-83.60692,43.03729],[-83.60678,43.03752],[-83.60675,43.03766],[-83.60684,43.03775],[-83.60696,43.03779],[-83.60718,43.03777],[-83.60732,43.03773],[-83.6075,43.03767],[-83.6077,43.03765],[-83.60796,43.03775],[-83.60813,43.03793],[-83.60844,43.03806]],[[-83.6051,43.03729],[-83.60527,43.03721],[-83.60537,43.03721],[-83.60555,43.0372],[-83.60562,43.03719],[-83.60586,43.03716],[-83.60611,43.03713],[-83.60627,43.03713],[-83.60643,43.03715],[-83.60655,43.03718],[-83.6067,43.03723],[-83.60692,43.03729]],[[-83.6051,43.03729],[-83.60511,43.03745],[-83.60512,43.03787]],[[-83.61036,43.03759],[-83.61054,43.03755],[-83.61066,43.03748],[-83.61071,43.03741],[-83.61069,43.03723],[-83.6107,43.03717],[-83.61075,43.0371],[-83.61083,43.03707]],[[-83.61036,43.03759],[-83.61051,43.03764],[-83.61056,43.03778],[-83.61057,43.038]],[[-83.60512,43.03787],[-83.60531,43.03789],[-83.60539,43.03794],[-83.6054,43.03805],[-83.60539,43.03812],[-83.60543,43.03824],[-83.60544,43.03829],[-83.60542,43.03833],[-83.60543,43.03841],[-83.60542,43.03844],[-83.60543,43.03853],[-83.60541,43.0386],[-83.60545,43.03871],[-83.60549,43.03872],[-83.60555,43.03874],[-83.60564,43.03878],[-83.60579,43.03887],[-83.60598,43.03895]],[[-83.60512,43.03787],[-83.60511,43.03809],[-83.60511,43.03878],[-83.60512,43.03915],[-83.60518,43.03982],[-83.60521,43.0402],[-83.60519,43.04028],[-83.60518,43.04034],[-83.60514,43.04041],[-83.60507,43.04047],[-83.60499,43.04049],[-83.60491,43.04051],[-83.60471,43.04051],[-83.60441,43.04052],[-83.60421,43.04052],[-83.60402,43.04052],[-83.60378,43.04052],[-83.60356,43.04052],[-83.60346,43.04054],[-83.60338,43.04058],[-83.6033,43.04067],[-83.60326,43.04073],[-83.60323,43.04079],[-83.60322,43.04088],[-83.60324,43.04107],[-83.60327,43.04176],[-83.60333,43.04179]],[[-83.61057,43.038],[-83.61041,43.038],[-83.61011,43.03801],[-83.61004,43.03803],[-83.61002,43.03805],[-83.61002,43.0382],[-83.61003,43.03829],[-83.60997,43.03842],[-83.60996,43.03844],[-83.60998,43.03863],[-83.60996,43.03871],[-83.60996,43.03878],[-83.60998,43.03882],[-83.61001,43.03889],[-83.60999,43.03893]],[[-83.60844,43.03806],[-83.60834,43.03799],[-83.60832,43.03797]],[[-83.60844,43.03806],[-83.60835,43.03816],[-83.60827,43.03823],[-83.60824,43.03828]],[[-83.60824,43.03828],[-83.60813,43.03843],[-83.60805,43.03855],[-83.60798,43.03864],[-83.60792,43.03874],[-83.60787,43.03887],[-83.60784,43.039],[-83.60784,43.03909],[-83.60785,43.03923],[-83.60804,43.03935],[-83.60815,43.0394],[-83.60819,43.03938],[-83.60824,43.03941],[-83.60837,43.03941],[-83.60855,43.03936],[-83.60868,43.0393],[-83.60884,43.03921],[-83.60901,43.03919],[-83.60907,43.03915],[-83.60923,43.03916]],[[-83.61074,43.03834],[-83.61075,43.03831],[-83.61074,43.03829],[-83.61072,43.03828],[-83.61069,43.03829],[-83.61069,43.03831],[-83.6107,43.03833],[-83.61074,43.03834]],[[-83.60989,43.03838],[-83.6098,43.03836],[-83.60972,43.0383],[-83.60962,43.03827],[-83.60953,43.03821],[-83.60943,43.03815],[-83.60929,43.03809],[-83.60908,43.03801],[-83.60894,43.03799],[-83.60865,43.03797],[-83.60858,43.03802],[-83.60844,43.03806]],[[-83.61073,43.0385],[-83.61072,43.03839],[-83.61074,43.03836],[-83.61074,43.03834]],[[-83.61073,43.0385],[-83.61058,43.03853]],[[-83.61058,43.03853],[-83.61057,43.038]],[[-83.61105,43.03877],[-83.61099,43.03875],[-83.61096,43.03873],[-83.61094,43.03871],[-83.61094,43.03866],[-83.61094,43.03862],[-83.61093,43.03859],[-83.6109,43.03857],[-83.61088,43.03855],[-83.61073,43.0385]],[[-83.61105,43.03877],[-83.61105,43.03881],[-83.61107,43.03884],[-83.61105,43.03888]],[[-83.61122,43.03883],[-83.61122,43.03886],[-83.61116,43.03891]],[[-83.61105,43.03888],[-83.61094,43.03888],[-83.61087,43.03889],[-83.61081,43.03891],[-83.61075,43.03892],[-83.61068,43.03893],[-83.6106,43.03894]],[[-83.61116,43.03891],[-83.6111,43.03889],[-83.61105,43.03888]],[[-83.6106,43.03894],[-83.61058,43.03853]],[[-83.61137,43.03895],[-83.6114,43.03893],[-83.61141,43.03889],[-83.61139,43.03885],[-83.61136,43.03882],[-83.61132,43.03881],[-83.61129,43.03883],[-83.61125,43.03883],[-83.61119,43.03882],[-83.61115,43.0388],[-83.6111,43.03878],[-83.61105,43.03877]],[[-83.61137,43.03895],[-83.61132,43.03897],[-83.61126,43.03897],[-83.61121,43.03896],[-83.61116,43.03891]],[[-83.60598,43.03895],[-83.60622,43.03905],[-83.60631,43.0391],[-83.6064,43.03912],[-83.60703,43.03947],[-83.60713,43.03953],[-83.60718,43.03955],[-83.60722,43.03957],[-83.60726,43.03957]],[[-83.61135,43.0391],[-83.6114,43.039],[-83.61137,43.03895]],[[-83.60923,43.03916],[-83.60945,43.03914]],[[-83.60923,43.03916],[-83.60907,43.03907],[-83.60898,43.03899],[-83.60893,43.03888],[-83.60889,43.03874],[-83.60882,43.03863],[-83.60873,43.0385],[-83.60851,43.03836],[-83.60824,43.03828]],[[-83.61072,43.03942],[-83.61068,43.03916],[-83.61061,43.03907],[-83.6106,43.03894]],[[-83.61072,43.03942],[-83.61062,43.03938],[-83.61051,43.03936],[-83.61042,43.03936],[-83.61037,43.03935],[-83.61033,43.03935],[-83.61027,43.03934],[-83.61024,43.03934],[-83.6102,43.03934],[-83.61016,43.03935],[-83.61006,43.03938],[-83.61001,43.0394],[-83.60996,43.03939],[-83.60994,43.03939],[-83.60986,43.03936],[-83.60983,43.03935],[-83.6098,43.03933],[-83.60979,43.0393]],[[-83.60726,43.03957],[-83.60733,43.03955],[-83.60737,43.03956],[-83.60742,43.03956],[-83.60745,43.03958],[-83.60749,43.03961],[-83.60752,43.03967],[-83.60754,43.03972],[-83.6076,43.03974],[-83.60768,43.03973],[-83.60774,43.03973],[-83.60778,43.03971]],[[-83.60726,43.03957],[-83.60726,43.03963],[-83.60728,43.03973],[-83.60716,43.04014],[-83.60718,43.04022],[-83.60719,43.04035]],[[-83.60778,43.03971],[-83.60781,43.03966],[-83.60795,43.03951],[-83.60803,43.03951],[-83.60807,43.0395],[-83.60813,43.03947],[-83.60814,43.03943]],[[-83.61081,43.04011],[-83.61082,43.04008],[-83.61078,43.03987],[-83.61078,43.03983],[-83.61074,43.03957],[-83.61072,43.03942]],[[-83.61081,43.04011],[-83.61074,43.04024],[-83.6106,43.0403],[-83.61063,43.0405]],[[-83.61382,43.04029],[-83.61371,43.04031]],[[-83.61371,43.04031],[-83.61352,43.04033],[-83.61321,43.04035],[-83.61299,43.04035],[-83.61204,43.04036],[-83.61102,43.04037],[-83.61089,43.04034],[-83.61084,43.04033]],[[-83.61371,43.04031],[-83.61374,43.04035],[-83.61376,43.04044],[-83.61373,43.04054],[-83.61371,43.04063],[-83.61373,43.04073],[-83.61372,43.04083],[-83.6137,43.04096],[-83.61367,43.04108],[-83.61362,43.04121],[-83.61357,43.0414],[-83.61352,43.04143],[-83.61346,43.04151],[-83.61336,43.0416],[-83.61325,43.04168],[-83.61315,43.04176]],[[-83.61084,43.04033],[-83.61081,43.04011]],[[-83.61084,43.04033],[-83.61077,43.04043],[-83.61063,43.0405]],[[-83.61538,43.04038],[-83.61506,43.04038],[-83.61481,43.04037],[-83.61465,43.04035],[-83.6145,43.04024],[-83.61435,43.04016],[-83.61424,43.04015],[-83.61408,43.04017],[-83.61396,43.04022],[-83.61382,43.04029]],[[-83.60719,43.04035],[-83.60725,43.04037],[-83.60728,43.04038],[-83.60735,43.04045],[-83.60736,43.04052],[-83.60733,43.04056],[-83.60727,43.04061]],[[-83.614,43.04044],[-83.61382,43.04029]],[[-83.60608,43.04044],[-83.60603,43.04035],[-83.60601,43.04029],[-83.60601,43.04008],[-83.60602,43.03978],[-83.60602,43.0397],[-83.60601,43.03962],[-83.60598,43.03895]],[[-83.61063,43.0405],[-83.61063,43.0405],[-83.61048,43.04057]],[[-83.61063,43.0405],[-83.61048,43.04057]],[[-83.61048,43.04057],[-83.61043,43.04067],[-83.61038,43.0408],[-83.61029,43.04101],[-83.61009,43.04118],[-83.60986,43.04132],[-83.6097,43.04143]],[[-83.6052,43.04058],[-83.6052,43.0405],[-83.6053,43.04048],[-83.60572,43.0405],[-83.60606,43.04045],[-83.60612,43.04044],[-83.60637,43.04045],[-83.60654,43.04043],[-83.60669,43.04044],[-83.60689,43.04042],[-83.60707,43.04041],[-83.60719,43.04035]],[[-83.60341,43.04057],[-83.60331,43.04037],[-83.6033,43.03957],[-83.60325,43.038],[-83.60324,43.03773],[-83.60331,43.03767],[-83.60339,43.03766],[-83.60353,43.03765],[-83.60384,43.03768],[-83.60434,43.03766],[-83.60471,43.03766],[-83.60488,43.03768],[-83.60502,43.03777],[-83.60512,43.03787]],[[-83.60727,43.04061],[-83.60726,43.04064],[-83.60717,43.0407],[-83.60708,43.04075],[-83.60704,43.04078],[-83.607,43.04082],[-83.60697,43.04086],[-83.60692,43.04091],[-83.60682,43.041],[-83.60674,43.04106],[-83.60663,43.04111],[-83.60637,43.04114],[-83.60621,43.04115],[-83.60606,43.04114],[-83.60597,43.04114],[-83.60591,43.04116]],[[-83.60526,43.04062],[-83.60541,43.0406],[-83.60556,43.0406],[-83.60582,43.04061],[-83.60598,43.0406],[-83.60611,43.0406],[-83.60628,43.04061],[-83.60639,43.04061],[-83.6066,43.04058],[-83.60672,43.04056],[-83.6069,43.04058],[-83.60711,43.04058],[-83.60727,43.04061]],[[-83.60526,43.04062],[-83.6052,43.04058]],[[-83.60901,43.04102],[-83.60901,43.04098],[-83.609,43.04094],[-83.60893,43.04089],[-83.60892,43.04086],[-83.60891,43.04083],[-83.60887,43.04079],[-83.60886,43.04074],[-83.60889,43.04066],[-83.60886,43.04057],[-83.60887,43.04053],[-83.60893,43.04048],[-83.60896,43.04046],[-83.60898,43.04042],[-83.60898,43.04038],[-83.60901,43.04035],[-83.60906,43.04032],[-83.60911,43.0403],[-83.60914,43.04027],[-83.60913,43.04023],[-83.60904,43.04018],[-83.60894,43.04015],[-83.60891,43.04013],[-83.60887,43.04006],[-83.60882,43.04002],[-83.6086,43.04002],[-83.60855,43.04],[-83.60849,43.04],[-83.60836,43.04002],[-83.6083,43.04001],[-83.60826,43.03998],[-83.60818,43.03993],[-83.60806,43.03986],[-83.60802,43.03981],[-83.60792,43.0398],[-83.60778,43.03971]],[[-83.6082,43.04117],[-83.60809,43.0412]],[[-83.60591,43.04116],[-83.60581,43.04107],[-83.60565,43.04095],[-83.60554,43.04084],[-83.60545,43.04076],[-83.60543,43.04072],[-83.60526,43.04062]],[[-83.60591,43.04116],[-83.60586,43.04123],[-83.60582,43.04129],[-83.60577,43.04134],[-83.60573,43.04138],[-83.6056,43.0414],[-83.60536,43.04143],[-83.60514,43.04144],[-83.60503,43.04148],[-83.605,43.0415],[-83.60489,43.04152],[-83.6048,43.04155],[-83.60466,43.04161],[-83.60453,43.04177],[-83.60448,43.04182],[-83.60439,43.04191],[-83.60423,43.04198],[-83.60416,43.042],[-83.60403,43.04204],[-83.60387,43.04209],[-83.60375,43.04212],[-83.60366,43.04214],[-83.60337,43.04218]],[[-83.60809,43.0412],[-83.60794,43.04117],[-83.60792,43.04117],[-83.60785,43.04118],[-83.6077,43.04121],[-83.60752,43.04125],[-83.60742,43.04127],[-83.60719,43.04131],[-83.60694,43.04134],[-83.60677,43.04145],[-83.60669,43.04159]],[[-83.60811,43.04124],[-83.6082,43.04117]],[[-83.60811,43.04124],[-83.60809,43.0412]],[[-83.6097,43.04143],[-83.60962,43.04148]],[[-83.60962,43.04148],[-83.60928,43.0413],[-83.6092,43.04114],[-83.60916,43.0411],[-83.60907,43.04105],[-83.60895,43.04102],[-83.6089,43.04106],[-83.60888,43.04107],[-83.6088,43.04106],[-83.60876,43.04106],[-83.60869,43.04103],[-83.60858,43.04105],[-83.60851,43.04106],[-83.60843,43.0411],[-83.60832,43.04114],[-83.6082,43.04117]],[[-83.60962,43.04148],[-83.6096,43.04155],[-83.60945,43.04159],[-83.60931,43.04165],[-83.60916,43.04179],[-83.60921,43.04193],[-83.60931,43.042],[-83.60943,43.04203],[-83.60967,43.04211],[-83.60978,43.04208],[-83.60997,43.04209],[-83.61003,43.0421],[-83.61016,43.04215],[-83.61021,43.04214],[-83.61033,43.04212],[-83.61048,43.0421],[-83.61059,43.04204],[-83.61065,43.042],[-83.61068,43.04194],[-83.61068,43.0419],[-83.61063,43.04188],[-83.61052,43.04182],[-83.61048,43.04172],[-83.61051,43.0417],[-83.6106,43.0417],[-83.6108,43.04168],[-83.61095,43.04166],[-83.61118,43.04159],[-83.6113,43.0415],[-83.61142,43.04141],[-83.61152,43.04135],[-83.6117,43.04128],[-83.61193,43.04123],[-83.61228,43.04125],[-83.61247,43.04131],[-83.61254,43.04133],[-83.61266,43.04135],[-83.61272,43.04136],[-83.61278,43.04134],[-83.61288,43.04132],[-83.61297,43.04126],[-83.613,43.04123],[-83.61304,43.04119],[-83.61313,43.04121],[-83.61317,43.04125],[-83.61321,43.04129],[-83.6132,43.04133],[-83.61317,43.04138],[-83.61312,43.04144],[-83.61306,43.0415],[-83.61304,43.04153],[-83.613,43.04157],[-83.61294,43.04162],[-83.61286,43.04169],[-83.61284,43.04171]],[[-83.60669,43.04159],[-83.60655,43.04159],[-83.60646,43.04154],[-83.60617,43.04138],[-83.60601,43.04125],[-83.60591,43.04116]],[[-83.60669,43.04159],[-83.60673,43.04178],[-83.60674,43.04189],[-83.60669,43.04204],[-83.60657,43.04233],[-83.6064,43.04262],[-83.60625,43.04294]],[[-83.61284,43.04171],[-83.61287,43.04174],[-83.61294,43.04177],[-83.61308,43.04176],[-83.61315,43.04176]],[[-83.61284,43.04171],[-83.61276,43.04174],[-83.61271,43.04178],[-83.61263,43.04197],[-83.61262,43.04204],[-83.61261,43.04209],[-83.61259,43.04212],[-83.61256,43.04218],[-83.61254,43.04222],[-83.61253,43.04228],[-83.61248,43.04233],[-83.61243,43.04236],[-83.61239,43.04239],[-83.61235,43.04243],[-83.61232,43.04248],[-83.61229,43.04253],[-83.61223,43.04256],[-83.61215,43.04261],[-83.61206,43.04267],[-83.61201,43.04271],[-83.612,43.04275],[-83.61202,43.04278],[-83.6121,43.04279],[-83.61216,43.04279],[-83.61226,43.04279],[-83.61233,43.04283],[-83.61237,43.04287],[-83.61241,43.04293],[-83.61245,43.043]],[[-83.61048,43.04169],[-83.61029,43.04165],[-83.6101,43.0416],[-83.60998,43.04157],[-83.60983,43.04154],[-83.6097,43.04143]],[[-83.61315,43.04176],[-83.61316,43.04197],[-83.61319,43.04205],[-83.61326,43.04214],[-83.61337,43.0422],[-83.61349,43.04225],[-83.61362,43.04231],[-83.61368,43.04233],[-83.61378,43.04235],[-83.61382,43.04235]],[[-83.60219,43.04177],[-83.60192,43.04175],[-83.60184,43.04173],[-83.60173,43.04166],[-83.60166,43.04165],[-83.60158,43.04166],[-83.60148,43.04165],[-83.60142,43.04164],[-83.60136,43.0416],[-83.60132,43.04156],[-83.60125,43.04138],[-83.60125,43.04134],[-83.60128,43.04129],[-83.60132,43.04126],[-83.60141,43.04122],[-83.60146,43.04118],[-83.60151,43.04112],[-83.60158,43.04104],[-83.60165,43.04097],[-83.60171,43.04093],[-83.60176,43.04092],[-83.60183,43.04095],[-83.60189,43.04098],[-83.60196,43.04108],[-83.60199,43.04113],[-83.60196,43.0412],[-83.60189,43.04124],[-83.60184,43.04129],[-83.60184,43.04132],[-83.60187,43.04138],[-83.60192,43.0415],[-83.60195,43.04155],[-83.60201,43.0416],[-83.6021,43.04165],[-83.60216,43.04168],[-83.60218,43.04172],[-83.60219,43.04177]],[[-83.60333,43.04179],[-83.6034,43.04166],[-83.6034,43.04155],[-83.60338,43.04149],[-83.60335,43.04143],[-83.60335,43.04136],[-83.60336,43.04127],[-83.60336,43.04122],[-83.60335,43.04116],[-83.60333,43.04103],[-83.60332,43.04093],[-83.60333,43.04086],[-83.60337,43.04076],[-83.60341,43.04071],[-83.60347,43.0407],[-83.60357,43.04071],[-83.60368,43.04074],[-83.60378,43.04078],[-83.60387,43.04078],[-83.60396,43.04074],[-83.60415,43.04071],[-83.60433,43.04075],[-83.60441,43.04077],[-83.6045,43.04077],[-83.60458,43.04074],[-83.60465,43.04071],[-83.60477,43.04073],[-83.60484,43.04076],[-83.60494,43.04075],[-83.60506,43.04066],[-83.6052,43.04058]],[[-83.60333,43.04179],[-83.60336,43.04197],[-83.60336,43.042],[-83.60335,43.0421],[-83.60337,43.04218]],[[-83.61386,43.04192],[-83.61385,43.04186],[-83.61387,43.04176],[-83.6139,43.04162],[-83.61391,43.04147],[-83.61391,43.0413],[-83.61394,43.04115],[-83.61398,43.04095],[-83.61398,43.04085],[-83.61397,43.04071],[-83.61398,43.04054],[-83.614,43.04044]],[[-83.61386,43.04192],[-83.61392,43.04193],[-83.61399,43.04197],[-83.61405,43.04203],[-83.61412,43.04211],[-83.61416,43.0422],[-83.61423,43.04237]],[[-83.60337,43.04218],[-83.60337,43.04219]],[[-83.60337,43.04219],[-83.60336,43.04225],[-83.60336,43.04227],[-83.60337,43.04229],[-83.6034,43.04234],[-83.60341,43.04236]],[[-83.60337,43.04219],[-83.60325,43.0422],[-83.60318,43.04219],[-83.60311,43.04228],[-83.60304,43.04243],[-83.60291,43.04244],[-83.60275,43.04246],[-83.60262,43.04246],[-83.60246,43.04242],[-83.60227,43.0424],[-83.60206,43.04244],[-83.60189,43.0425],[-83.60179,43.04259],[-83.60178,43.0426],[-83.6017,43.04259]],[[-83.61382,43.04235],[-83.61385,43.04219],[-83.61387,43.04205],[-83.61387,43.04196],[-83.61386,43.04192]],[[-83.61382,43.04235],[-83.61394,43.04236],[-83.61402,43.04236],[-83.61413,43.0424]],[[-83.61423,43.04237],[-83.61433,43.04233],[-83.61459,43.04224],[-83.61507,43.04207],[-83.61534,43.04195],[-83.61545,43.04185],[-83.61548,43.04179],[-83.6155,43.04167],[-83.61547,43.04102],[-83.61545,43.04098],[-83.61539,43.04096],[-83.61528,43.04094],[-83.61523,43.04091],[-83.61518,43.04084],[-83.61508,43.04077],[-83.61504,43.04075],[-83.61502,43.04075],[-83.61485,43.04076],[-83.61464,43.04077],[-83.61449,43.04076],[-83.61437,43.0407],[-83.614,43.04044]],[[-83.61413,43.0424],[-83.61423,43.04237]],[[-83.60341,43.04236],[-83.60348,43.0424],[-83.60359,43.04253],[-83.60368,43.04273],[-83.60371,43.04277],[-83.60445,43.04289],[-83.60458,43.04292],[-83.6047,43.04292],[-83.60476,43.04295],[-83.60496,43.043],[-83.6053,43.04306],[-83.6055,43.04309],[-83.60585,43.04316],[-83.60615,43.04319]],[[-83.60341,43.04236],[-83.6034,43.04245],[-83.60339,43.04254],[-83.60343,43.04279],[-83.60342,43.04316],[-83.60346,43.04399],[-83.60346,43.04407],[-83.60352,43.04415]],[[-83.6017,43.04259],[-83.60164,43.04259],[-83.60159,43.04257],[-83.60151,43.04256],[-83.6014,43.04255],[-83.60132,43.04254],[-83.60123,43.04253],[-83.60114,43.04251],[-83.60109,43.04253],[-83.60097,43.0426]],[[-83.60097,43.0426],[-83.60091,43.04255],[-83.60089,43.0425],[-83.60089,43.04233],[-83.6009,43.04209],[-83.60092,43.04203],[-83.60099,43.042],[-83.60112,43.04201],[-83.60123,43.04202],[-83.60139,43.042],[-83.60151,43.04199],[-83.60171,43.04198],[-83.60181,43.042],[-83.60199,43.04202],[-83.60212,43.04198],[-83.60223,43.04192],[-83.60225,43.04182],[-83.60219,43.04177]],[[-83.60625,43.04294],[-83.60619,43.04292],[-83.60611,43.04292],[-83.60617,43.04276],[-83.60623,43.04256],[-83.60634,43.0423],[-83.60634,43.04217],[-83.6063,43.04203],[-83.60615,43.04193],[-83.6059,43.04189],[-83.60538,43.04187],[-83.60515,43.04188],[-83.60501,43.04189],[-83.60486,43.04196],[-83.60471,43.04206],[-83.60456,43.04212],[-83.60437,43.04216],[-83.6042,43.04219],[-83.60413,43.0422],[-83.60387,43.04223],[-83.60356,43.04229],[-83.60341,43.04236]],[[-83.60625,43.04294],[-83.60615,43.04319]],[[-83.61245,43.043],[-83.61268,43.04299],[-83.61299,43.043],[-83.61333,43.043],[-83.61355,43.04297],[-83.61369,43.0429],[-83.61382,43.04279],[-83.61392,43.04266]],[[-83.61245,43.043],[-83.61245,43.04305],[-83.61245,43.04311],[-83.61242,43.04315],[-83.6124,43.04318],[-83.61241,43.04321],[-83.61244,43.04326],[-83.61244,43.04332],[-83.61239,43.04343],[-83.61239,43.04347],[-83.61245,43.04354],[-83.61248,43.04357],[-83.61254,43.0436],[-83.61256,43.04361],[-83.61265,43.04362],[-83.61269,43.04365],[-83.61276,43.04367],[-83.61282,43.04365],[-83.6129,43.04363],[-83.61299,43.04363],[-83.61311,43.04364],[-83.61329,43.04364],[-83.61339,43.04365],[-83.61345,43.04364],[-83.6135,43.04357],[-83.6135,43.04353],[-83.6135,43.04349],[-83.6135,43.04344],[-83.61353,43.0434],[-83.61356,43.04332],[-83.61357,43.0433],[-83.61365,43.04324],[-83.61374,43.0432],[-83.61385,43.04314],[-83.61392,43.04308],[-83.61394,43.04297],[-83.61396,43.04289],[-83.61396,43.04277],[-83.61395,43.04273],[-83.61393,43.04265],[-83.61413,43.0424]],[[-83.61064,43.04309],[-83.61118,43.04308]],[[-83.61064,43.04309],[-83.61064,43.04302],[-83.61061,43.04292],[-83.61061,43.0429],[-83.61057,43.04284],[-83.61039,43.04275],[-83.61032,43.04272],[-83.61024,43.04269],[-83.60983,43.04254],[-83.60949,43.04245],[-83.6091,43.04241],[-83.60902,43.04242],[-83.60896,43.04244],[-83.60892,43.0425],[-83.6089,43.04253],[-83.60885,43.04258],[-83.60878,43.04257],[-83.60874,43.04254],[-83.60872,43.04253],[-83.60867,43.04247],[-83.60862,43.04239],[-83.6086,43.04234],[-83.60862,43.04228],[-83.60865,43.04223],[-83.60868,43.04215],[-83.60866,43.04203],[-83.60856,43.04189],[-83.6084,43.04173],[-83.60831,43.04164],[-83.60823,43.04153],[-83.6082,43.04146],[-83.60817,43.04139],[-83.60814,43.04132],[-83.60811,43.04124]],[[-83.60615,43.04319],[-83.6063,43.0432],[-83.60648,43.0432],[-83.60669,43.0432],[-83.60687,43.04318],[-83.60958,43.04313],[-83.61019,43.04312],[-83.61034,43.04311],[-83.61053,43.0431],[-83.61064,43.04309]],[[-83.60615,43.04319],[-83.60611,43.04332],[-83.60607,43.04348],[-83.60601,43.0437],[-83.60595,43.04387],[-83.60587,43.04402]],[[-83.60835,43.04402],[-83.60837,43.04479],[-83.6084,43.04584],[-83.60843,43.04672],[-83.60843,43.04719],[-83.60842,43.04756],[-83.60839,43.04759],[-83.6083,43.0476],[-83.60614,43.04762],[-83.60355,43.04765],[-83.60355,43.04755],[-83.60355,43.04711],[-83.60355,43.04711]],[[-83.60587,43.04402],[-83.60604,43.04404],[-83.6061,43.04404],[-83.60617,43.04405],[-83.60631,43.04406],[-83.60639,43.04406],[-83.60663,43.04407],[-83.60683,43.04407],[-83.60708,43.04407],[-83.6072,43.04406],[-83.60726,43.04405],[-83.60762,43.04404],[-83.60783,43.04406],[-83.60814,43.04405],[-83.60827,43.04404],[-83.60837,43.04401],[-83.60844,43.044],[-83.60854,43.04402],[-83.60901,43.04402],[-83.60989,43.044],[-83.61013,43.04399],[-83.61027,43.04398],[-83.61037,43.04397],[-83.61044,43.04397],[-83.61047,43.04397],[-83.61054,43.04396],[-83.61061,43.04393],[-83.61067,43.04386],[-83.61068,43.04381],[-83.61069,43.04377],[-83.6107,43.0437],[-83.61069,43.04362],[-83.61068,43.04353],[-83.61067,43.04342],[-83.61066,43.04331],[-83.61066,43.04324],[-83.61065,43.04312],[-83.61064,43.04309]],[[-83.60352,43.04415],[-83.60375,43.04413],[-83.60403,43.04411],[-83.60433,43.0441],[-83.60456,43.04412],[-83.60487,43.04411],[-83.60521,43.04409],[-83.60552,43.04406],[-83.60559,43.04406],[-83.60578,43.04407],[-83.60587,43.04402]],[[-83.60202,43.04439],[-83.60201,43.04433],[-83.60199,43.04429],[-83.60194,43.04425],[-83.60196,43.04419],[-83.60193,43.04412],[-83.60192,43.04388],[-83.60183,43.04377],[-83.60175,43.04373],[-83.60172,43.04364],[-83.60156,43.04343],[-83.60158,43.04337],[-83.60163,43.04321],[-83.60163,43.0432],[-83.6017,43.04311],[-83.60174,43.043],[-83.60171,43.04292],[-83.60165,43.04283],[-83.60165,43.0427],[-83.60166,43.04263],[-83.6017,43.04259]],[[-83.60202,43.04439],[-83.60216,43.04438],[-83.60224,43.04442],[-83.60236,43.04445],[-83.60245,43.04443],[-83.60254,43.0444],[-83.6027,43.04439],[-83.60285,43.04435],[-83.60299,43.04428],[-83.60309,43.04425]],[[-83.60097,43.04454],[-83.60093,43.04378],[-83.60094,43.04371],[-83.601,43.04361],[-83.60105,43.04348],[-83.60107,43.04337],[-83.60109,43.04329],[-83.6011,43.04309],[-83.60106,43.04302],[-83.60102,43.04295],[-83.60102,43.04276],[-83.60101,43.04268],[-83.60097,43.0426]],[[-83.60097,43.04454],[-83.60105,43.04457],[-83.60202,43.04457],[-83.60206,43.04458]],[[-83.60206,43.04458],[-83.60202,43.04454],[-83.60201,43.04449],[-83.60203,43.04444],[-83.60202,43.04439]],[[-83.60206,43.04458],[-83.60215,43.04461],[-83.60225,43.04462],[-83.60238,43.0446],[-83.60244,43.04458],[-83.60256,43.04457],[-83.60274,43.04457],[-83.60284,43.04457],[-83.60304,43.04456],[-83.60319,43.04458],[-83.60327,43.04457]],[[-83.60236,43.04663],[-83.60224,43.04656],[-83.60216,43.04648],[-83.60214,43.04625],[-83.60214,43.04602],[-83.60212,43.04586],[-83.60211,43.04577],[-83.6021,43.0457],[-83.60213,43.04563],[-83.60213,43.0455],[-83.60212,43.04543],[-83.60211,43.04534],[-83.60211,43.04522],[-83.6021,43.04516],[-83.6021,43.04514],[-83.60208,43.04494],[-83.60206,43.04464],[-83.60206,43.04458]],[[-83.60355,43.04711],[-83.60353,43.04616],[-83.60357,43.04609],[-83.60352,43.04604],[-83.60353,43.04574],[-83.60354,43.04555],[-83.60353,43.04527],[-83.6035,43.04498],[-83.60348,43.04476],[-83.60348,43.0446],[-83.60349,43.04441],[-83.60348,43.04428],[-83.60348,43.0442],[-83.60352,43.04415]],[[-83.60355,43.04711],[-83.60316,43.0471],[-83.60309,43.0471],[-83.603,43.04708],[-83.60284,43.04707],[-83.60272,43.04707],[-83.60251,43.04705],[-83.60236,43.04706],[-83.60224,43.04704],[-83.60198,43.04705],[-83.60171,43.04701],[-83.60142,43.04693],[-83.60122,43.04684],[-83.60104,43.04665],[-83.601,43.0457],[-83.60098,43.04539],[-83.60098,43.04525],[-83.60097,43.04454]],[[-83.60355,43.04714],[-83.60355,43.04711]]]}},{"type":"Feature","properties":{"name":"Genesee Road Sidewalk","status":"Existing","_color":"#2e7d32","_weight":4,"_dashArray":null,"_popupRows":[["Status","Existing"],["Type","Sidewalk"],["Surface","Concrete"],["In Burton","0.47 mi"]]},"geometry":{"type":"LineString","coordinates":[[-83.6154,43.03305],[-83.61525,43.02621]]}},{"type":"Feature","properties":{"name":"Burton Iron Belle Trail","status":"Programmed","_color":"#1565c0","_weight":3,"_dashArray":"6 6","_popupRows":[["Status","Programmed"],["Type","Multi-Use Facility"],["Surface","Asphalt"],["In Burton","1.85 mi"]]},"geometry":{"type":"LineString","coordinates":[[-83.66452,42.98182],[-83.66442,42.98169],[-83.66363,42.98091],[-83.6622,42.97958],[-83.66142,42.97881],[-83.66017,42.97758],[-83.65879,42.97622],[-83.6575,42.97497],[-83.65685,42.97433],[-83.65581,42.97331],[-83.65448,42.97204],[-83.65369,42.97121],[-83.65312,42.97062],[-83.65623,42.96957],[-83.65615,42.96616],[-83.65569,42.96593],[-83.65532,42.96574],[-83.655,42.96549],[-83.65471,42.96524],[-83.65451,42.96447],[-83.65478,42.96379],[-83.65517,42.96336],[-83.65523,42.96279],[-83.65492,42.96227],[-83.65421,42.96188],[-83.65419,42.96023]]}},{"type":"Feature","properties":{"name":"Davison Road Trail","status":"Programmed","_color":"#1565c0","_weight":3,"_dashArray":"6 6","_popupRows":[["Status","Programmed"],["Type","Sidewalk"],["Surface","Concrete"],["In Burton","0.97 mi"]]},"geometry":{"type":"LineString","coordinates":[[-83.61541,43.03305],[-83.6154,43.03305],[-83.60491,43.03331],[-83.59615,43.03363]]}},{"type":"Feature","properties":{"name":"Genesee Road Sidewalk","status":"Under Construction","_color":"#e08a00","_weight":3,"_dashArray":"6 6","_popupRows":[["Status","Under Construction"],["Type","Sidewalk"],["Surface","Concrete"],["In Burton","0.99 mi"]]},"geometry":{"type":"MultiLineString","coordinates":[[[-83.61507,43.01871],[-83.61524,43.0259],[-83.61525,43.02621]],[[-83.61566,43.03982],[-83.61558,43.03778],[-83.6154,43.03305],[-83.6154,43.03305]]]}},{"type":"Feature","properties":{"name":"Grand Blanc Iron Belle Phase A","status":"Programmed","_color":"#1565c0","_weight":3,"_dashArray":"6 6","_popupRows":[["Status","Programmed"],["Type","Multi-Use Facility"],["Surface","Asphalt"],["In Burton","0.23 mi"]]},"geometry":{"type":"LineString","coordinates":[[-83.65126,42.94457],[-83.65056,42.94459],[-83.65049,42.94459],[-83.64558,42.94474],[-83.64256,42.94483],[-83.64955,42.96029],[-83.65419,42.96023]]}}]}
