{"type":"FeatureCollection","_source":"MTA Flint GTFS static feed (mtaflint.org). Routes whose path passes through the City of Burton; line colors are the agency's published route colors.","features":[{"type":"Feature","properties":{"name":"Route 8 - South Saginaw","route":"8","_color":"#11845D","url":"https://flint.connexionz.net/RTT/Public/Schedule.aspx?RouteNo=8"},"geometry":{"type":"LineString","coordinates":[[-83.64128,42.89293],[-83.64135,42.89275],[-83.64136,42.89271],[-83.64136,42.89266],[-83.64136,42.89259],[-83.64136,42.89254],[-83.64134,42.89248],[-83.64133,42.89244],[-83.64131,42.8924],[-83.64129,42.89237],[-83.64128,42.89236],[-83.64124,42.89231],[-83.64119,42.89226],[-83.64112,42.89221],[-83.64097,42.89213],[-83.64061,42.89191],[-83.64045,42.8918],[-83.64031,42.8917],[-83.64015,42.89158],[-83.64003,42.89149],[-83.63995,42.89144],[-83.63985,42.89139],[-83.63972,42.89135],[-83.63961,42.89131],[-83.63951,42.89129],[-83.6394,42.89128],[-83.63929,42.89127],[-83.63919,42.89127],[-83.63899,42.89129],[-83.63882,42.89132],[-83.63893,42.89253],[-83.63892,42.89321],[-83.63865,42.89321],[-83.63787,42.8932],[-83.63763,42.89319],[-83.63743,42.89317],[-83.63721,42.89312],[-83.637,42.89306],[-83.6368,42.89296],[-83.63664,42.89286],[-83.63649,42.89275],[-83.63634,42.89263],[-83.63599,42.89222],[-83.63586,42.89211],[-83.63573,42.89202],[-83.63561,42.89195],[-83.63547,42.89189],[-83.63533,42.89184],[-83.63519,42.8918],[-83.63505,42.89178],[-83.63488,42.89176],[-83.63473,42.89176],[-83.63456,42.89176],[-83.63438,42.89178],[-83.63397,42.89185],[-83.63375,42.89188],[-83.6336,42.89189],[-83.63324,42.89191],[-83.63307,42.89193],[-83.6329,42.89195],[-83.63276,42.89198],[-83.63258,42.89201],[-83.63245,42.89204],[-83.6317,42.89224],[-83.63177,42.89239],[-83.63217,42.89322],[-83.63225,42.89342],[-83.63232,42.89359],[-83.63237,42.89375],[-83.63242,42.89394],[-83.63245,42.89402],[-83.63254,42.89444],[-83.63255,42.89453],[-83.63256,42.8946],[-83.63256,42.89491],[-83.63255,42.89516],[-83.63248,42.89562],[-83.63239,42.89601],[-83.6323,42.89628],[-83.63215,42.89664],[-83.63206,42.89689],[-83.63203,42.89694],[-83.63197,42.8971],[-83.63162,42.89792],[-83.63144,42.89836],[-83.63129,42.89878],[-83.63104,42.89946],[-83.63097,42.89966],[-83.63089,42.89988],[-83.6308,42.90015],[-83.63066,42.90055],[-83.63054,42.90089],[-83.63034,42.90148],[-83.63023,42.90185],[-83.63011,42.90215],[-83.63004,42.90232],[-83.62995,42.90246],[-83.62984,42.90262],[-83.6298,42.90267],[-83.62956,42.90295],[-83.62927,42.90333],[-83.62912,42.90354],[-83.62905,42.90364],[-83.62899,42.90376],[-83.62892,42.9039],[-83.62887,42.90404],[-83.62882,42.90422],[-83.62876,42.90462],[-83.62868,42.90507],[-83.62864,42.90534],[-83.62856,42.90588],[-83.62851,42.90622],[-83.62846,42.9065],[-83.62842,42.90662],[-83.62837,42.90679],[-83.62835,42.90686],[-83.62826,42.90714],[-83.62819,42.90728],[-83.62798,42.9077],[-83.6279,42.90783],[-83.62778,42.90805],[-83.62747,42.90844],[-83.62737,42.90854],[-83.62707,42.90887],[-83.62689,42.90904],[-83.62668,42.90923],[-83.62618,42.90964],[-83.62578,42.90997],[-83.62561,42.9101],[-83.62517,42.91046],[-83.62489,42.91071],[-83.62472,42.91089],[-83.62456,42.9111],[-83.62444,42.91125],[-83.62434,42.9114],[-83.62404,42.91184],[-83.62363,42.91251],[-83.62323,42.9132],[-83.62299,42.91362],[-83.62261,42.91421],[-83.62229,42.9147],[-83.62214,42.91499],[-83.62204,42.91523],[-83.62195,42.91548],[-83.62189,42.91574],[-83.62188,42.91581],[-83.62184,42.91608],[-83.62186,42.91702],[-83.62186,42.9172],[-83.62187,42.91745],[-83.62186,42.91758],[-83.62188,42.91802],[-83.62189,42.91839],[-83.6219,42.9185],[-83.62191,42.91871],[-83.62192,42.91919],[-83.62195,42.91956],[-83.62197,42.91975],[-83.62199,42.91998],[-83.62199,42.92007],[-83.622,42.92014],[-83.62201,42.92058],[-83.62199,42.92069],[-83.62196,42.92077],[-83.62191,42.92086],[-83.62178,42.92097],[-83.62207,42.92119],[-83.6233,42.92208],[-83.62354,42.92225],[-83.62375,42.92241],[-83.62466,42.92309],[-83.62505,42.92339],[-83.6251,42.92343],[-83.62581,42.92399],[-83.62593,42.92408],[-83.62618,42.92427],[-83.62626,42.92433],[-83.62647,42.92451],[-83.62686,42.92485],[-83.6272,42.92513],[-83.62726,42.92519],[-83.62765,42.92551],[-83.62784,42.92568],[-83.6283,42.92606],[-83.62847,42.92621],[-83.62889,42.92655],[-83.62898,42.92663],[-83.62929,42.92689],[-83.62943,42.927],[-83.62981,42.92732],[-83.63008,42.92755],[-83.63035,42.92777],[-83.6304,42.92782],[-83.63049,42.92789],[-83.6307,42.92806],[-83.63086,42.9282],[-83.63117,42.92846],[-83.63154,42.92877],[-83.63176,42.92895],[-83.63202,42.92916],[-83.63206,42.9292],[-83.63239,42.92948],[-83.63258,42.92963],[-83.63262,42.92967],[-83.63276,42.92978],[-83.63298,42.92995],[-83.63316,42.93011],[-83.63351,42.93039],[-83.63363,42.93048],[-83.63387,42.93068],[-83.63398,42.93078],[-83.63417,42.93094],[-83.63434,42.93109],[-83.63461,42.93132],[-83.63585,42.93235],[-83.63684,42.93317],[-83.63884,42.93482],[-83.63935,42.93525],[-83.63959,42.93545],[-83.6401,42.93587],[-83.64031,42.93605],[-83.64092,42.93655],[-83.64155,42.93708],[-83.64222,42.93765],[-83.64227,42.93769],[-83.64239,42.93778],[-83.64269,42.93803],[-83.64276,42.93809],[-83.64307,42.93835],[-83.64328,42.93852],[-83.64333,42.93856],[-83.64369,42.93886],[-83.64454,42.93957],[-83.64465,42.93966],[-83.64486,42.9396],[-83.64503,42.93948],[-83.64512,42.9394],[-83.64519,42.93926],[-83.64531,42.93916],[-83.64541,42.93921],[-83.64552,42.93926],[-83.64602,42.9397],[-83.64583,42.93985],[-83.6457,42.93993],[-83.6457,42.93998],[-83.64673,42.94082],[-83.64691,42.94072],[-83.64707,42.94085],[-83.64714,42.94088],[-83.64722,42.94088],[-83.64739,42.94085],[-83.64631,42.93994],[-83.64602,42.9397],[-83.64556,42.93929],[-83.64552,42.93926],[-83.64541,42.93921],[-83.64531,42.93916],[-83.64519,42.93926],[-83.64501,42.93933],[-83.64473,42.9395],[-83.64454,42.93957],[-83.64465,42.93966],[-83.64523,42.94014],[-83.64535,42.94024],[-83.64552,42.94038],[-83.64624,42.94098],[-83.64648,42.94118],[-83.64666,42.94133],[-83.64689,42.94152],[-83.64734,42.94191],[-83.64775,42.94224],[-83.64787,42.94234],[-83.6479,42.94237],[-83.64835,42.94273],[-83.64848,42.94284],[-83.64865,42.94298],[-83.64989,42.94402],[-83.6503,42.94436],[-83.65061,42.94461],[-83.65114,42.94505],[-83.6514,42.94527],[-83.65155,42.94539],[-83.65171,42.94553],[-83.65179,42.9456],[-83.65191,42.94569],[-83.6521,42.94586],[-83.65226,42.94601],[-83.65273,42.94644],[-83.65308,42.94677],[-83.65327,42.94695],[-83.65338,42.94707],[-83.65367,42.94734],[-83.65447,42.9481],[-83.65486,42.94847],[-83.65537,42.94896],[-83.65657,42.9501],[-83.65676,42.95028],[-83.65718,42.95068],[-83.65804,42.9515],[-83.65824,42.95169],[-83.65883,42.95225],[-83.65912,42.95253],[-83.65929,42.95269],[-83.65983,42.9532],[-83.66023,42.95357],[-83.66099,42.95428],[-83.66129,42.95455],[-83.66178,42.955],[-83.66219,42.95536],[-83.66291,42.95601],[-83.66298,42.95607],[-83.66383,42.95681],[-83.66428,42.95721],[-83.66454,42.95744],[-83.66466,42.95754],[-83.665,42.95785],[-83.66533,42.95813],[-83.66558,42.95835],[-83.66617,42.95887],[-83.66634,42.95902],[-83.66682,42.95945],[-83.6671,42.9597],[-83.66746,42.96001],[-83.66791,42.96042],[-83.66829,42.96075],[-83.66919,42.96157],[-83.66931,42.96169],[-83.6694,42.96179],[-83.66969,42.96215],[-83.66983,42.96235],[-83.6701,42.96278],[-83.67018,42.96292],[-83.67029,42.96309],[-83.67073,42.96379],[-83.67096,42.96418],[-83.67116,42.96452],[-83.67122,42.96462],[-83.67136,42.96486],[-83.67155,42.96531],[-83.67167,42.96577],[-83.67175,42.96648],[-83.67181,42.96695],[-83.67184,42.9672],[-83.67185,42.96732],[-83.67189,42.96764],[-83.67193,42.96793],[-83.672,42.96865],[-83.67207,42.96935],[-83.67214,42.96992],[-83.67215,42.97007],[-83.67217,42.9702],[-83.67222,42.97061],[-83.67224,42.97077],[-83.6723,42.97135],[-83.67231,42.9715],[-83.67236,42.97187],[-83.67238,42.97197],[-83.67239,42.97205],[-83.67241,42.9722],[-83.67246,42.97264],[-83.67251,42.97297],[-83.67253,42.97315],[-83.67256,42.97345],[-83.67259,42.97371],[-83.6726,42.9738],[-83.67261,42.97392],[-83.67262,42.97401],[-83.67267,42.97442],[-83.67281,42.97502],[-83.6729,42.9754],[-83.67299,42.9758],[-83.67302,42.97593],[-83.67314,42.97644],[-83.67318,42.97664],[-83.67335,42.97736],[-83.67341,42.97762],[-83.6735,42.97799],[-83.67356,42.97826],[-83.67369,42.97881],[-83.67373,42.97898],[-83.67385,42.97951],[-83.67396,42.97997],[-83.67402,42.98022],[-83.67419,42.98093],[-83.67426,42.98121],[-83.67437,42.98166],[-83.67482,42.98358],[-83.67489,42.98387],[-83.67519,42.9851],[-83.67522,42.98525],[-83.67546,42.98626],[-83.67555,42.98663],[-83.67588,42.98798],[-83.67591,42.98812],[-83.67597,42.98838],[-83.67601,42.98852],[-83.67607,42.98877],[-83.6761,42.98894],[-83.67623,42.98945],[-83.6764,42.99031],[-83.67642,42.9904],[-83.67647,42.99064],[-83.6765,42.99078],[-83.67663,42.99134],[-83.67672,42.99175],[-83.67689,42.99239],[-83.67692,42.99251],[-83.67715,42.99336],[-83.67718,42.99348],[-83.67729,42.99399],[-83.67731,42.99405],[-83.67734,42.99415],[-83.67747,42.99474],[-83.6776,42.99538],[-83.67775,42.99603],[-83.67789,42.99655],[-83.67795,42.99682],[-83.67801,42.99708],[-83.67804,42.99725],[-83.67812,42.9976],[-83.67812,42.99773],[-83.67808,42.99803],[-83.67803,42.99833],[-83.67795,42.99889],[-83.67782,42.99967],[-83.67775,43.00019],[-83.67769,43.00048],[-83.67768,43.00058],[-83.67758,43.00123],[-83.67749,43.00175],[-83.67749,43.00182],[-83.67746,43.002],[-83.67745,43.0021],[-83.67743,43.00222],[-83.67744,43.00235],[-83.67747,43.00248],[-83.67752,43.00263],[-83.67759,43.00278],[-83.67766,43.00292],[-83.67783,43.00314],[-83.67803,43.00335],[-83.67828,43.0036],[-83.6788,43.00411],[-83.67903,43.00433],[-83.6797,43.00494],[-83.67998,43.00519],[-83.68043,43.0056],[-83.68112,43.00622],[-83.68148,43.00656],[-83.68195,43.007],[-83.68226,43.00729],[-83.68233,43.00735],[-83.68275,43.00775],[-83.68293,43.00791],[-83.68324,43.00821],[-83.68342,43.00836],[-83.68417,43.00905],[-83.68443,43.00927],[-83.68461,43.00943],[-83.68482,43.00962],[-83.68506,43.00984],[-83.68508,43.00986],[-83.68515,43.00992],[-83.68521,43.00998],[-83.68598,43.01069],[-83.68616,43.01085],[-83.68675,43.01139],[-83.68699,43.0116],[-83.68684,43.01168],[-83.68644,43.01192],[-83.68608,43.01213],[-83.68594,43.01221],[-83.68581,43.01227],[-83.68588,43.01235],[-83.686,43.01248],[-83.68617,43.01269],[-83.68636,43.01293],[-83.68649,43.0131],[-83.68654,43.01317],[-83.68661,43.01326],[-83.68693,43.01364],[-83.68698,43.0137],[-83.68703,43.01376],[-83.68712,43.01385],[-83.68776,43.01458],[-83.68783,43.01467],[-83.68792,43.01478],[-83.68826,43.01517],[-83.68862,43.0156],[-83.68855,43.01563],[-83.68853,43.01564],[-83.68848,43.01566],[-83.68843,43.01568],[-83.68839,43.01567],[-83.68835,43.01566],[-83.6883,43.01565],[-83.68827,43.01565],[-83.68821,43.01564],[-83.68818,43.01564],[-83.68817,43.01564],[-83.68815,43.01564],[-83.68812,43.01565],[-83.68806,43.01568],[-83.68798,43.01572],[-83.6879,43.01575],[-83.68783,43.01579],[-83.68775,43.01582],[-83.68767,43.01586],[-83.68765,43.01587],[-83.68763,43.01588],[-83.68762,43.01589],[-83.6876,43.0159],[-83.6876,43.01591],[-83.68759,43.01592],[-83.68758,43.01595],[-83.68757,43.01599],[-83.68757,43.01602],[-83.68756,43.01605],[-83.68755,43.01608],[-83.68754,43.01609]]}},{"type":"Feature","properties":{"name":"Route 9 - Lapeer Road","route":"9","_color":"#E40079","url":"https://flint.connexionz.net/RTT/Public/Schedule.aspx?RouteNo=9"},"geometry":{"type":"LineString","coordinates":[[-83.68709,43.01564],[-83.68734,43.01553],[-83.68738,43.01552],[-83.68745,43.01548],[-83.68752,43.01545],[-83.6876,43.01541],[-83.68768,43.01538],[-83.68775,43.01535],[-83.68784,43.01531],[-83.68804,43.01521],[-83.68807,43.0152],[-83.6881,43.01519],[-83.6882,43.01518],[-83.68826,43.01517],[-83.68847,43.01541],[-83.68854,43.0155],[-83.68862,43.0156],[-83.68855,43.01563],[-83.68848,43.01566],[-83.68843,43.01568],[-83.68798,43.01588],[-83.68755,43.01608],[-83.68745,43.01613],[-83.68736,43.01617],[-83.68726,43.01622],[-83.68702,43.01633],[-83.6869,43.01638],[-83.68636,43.01663],[-83.68609,43.01675],[-83.68566,43.01695],[-83.68514,43.01718],[-83.68496,43.01727],[-83.68481,43.01734],[-83.68433,43.01668],[-83.68415,43.01644],[-83.68409,43.01638],[-83.68402,43.0163],[-83.68389,43.01613],[-83.68375,43.01591],[-83.68366,43.01577],[-83.68353,43.01557],[-83.68349,43.01549],[-83.6834,43.01531],[-83.68334,43.01518],[-83.68317,43.01483],[-83.6831,43.01473],[-83.68279,43.01425],[-83.68245,43.01376],[-83.68228,43.01385],[-83.68157,43.01417],[-83.68154,43.01419],[-83.68134,43.01428],[-83.68098,43.01455],[-83.68079,43.01464],[-83.6807,43.01467],[-83.6806,43.0147],[-83.68056,43.01471],[-83.68048,43.01473],[-83.68042,43.01474],[-83.68033,43.01474],[-83.68024,43.01474],[-83.67989,43.01431],[-83.67983,43.01423],[-83.67976,43.01416],[-83.6797,43.01409],[-83.67958,43.01399],[-83.67955,43.01397],[-83.67946,43.01391],[-83.679,43.01364],[-83.67857,43.01341],[-83.67771,43.01292],[-83.67692,43.01248],[-83.67687,43.01244],[-83.67664,43.01232],[-83.67606,43.01199],[-83.67589,43.0119],[-83.67531,43.01161],[-83.67512,43.01152],[-83.67504,43.01148],[-83.67452,43.01119],[-83.67355,43.01064],[-83.67344,43.01058],[-83.67335,43.01053],[-83.67303,43.01035],[-83.67272,43.01017],[-83.67248,43.01006],[-83.67225,43.00996],[-83.67216,43.00992],[-83.67204,43.00988],[-83.67174,43.00977],[-83.6714,43.00966],[-83.6711,43.00958],[-83.67076,43.0095],[-83.67048,43.00944],[-83.67015,43.00939],[-83.66988,43.00937],[-83.66962,43.00935],[-83.66925,43.00934],[-83.66912,43.00934],[-83.6691,43.0087],[-83.66909,43.00821],[-83.66909,43.00781],[-83.66908,43.00749],[-83.66903,43.00585],[-83.66903,43.00574],[-83.66897,43.00382],[-83.66896,43.00352],[-83.66795,43.00354],[-83.66699,43.00356],[-83.66685,43.00357],[-83.66601,43.00358],[-83.66504,43.0036],[-83.66417,43.00362],[-83.66407,43.00362],[-83.66394,43.00362],[-83.66381,43.00362],[-83.6628,43.00363],[-83.66179,43.00364],[-83.66169,43.00364],[-83.66051,43.00366],[-83.65968,43.00367],[-83.65953,43.00367],[-83.65837,43.00369],[-83.65722,43.0037],[-83.65712,43.0037],[-83.65584,43.00372],[-83.65557,43.00373],[-83.65506,43.00373],[-83.65436,43.00375],[-83.65407,43.00375],[-83.65378,43.00375],[-83.65284,43.00377],[-83.65169,43.00379],[-83.65141,43.00379],[-83.65115,43.00379],[-83.6506,43.0038],[-83.6502,43.00381],[-83.64967,43.00382],[-83.64921,43.00382],[-83.64812,43.00384],[-83.6474,43.00386],[-83.64616,43.00387],[-83.64574,43.00388],[-83.64427,43.00391],[-83.64415,43.00391],[-83.64417,43.00442],[-83.64419,43.0049],[-83.64419,43.00505],[-83.64422,43.00583],[-83.64429,43.00747],[-83.64429,43.00757],[-83.64429,43.00766],[-83.64432,43.00837],[-83.64435,43.00912],[-83.64436,43.00932],[-83.64438,43.00987],[-83.64518,43.00985],[-83.64542,43.00984],[-83.64552,43.00984],[-83.64632,43.00982],[-83.64638,43.00982],[-83.64732,43.0098],[-83.64807,43.00978],[-83.6483,43.00977],[-83.64858,43.00977],[-83.64915,43.00976],[-83.64946,43.00975],[-83.65027,43.00974],[-83.65111,43.00971],[-83.65134,43.00971],[-83.6522,43.00969],[-83.65306,43.00967],[-83.65372,43.00966],[-83.65426,43.00965],[-83.65425,43.00944],[-83.65424,43.0091],[-83.65423,43.00872],[-83.65421,43.00834],[-83.65421,43.00829],[-83.65419,43.00746],[-83.65415,43.00608],[-83.65409,43.00415],[-83.65408,43.004],[-83.65407,43.00375],[-83.65405,43.00324],[-83.65399,43.00191],[-83.65398,43.00164],[-83.65395,43.00082],[-83.65394,43.00064],[-83.65392,43.00009],[-83.65391,42.99996],[-83.65389,42.99944],[-83.65388,42.99918],[-83.65387,42.999],[-83.65382,42.99781],[-83.6538,42.99739],[-83.65379,42.99722],[-83.65379,42.99711],[-83.65375,42.99606],[-83.65373,42.99568],[-83.6537,42.99497],[-83.65363,42.99341],[-83.65362,42.99323],[-83.6536,42.9926],[-83.65358,42.99224],[-83.65356,42.99168],[-83.65354,42.99137],[-83.65354,42.99115],[-83.65352,42.9907],[-83.65351,42.99048],[-83.6535,42.99024],[-83.65349,42.99012],[-83.65348,42.98996],[-83.65348,42.9899],[-83.65347,42.98972],[-83.65345,42.98916],[-83.65341,42.98894],[-83.6534,42.98874],[-83.65339,42.98856],[-83.65339,42.98847],[-83.65338,42.98814],[-83.6534,42.98786],[-83.6534,42.98767],[-83.6534,42.98751],[-83.65339,42.98742],[-83.65338,42.98706],[-83.65337,42.98691],[-83.65335,42.98623],[-83.65333,42.98555],[-83.65332,42.98515],[-83.65327,42.98388],[-83.65325,42.98318],[-83.65324,42.98256],[-83.65322,42.98195],[-83.65369,42.98194],[-83.65414,42.98193],[-83.65441,42.98192],[-83.65487,42.98192],[-83.65551,42.98191],[-83.6574,42.98189],[-83.66013,42.98186],[-83.6609,42.98185],[-83.6609,42.98266],[-83.66096,42.9835],[-83.66207,42.98428],[-83.66306,42.98506],[-83.66419,42.98582],[-83.66459,42.98609],[-83.66478,42.98625],[-83.66499,42.98643],[-83.66516,42.98661],[-83.66527,42.98677],[-83.66537,42.98698],[-83.66546,42.98739],[-83.66548,42.98817],[-83.66551,42.98904],[-83.66114,42.98908],[-83.65998,42.98909],[-83.65893,42.9891],[-83.65798,42.98911],[-83.65694,42.98913],[-83.65682,42.98913],[-83.65596,42.98914],[-83.65554,42.98914],[-83.65529,42.98915],[-83.655,42.98915],[-83.65432,42.98915],[-83.65424,42.98915],[-83.65405,42.98916],[-83.6538,42.98916],[-83.65345,42.98916],[-83.65268,42.98918],[-83.65255,42.98918],[-83.65238,42.98918],[-83.65234,42.98918],[-83.65209,42.98917],[-83.65184,42.98918],[-83.65153,42.98918],[-83.65142,42.98918],[-83.65115,42.98918],[-83.65098,42.98919],[-83.65063,42.98919],[-83.65045,42.9892],[-83.64974,42.98922],[-83.64964,42.98922],[-83.64866,42.98922],[-83.6478,42.98924],[-83.64682,42.98926],[-83.64663,42.98926],[-83.64512,42.98928],[-83.64333,42.98933],[-83.6425,42.98935],[-83.64226,42.98935],[-83.63986,42.98941],[-83.63962,42.98942],[-83.6395,42.98942],[-83.63922,42.98943],[-83.63881,42.98944],[-83.63813,42.98946],[-83.63736,42.98947],[-83.6366,42.98948],[-83.63577,42.98951],[-83.63442,42.98953],[-83.63423,42.98954],[-83.6338,42.98955],[-83.63299,42.98955],[-83.63207,42.98956],[-83.63168,42.98957],[-83.63066,42.98958],[-83.63056,42.98958],[-83.62932,42.98959],[-83.62906,42.98959],[-83.62906,42.98969],[-83.62905,42.98976],[-83.629,42.98992],[-83.62898,42.99005],[-83.629,42.99075],[-83.62905,42.99181],[-83.62905,42.99193],[-83.62906,42.99201],[-83.62908,42.99278],[-83.6291,42.99314],[-83.62954,42.99313],[-83.62953,42.99302],[-83.62952,42.99272],[-83.62969,42.99271],[-83.62996,42.9927],[-83.6302,42.99269],[-83.63043,42.99269],[-83.63066,42.99268],[-83.63092,42.99267],[-83.63096,42.99267],[-83.63106,42.99267]]}},{"type":"Feature","properties":{"name":"Route 10 - Richfield","route":"10","_color":"#C26014","url":"https://flint.connexionz.net/RTT/Public/Schedule.aspx?RouteNo=10"},"geometry":{"type":"LineString","coordinates":[[-83.68843,43.01568],[-83.68839,43.01567],[-83.68835,43.01566],[-83.6883,43.01565],[-83.68827,43.01565],[-83.68821,43.01564],[-83.68818,43.01564],[-83.68817,43.01564],[-83.68815,43.01564],[-83.68812,43.01565],[-83.68806,43.01568],[-83.68803,43.01569],[-83.68798,43.01572],[-83.6879,43.01575],[-83.68783,43.01579],[-83.68775,43.01582],[-83.68767,43.01586],[-83.68763,43.01588],[-83.68762,43.01589],[-83.6876,43.0159],[-83.6876,43.01591],[-83.68759,43.01592],[-83.68758,43.01595],[-83.68757,43.01599],[-83.68757,43.01602],[-83.68756,43.01605],[-83.68755,43.01608],[-83.68745,43.01613],[-83.68736,43.01617],[-83.68726,43.01622],[-83.68702,43.01633],[-83.6869,43.01638],[-83.68636,43.01663],[-83.68621,43.01669],[-83.68618,43.01671],[-83.68609,43.01675],[-83.68599,43.0168],[-83.68596,43.01681],[-83.68587,43.01685],[-83.68566,43.01695],[-83.68554,43.017],[-83.68554,43.017],[-83.68517,43.01717],[-83.68514,43.01718],[-83.68496,43.01727],[-83.68493,43.01728],[-83.68488,43.0173],[-83.68481,43.01734],[-83.68433,43.01668],[-83.68413,43.01642],[-83.68409,43.01638],[-83.68404,43.01633],[-83.68402,43.0163],[-83.68393,43.01618],[-83.68375,43.01591],[-83.68366,43.01577],[-83.68353,43.01557],[-83.68349,43.01549],[-83.68344,43.0154],[-83.6834,43.01531],[-83.68317,43.01483],[-83.6831,43.01473],[-83.68292,43.01444],[-83.68252,43.01386],[-83.68245,43.01376],[-83.68228,43.01385],[-83.68157,43.01417],[-83.68134,43.01428],[-83.68101,43.01453],[-83.68092,43.01462],[-83.68083,43.01472],[-83.68076,43.01483],[-83.68065,43.01504],[-83.68059,43.01517],[-83.68044,43.0155],[-83.68037,43.01563],[-83.68029,43.01573],[-83.68021,43.01582],[-83.68015,43.01587],[-83.67996,43.01602],[-83.67982,43.0161],[-83.67974,43.01614],[-83.6795,43.01631],[-83.67937,43.0164],[-83.67863,43.01673],[-83.67816,43.01694],[-83.67799,43.017],[-83.67783,43.01705],[-83.67678,43.01732],[-83.67615,43.01748],[-83.67548,43.01765],[-83.67513,43.01774],[-83.67478,43.01783],[-83.67427,43.01796],[-83.67371,43.0181],[-83.67357,43.01814],[-83.67344,43.01816],[-83.67331,43.01818],[-83.67319,43.01818],[-83.67236,43.0182],[-83.67087,43.01823],[-83.67048,43.01823],[-83.66987,43.01825],[-83.66876,43.01827],[-83.66752,43.01829],[-83.6664,43.01832],[-83.66545,43.01833],[-83.66523,43.01834],[-83.66506,43.01834],[-83.6648,43.01834],[-83.66403,43.01835],[-83.66127,43.01837],[-83.66108,43.01838],[-83.6609,43.01838],[-83.65818,43.0184],[-83.65802,43.0184],[-83.65784,43.0184],[-83.65583,43.01842],[-83.65526,43.01843],[-83.65502,43.01843],[-83.65498,43.01843],[-83.6547,43.01843],[-83.65465,43.01843],[-83.65463,43.01821],[-83.65463,43.0181],[-83.65462,43.01776],[-83.65462,43.01755],[-83.65461,43.01729],[-83.6546,43.01695],[-83.65457,43.01629],[-83.65455,43.01601],[-83.65446,43.01414],[-83.65409,43.01412],[-83.65395,43.01405],[-83.65342,43.01385],[-83.65332,43.01382],[-83.65321,43.0138],[-83.65313,43.0138],[-83.65301,43.01381],[-83.65284,43.01381],[-83.65277,43.01382],[-83.65271,43.01386],[-83.65266,43.01391],[-83.65265,43.01397],[-83.65261,43.01403],[-83.65258,43.01409],[-83.65256,43.01416],[-83.65255,43.01425],[-83.65254,43.01436],[-83.65254,43.01446],[-83.65256,43.0149],[-83.65255,43.01497],[-83.65251,43.01503],[-83.65245,43.01508],[-83.65239,43.01511],[-83.6523,43.01514],[-83.6522,43.01516],[-83.65204,43.01516],[-83.65168,43.01517],[-83.65169,43.01526],[-83.6517,43.0153],[-83.65172,43.01533],[-83.65176,43.01535],[-83.65181,43.01536],[-83.65187,43.01536],[-83.65199,43.01532],[-83.65202,43.01529],[-83.65204,43.01525],[-83.65204,43.01516],[-83.6522,43.01516],[-83.6523,43.01514],[-83.65239,43.01511],[-83.65245,43.01508],[-83.65251,43.01503],[-83.65255,43.01497],[-83.65256,43.0149],[-83.65254,43.01446],[-83.65254,43.01436],[-83.65255,43.01425],[-83.65256,43.01416],[-83.65258,43.01409],[-83.65261,43.01403],[-83.65265,43.01397],[-83.65266,43.01391],[-83.65271,43.01386],[-83.65277,43.01382],[-83.65284,43.01381],[-83.65301,43.01381],[-83.65313,43.0138],[-83.65321,43.0138],[-83.65332,43.01382],[-83.65342,43.01385],[-83.65395,43.01405],[-83.65409,43.01412],[-83.65446,43.01414],[-83.65455,43.01601],[-83.65457,43.01629],[-83.6546,43.01695],[-83.65461,43.01729],[-83.65462,43.01755],[-83.65462,43.01776],[-83.65463,43.0181],[-83.65463,43.01821],[-83.65465,43.01843],[-83.65394,43.01845],[-83.65358,43.01846],[-83.65348,43.01847],[-83.65291,43.01846],[-83.65267,43.01846],[-83.6517,43.01847],[-83.65152,43.01847],[-83.65116,43.01847],[-83.64992,43.01847],[-83.64982,43.01847],[-83.64866,43.01849],[-83.64823,43.01849],[-83.64734,43.0185],[-83.64625,43.01851],[-83.64529,43.01852],[-83.64458,43.01852],[-83.64296,43.01857],[-83.64264,43.01858],[-83.64251,43.01858],[-83.64133,43.0186],[-83.63985,43.01863],[-83.63965,43.01864],[-83.63943,43.01864],[-83.6387,43.01866],[-83.63724,43.01868],[-83.63597,43.01872],[-83.63568,43.01872],[-83.63551,43.01873],[-83.63489,43.01874],[-83.63437,43.01874],[-83.63432,43.01874],[-83.63405,43.01872],[-83.63395,43.01872],[-83.63369,43.01872],[-83.63341,43.01872],[-83.63319,43.01872],[-83.63267,43.01873],[-83.63232,43.01873],[-83.63196,43.01873],[-83.63153,43.01873],[-83.63141,43.01873],[-83.63071,43.01873],[-83.63004,43.01873],[-83.62989,43.01873],[-83.62929,43.01873],[-83.62917,43.01873],[-83.62672,43.01873],[-83.62574,43.01873],[-83.62573,43.01838],[-83.62571,43.01753],[-83.62672,43.01753],[-83.62672,43.01873],[-83.62917,43.01873],[-83.62929,43.01873],[-83.62989,43.01873],[-83.63004,43.01873],[-83.63071,43.01873],[-83.63141,43.01873],[-83.63153,43.01873],[-83.63196,43.01873],[-83.63232,43.01873],[-83.63267,43.01873],[-83.63319,43.01872],[-83.63341,43.01872],[-83.63369,43.01872],[-83.63395,43.01872],[-83.63405,43.01872],[-83.63432,43.01874],[-83.63437,43.01874],[-83.63489,43.01874],[-83.6349,43.0191],[-83.63488,43.01928],[-83.63489,43.01949],[-83.6349,43.02008],[-83.63491,43.0202],[-83.63491,43.02039],[-83.63496,43.0209],[-83.63496,43.02098],[-83.63498,43.02156],[-83.635,43.02206],[-83.635,43.02224],[-83.63501,43.02242],[-83.63502,43.02315],[-83.63504,43.02356],[-83.63507,43.02448],[-83.63509,43.02464],[-83.63511,43.02551],[-83.63512,43.0258],[-83.63512,43.02597],[-83.63513,43.0261],[-83.63513,43.02646],[-83.63515,43.02685],[-83.63516,43.02703],[-83.63517,43.02727],[-83.63518,43.02749],[-83.63518,43.02767],[-83.6352,43.02821],[-83.6352,43.0282],[-83.63523,43.02871],[-83.63523,43.02883],[-83.63525,43.02958],[-83.63526,43.02975],[-83.63528,43.03032],[-83.6353,43.03102],[-83.63532,43.03142],[-83.63532,43.03154],[-83.63533,43.03174],[-83.63535,43.03231],[-83.63536,43.03246],[-83.63536,43.03256],[-83.63537,43.03276],[-83.63538,43.03294],[-83.63539,43.03319],[-83.63483,43.03319],[-83.63457,43.03319],[-83.63452,43.03319],[-83.63315,43.03317],[-83.63286,43.03317],[-83.63246,43.03316],[-83.63198,43.03316],[-83.63156,43.03316],[-83.63109,43.03315],[-83.63045,43.03314],[-83.63044,43.03288],[-83.63035,43.03278],[-83.63032,43.03205],[-83.63031,43.03155],[-83.6308,43.03153],[-83.63081,43.0319],[-83.63084,43.03195],[-83.63092,43.03198],[-83.63145,43.03197],[-83.63216,43.03196],[-83.63265,43.03196],[-83.63277,43.03196],[-83.63293,43.03187],[-83.63293,43.03138],[-83.63215,43.03138],[-83.63215,43.0312],[-83.63151,43.0312],[-83.63101,43.03116],[-83.63102,43.03133],[-83.6308,43.03136],[-83.6308,43.03153],[-83.63031,43.03155],[-83.63032,43.03205],[-83.63035,43.03278],[-83.63033,43.03288],[-83.63034,43.03314],[-83.63109,43.03315],[-83.63156,43.03316],[-83.63198,43.03316],[-83.63246,43.03316],[-83.63286,43.03317],[-83.63315,43.03317],[-83.63452,43.03319],[-83.63457,43.03319],[-83.63483,43.03319],[-83.63539,43.03319],[-83.6354,43.03357],[-83.6354,43.03379],[-83.63541,43.03401],[-83.63541,43.0341],[-83.63541,43.03429],[-83.63542,43.03444],[-83.63544,43.0354],[-83.63545,43.03594],[-83.63547,43.03652],[-83.63547,43.03671],[-83.63548,43.03716],[-83.63549,43.03758],[-83.6355,43.03788],[-83.63551,43.0384],[-83.63552,43.0386],[-83.63553,43.03932],[-83.63555,43.03996],[-83.63555,43.04003],[-83.63558,43.04127],[-83.6356,43.04226],[-83.63562,43.04312],[-83.63635,43.0431],[-83.63725,43.04305],[-83.64041,43.04289],[-83.6406,43.04288],[-83.64306,43.04285],[-83.64527,43.04281],[-83.64552,43.0428],[-83.64553,43.04324],[-83.64553,43.04358],[-83.64554,43.0442],[-83.64554,43.04429],[-83.64556,43.045],[-83.64557,43.04551],[-83.64557,43.04563],[-83.64557,43.04576],[-83.64567,43.04646],[-83.6457,43.04718],[-83.64572,43.04842],[-83.64572,43.04888],[-83.64573,43.04937],[-83.64574,43.04993],[-83.64575,43.05091],[-83.64564,43.05091],[-83.64509,43.05092],[-83.64485,43.05092],[-83.64437,43.05093],[-83.64334,43.05095],[-83.64319,43.05095],[-83.642,43.05097],[-83.64196,43.05097],[-83.64141,43.05098],[-83.64067,43.05099],[-83.63941,43.05101],[-83.63849,43.05103],[-83.63815,43.05103],[-83.63778,43.05104],[-83.63745,43.05104],[-83.63725,43.05104],[-83.63695,43.05105],[-83.63661,43.05105],[-83.63653,43.05106],[-83.63578,43.05107],[-83.63468,43.05107],[-83.63286,43.05109],[-83.63214,43.05109],[-83.63185,43.05109],[-83.63074,43.0511],[-83.62936,43.05111],[-83.62904,43.05111],[-83.62834,43.05111],[-83.62824,43.05111],[-83.62803,43.05112],[-83.62597,43.05113],[-83.62596,43.05084],[-83.62596,43.05068],[-83.62596,43.05065]]}},{"type":"Feature","properties":{"name":"Route 11 - Fenton Road","route":"11","_color":"#094B98","url":"https://flint.connexionz.net/RTT/Public/Schedule.aspx?RouteNo=11"},"geometry":{"type":"LineString","coordinates":[[-83.68843,43.01568],[-83.68839,43.01567],[-83.68835,43.01566],[-83.6883,43.01565],[-83.68827,43.01565],[-83.68821,43.01564],[-83.68818,43.01564],[-83.68817,43.01564],[-83.68817,43.01564],[-83.68815,43.01564],[-83.68812,43.01565],[-83.68806,43.01568],[-83.68798,43.01572],[-83.6879,43.01575],[-83.68783,43.01579],[-83.68775,43.01582],[-83.68767,43.01586],[-83.68763,43.01588],[-83.68762,43.01589],[-83.6876,43.0159],[-83.6876,43.01591],[-83.68759,43.01592],[-83.68758,43.01595],[-83.68757,43.01599],[-83.68757,43.01602],[-83.68756,43.01605],[-83.68755,43.01608],[-83.6875,43.01611],[-83.68745,43.01613],[-83.68736,43.01617],[-83.6873,43.01611],[-83.68729,43.01609],[-83.6871,43.01588],[-83.68705,43.01581],[-83.68696,43.0157],[-83.68691,43.01564],[-83.68665,43.01534],[-83.68663,43.01531],[-83.68658,43.01524],[-83.68669,43.01519],[-83.68724,43.01494],[-83.68764,43.01476],[-83.68771,43.01473],[-83.68783,43.01467],[-83.68846,43.01439],[-83.68854,43.01435],[-83.68916,43.01407],[-83.68976,43.01379],[-83.68984,43.01375],[-83.69046,43.01346],[-83.69115,43.01314],[-83.69172,43.01288],[-83.69208,43.01272],[-83.69232,43.01261],[-83.69253,43.01252],[-83.69299,43.01231],[-83.69277,43.01204],[-83.69265,43.0119],[-83.69215,43.01131],[-83.69181,43.01091],[-83.69172,43.01081],[-83.69277,43.01034],[-83.69349,43.01002],[-83.69381,43.00987],[-83.69389,43.00981],[-83.69403,43.00973],[-83.69428,43.00961],[-83.69464,43.00944],[-83.69482,43.00935],[-83.69447,43.00893],[-83.69424,43.00866],[-83.69418,43.00859],[-83.6934,43.00767],[-83.69332,43.00758],[-83.69273,43.00688],[-83.69263,43.00676],[-83.69255,43.00666],[-83.69251,43.00661],[-83.69249,43.00658],[-83.69248,43.00655],[-83.69247,43.00652],[-83.69246,43.0065],[-83.69245,43.00647],[-83.69245,43.00644],[-83.69245,43.00637],[-83.69246,43.00634],[-83.69248,43.00626],[-83.69252,43.00618],[-83.69259,43.00599],[-83.69271,43.00574],[-83.69311,43.00481],[-83.69313,43.00475],[-83.69334,43.00425],[-83.69339,43.00413],[-83.69342,43.00404],[-83.69342,43.00396],[-83.6934,43.00387],[-83.69336,43.00377],[-83.6933,43.00366],[-83.693,43.00326],[-83.69297,43.00318],[-83.69296,43.00314],[-83.69297,43.0031],[-83.69298,43.00303],[-83.693,43.00299],[-83.69308,43.00292],[-83.69313,43.00289],[-83.69345,43.0027],[-83.69351,43.00266],[-83.69355,43.00263],[-83.69358,43.00259],[-83.69361,43.00256],[-83.69363,43.00254],[-83.69364,43.00251],[-83.69365,43.00247],[-83.69366,43.00244],[-83.69366,43.00241],[-83.69366,43.00237],[-83.69365,43.00233],[-83.69364,43.00226],[-83.69349,43.0017],[-83.6934,43.00135],[-83.6933,43.00101],[-83.69326,43.00087],[-83.69324,43.00079],[-83.69322,43.00062],[-83.69322,43.00035],[-83.69322,43.0002],[-83.69321,42.99966],[-83.6932,42.9992],[-83.69319,42.99847],[-83.69318,42.99804],[-83.69318,42.99775],[-83.69317,42.99702],[-83.69316,42.99678],[-83.69316,42.99645],[-83.69316,42.9963],[-83.69316,42.99608],[-83.69314,42.99559],[-83.69314,42.99538],[-83.69314,42.99489],[-83.69313,42.99469],[-83.69313,42.99467],[-83.69313,42.99423],[-83.69312,42.99395],[-83.69312,42.99352],[-83.69312,42.99333],[-83.69311,42.99315],[-83.6931,42.99244],[-83.6931,42.99209],[-83.69309,42.99198],[-83.69309,42.99155],[-83.69309,42.99127],[-83.69309,42.99085],[-83.69308,42.99055],[-83.69307,42.99013],[-83.69307,42.98984],[-83.69307,42.98942],[-83.69306,42.98913],[-83.69306,42.98885],[-83.69305,42.98868],[-83.69322,42.98862],[-83.69345,42.98853],[-83.69356,42.98849],[-83.69367,42.98846],[-83.69377,42.98844],[-83.69384,42.98843],[-83.69393,42.98842],[-83.69405,42.98841],[-83.6942,42.9884],[-83.69588,42.98839],[-83.69609,42.98838],[-83.69622,42.98838],[-83.69674,42.98838],[-83.69812,42.98837],[-83.69849,42.98837],[-83.69869,42.98837],[-83.69986,42.98836],[-83.70118,42.98835],[-83.70194,42.98835],[-83.70309,42.98834],[-83.70326,42.98834],[-83.70349,42.98834],[-83.70392,42.98834],[-83.70423,42.98834],[-83.70509,42.98833],[-83.70539,42.98833],[-83.70732,42.98833],[-83.70749,42.98833],[-83.70767,42.98832],[-83.70896,42.98832],[-83.71103,42.9883],[-83.71134,42.9883],[-83.71157,42.9883],[-83.71208,42.9883],[-83.71255,42.9883],[-83.71326,42.9883],[-83.71325,42.98785],[-83.71324,42.98753],[-83.71324,42.98741],[-83.71323,42.98717],[-83.71322,42.98685],[-83.71314,42.98358],[-83.71313,42.98342],[-83.71313,42.98325],[-83.71311,42.98267],[-83.71311,42.98236],[-83.7131,42.98214],[-83.7131,42.98197],[-83.71309,42.98172],[-83.71309,42.98144],[-83.71308,42.98131],[-83.71308,42.98119],[-83.71307,42.981],[-83.71306,42.98033],[-83.71305,42.9799],[-83.71304,42.97986],[-83.71303,42.97928],[-83.71302,42.97855],[-83.71301,42.97845],[-83.713,42.97793],[-83.71298,42.97745],[-83.71295,42.97607],[-83.71295,42.97595],[-83.71294,42.97545],[-83.71293,42.97521],[-83.71292,42.97495],[-83.71292,42.9747],[-83.71291,42.97416],[-83.7129,42.97378],[-83.71352,42.97377],[-83.71413,42.97375],[-83.71476,42.97374],[-83.71571,42.97373],[-83.7165,42.9737],[-83.71678,42.97369],[-83.71796,42.97365],[-83.71825,42.97364],[-83.71864,42.97364],[-83.71957,42.97362],[-83.72017,42.97361],[-83.72117,42.97359],[-83.72132,42.97359],[-83.72182,42.97358],[-83.72205,42.97363],[-83.72237,42.97362],[-83.72256,42.9736],[-83.72292,42.97357],[-83.72321,42.97354],[-83.7233,42.97353],[-83.72336,42.97354],[-83.72342,42.97355],[-83.72355,42.97361],[-83.72359,42.97364],[-83.72365,42.97366],[-83.72371,42.97368],[-83.72378,42.97367],[-83.72385,42.97367],[-83.72391,42.97365],[-83.72393,42.97363],[-83.72401,42.97361],[-83.72409,42.9736],[-83.72416,42.97359],[-83.72429,42.97359],[-83.72476,42.97358],[-83.72634,42.97355],[-83.72655,42.9735],[-83.72694,42.97349],[-83.72731,42.97348],[-83.72811,42.97346],[-83.72849,42.97346],[-83.72896,42.97345],[-83.7293,42.97344],[-83.72968,42.97343],[-83.72993,42.97343],[-83.73026,42.97342],[-83.73091,42.97342],[-83.73127,42.97342],[-83.73153,42.97342],[-83.7319,42.97342],[-83.73216,42.97342],[-83.73232,42.97342],[-83.73251,42.97344],[-83.73271,42.97345],[-83.73294,42.97348],[-83.73314,42.97351],[-83.73337,42.97355],[-83.73358,42.97359],[-83.7338,42.97364],[-83.734,42.9737],[-83.73418,42.97375],[-83.73438,42.97382],[-83.73557,42.97424],[-83.7357,42.97428],[-83.73808,42.97513],[-83.73871,42.97535],[-83.73914,42.9755],[-83.73937,42.97557],[-83.73958,42.97562],[-83.73979,42.97568],[-83.74004,42.97573],[-83.74003,42.97573],[-83.74026,42.97577],[-83.74047,42.9758],[-83.74065,42.97582],[-83.74082,42.97584],[-83.74101,42.97585],[-83.74115,42.97586],[-83.74114,42.97574],[-83.74113,42.97562],[-83.74113,42.97544],[-83.74113,42.97535],[-83.74113,42.97525],[-83.7412,42.97499],[-83.74122,42.97493],[-83.74123,42.97486],[-83.74123,42.97479],[-83.74122,42.97461],[-83.7412,42.97437],[-83.74119,42.97428],[-83.74117,42.97421],[-83.74115,42.97416],[-83.74113,42.97413],[-83.74111,42.9741],[-83.74106,42.97404],[-83.741,42.97398],[-83.74093,42.97393],[-83.74086,42.97389],[-83.74079,42.97386],[-83.74075,42.97384],[-83.74071,42.97383],[-83.74061,42.97381],[-83.74052,42.97381],[-83.73983,42.97382],[-83.73973,42.97382],[-83.73885,42.97383],[-83.73784,42.97385],[-83.73761,42.97385],[-83.73702,42.97386],[-83.73673,42.97385],[-83.73657,42.97385],[-83.73632,42.97385],[-83.73617,42.97387],[-83.73602,42.9739],[-83.73595,42.97392],[-83.73587,42.97396],[-83.7358,42.974],[-83.73575,42.97404],[-83.7357,42.97408],[-83.73564,42.97414],[-83.73557,42.97424],[-83.73438,42.97382],[-83.73418,42.97375],[-83.734,42.9737],[-83.7338,42.97364],[-83.73358,42.97359],[-83.73337,42.97355],[-83.73314,42.97351],[-83.73294,42.97348],[-83.73271,42.97345],[-83.73251,42.97344],[-83.73232,42.97342],[-83.73216,42.97342],[-83.7319,42.97342],[-83.73153,42.97342],[-83.73127,42.97342],[-83.73091,42.97342],[-83.73026,42.97342],[-83.72993,42.97343],[-83.72968,42.97343],[-83.7293,42.97344],[-83.72849,42.97346],[-83.72811,42.97346],[-83.72731,42.97348],[-83.72694,42.97349],[-83.72655,42.9735],[-83.72634,42.97345],[-83.72431,42.97348],[-83.72423,42.97348],[-83.72417,42.97348],[-83.72412,42.97346],[-83.72406,42.97343],[-83.72397,42.97338],[-83.72393,42.97335],[-83.72389,42.97333],[-83.72383,42.97331],[-83.72378,42.9733],[-83.72372,42.9733],[-83.72367,42.97331],[-83.72362,42.97333],[-83.72358,42.97336],[-83.72338,42.9734],[-83.72326,42.97343],[-83.72312,42.97345],[-83.72278,42.97348],[-83.72249,42.97351],[-83.72227,42.97352],[-83.72204,42.97353],[-83.72182,42.97358],[-83.72132,42.97359],[-83.72117,42.97359],[-83.72017,42.97361],[-83.71957,42.97362],[-83.71864,42.97364],[-83.71825,42.97364],[-83.71796,42.97365],[-83.71678,42.97369],[-83.7165,42.9737],[-83.71571,42.97373],[-83.71476,42.97374],[-83.71413,42.97375],[-83.71352,42.97377],[-83.7129,42.97378],[-83.71254,42.97379],[-83.71226,42.97379],[-83.71176,42.9738],[-83.71125,42.9738],[-83.7109,42.97381],[-83.71058,42.97382],[-83.70992,42.97383],[-83.70895,42.97385],[-83.70829,42.97387],[-83.70815,42.97387],[-83.70796,42.97387],[-83.70744,42.97388],[-83.70662,42.97389],[-83.70617,42.9739],[-83.70585,42.9739],[-83.70562,42.9739],[-83.70509,42.97391],[-83.70454,42.97392],[-83.70424,42.97392],[-83.70395,42.97393],[-83.70296,42.97394],[-83.70143,42.97395],[-83.70114,42.97396],[-83.70036,42.97396],[-83.7002,42.97396],[-83.69986,42.97397],[-83.69951,42.97397],[-83.69903,42.97397],[-83.69722,42.97399],[-83.69681,42.97399],[-83.69646,42.974],[-83.69622,42.974],[-83.69522,42.974],[-83.69386,42.97401],[-83.69368,42.97402],[-83.69281,42.97402],[-83.69282,42.97461],[-83.69282,42.97511],[-83.69282,42.97537],[-83.69283,42.97581],[-83.69283,42.97607],[-83.69284,42.97685],[-83.69284,42.97694],[-83.69285,42.97774],[-83.69288,42.97866],[-83.69289,42.9794],[-83.69293,42.98075],[-83.69294,42.98121],[-83.6924,42.98121],[-83.69223,42.98122],[-83.69206,42.98123],[-83.69189,42.98125],[-83.6919,42.98125],[-83.69189,42.98125],[-83.69161,42.9813],[-83.69136,42.98135],[-83.69118,42.98137],[-83.69099,42.98139],[-83.69084,42.98139],[-83.68927,42.98141],[-83.68917,42.98141]]}},{"type":"Feature","properties":{"name":"Route 13 - Crosstown","route":"13","_color":"#EC5B69","url":"https://flint.connexionz.net/RTT/Public/Schedule.aspx?RouteNo=13"},"geometry":{"type":"LineString","coordinates":[[-83.78587,43.06137],[-83.78574,43.06137],[-83.78551,43.06137],[-83.7854,43.06138],[-83.78527,43.06138],[-83.78503,43.06138],[-83.78495,43.06138],[-83.7848,43.06138],[-83.78457,43.06138],[-83.78434,43.06138],[-83.7841,43.06138],[-83.78377,43.06138],[-83.78377,43.06117],[-83.78377,43.06072],[-83.78377,43.06042],[-83.78299,43.06043],[-83.78168,43.06045],[-83.78077,43.06046],[-83.77878,43.06048],[-83.77652,43.06051],[-83.77604,43.06052],[-83.77587,43.06052],[-83.77527,43.06052],[-83.77472,43.06053],[-83.77383,43.06054],[-83.77351,43.06055],[-83.77345,43.06055],[-83.77296,43.06055],[-83.77295,43.06039],[-83.77295,43.05999],[-83.77294,43.05992],[-83.77294,43.05971],[-83.77294,43.05956],[-83.77292,43.05867],[-83.77291,43.05809],[-83.7729,43.05776],[-83.7729,43.05755],[-83.77289,43.05734],[-83.77289,43.05719],[-83.77288,43.05681],[-83.77287,43.05628],[-83.77287,43.05613],[-83.77286,43.05575],[-83.77286,43.0557],[-83.77283,43.05452],[-83.7728,43.05329],[-83.77279,43.05299],[-83.77279,43.05273],[-83.77277,43.05188],[-83.77273,43.05038],[-83.77273,43.05023],[-83.77272,43.04966],[-83.7727,43.04869],[-83.77268,43.04743],[-83.77268,43.04679],[-83.77267,43.04657],[-83.77268,43.04648],[-83.77271,43.04628],[-83.77281,43.04594],[-83.77232,43.04594],[-83.77228,43.04594],[-83.77221,43.04594],[-83.77189,43.04594],[-83.7717,43.04594],[-83.77098,43.04595],[-83.77001,43.04596],[-83.76705,43.04598],[-83.76681,43.04598],[-83.76643,43.04598],[-83.76623,43.04598],[-83.76514,43.04599],[-83.76478,43.04599],[-83.76438,43.04599],[-83.76326,43.046],[-83.76273,43.046],[-83.76198,43.04601],[-83.76153,43.04601],[-83.76069,43.04602],[-83.76047,43.04602],[-83.76043,43.04602],[-83.75996,43.04602],[-83.75791,43.04605],[-83.75547,43.04608],[-83.75448,43.04608],[-83.75424,43.04608],[-83.75287,43.0461],[-83.75196,43.0461],[-83.7516,43.0461],[-83.75077,43.0461],[-83.7507,43.0461],[-83.75058,43.0461],[-83.75006,43.0461],[-83.74976,43.04611],[-83.74934,43.04611],[-83.74922,43.04611],[-83.74901,43.04611],[-83.74878,43.04611],[-83.7486,43.04611],[-83.74842,43.04611],[-83.74757,43.04612],[-83.74745,43.04612],[-83.74716,43.04612],[-83.74679,43.04612],[-83.74628,43.04613],[-83.74594,43.04613],[-83.74439,43.04614],[-83.7441,43.04614],[-83.74368,43.04615],[-83.74323,43.04615],[-83.74121,43.04617],[-83.74081,43.04617],[-83.74077,43.04617],[-83.74054,43.04617],[-83.73998,43.04618],[-83.73985,43.04618],[-83.73949,43.04618],[-83.73888,43.04619],[-83.73796,43.04619],[-83.73701,43.0462],[-83.73606,43.0462],[-83.73493,43.04621],[-83.73417,43.04621],[-83.73408,43.04622],[-83.73378,43.04622],[-83.73353,43.04622],[-83.73331,43.04622],[-83.73309,43.04622],[-83.73268,43.04622],[-83.73268,43.0466],[-83.73268,43.04678],[-83.73268,43.0469],[-83.73268,43.04695],[-83.73268,43.04722],[-83.73268,43.04803],[-83.73269,43.04816],[-83.73269,43.04824],[-83.73268,43.04832],[-83.73268,43.04865],[-83.73268,43.04893],[-83.73268,43.04916],[-83.73268,43.04962],[-83.73269,43.0504],[-83.73269,43.0509],[-83.73269,43.0513],[-83.73269,43.05172],[-83.73269,43.05248],[-83.73269,43.05253],[-83.73269,43.05256],[-83.73271,43.05345],[-83.73274,43.05384],[-83.73277,43.05434],[-83.73281,43.05487],[-83.73282,43.05494],[-83.73287,43.05543],[-83.73289,43.05564],[-83.733,43.05633],[-83.73305,43.05667],[-83.7331,43.05707],[-83.73311,43.05715],[-83.73315,43.05749],[-83.7332,43.05796],[-83.73325,43.05856],[-83.73328,43.0588],[-83.73333,43.05927],[-83.73339,43.05982],[-83.73341,43.0602],[-83.73342,43.06051],[-83.73343,43.06065],[-83.73258,43.06066],[-83.73236,43.06066],[-83.73216,43.06066],[-83.73107,43.06067],[-83.72982,43.06068],[-83.72954,43.06068],[-83.72933,43.06068],[-83.72625,43.06069],[-83.72605,43.06069],[-83.72566,43.06069],[-83.72462,43.0607],[-83.72419,43.0607],[-83.72366,43.06071],[-83.72315,43.06072],[-83.72249,43.06074],[-83.72162,43.06076],[-83.7193,43.06083],[-83.71924,43.06083],[-83.71802,43.06086],[-83.71706,43.06089],[-83.71694,43.06089],[-83.71621,43.06092],[-83.71598,43.06092],[-83.71499,43.06095],[-83.71429,43.06097],[-83.71397,43.06098],[-83.71368,43.06098],[-83.71345,43.06098],[-83.71181,43.06098],[-83.71115,43.06098],[-83.70981,43.06099],[-83.70737,43.06099],[-83.70716,43.06099],[-83.70638,43.06099],[-83.70525,43.061],[-83.70484,43.061],[-83.70465,43.061],[-83.70425,43.061],[-83.70333,43.06099],[-83.70325,43.06098],[-83.70304,43.06098],[-83.70227,43.06098],[-83.70145,43.06098],[-83.70132,43.06098],[-83.70114,43.06098],[-83.69999,43.06098],[-83.69982,43.06099],[-83.69887,43.06099],[-83.69657,43.06099],[-83.69645,43.06099],[-83.69576,43.06099],[-83.69541,43.06099],[-83.69456,43.06099],[-83.69449,43.06099],[-83.69391,43.06098],[-83.69326,43.06099],[-83.69302,43.061],[-83.69257,43.06101],[-83.69132,43.06106],[-83.69095,43.06107],[-83.69066,43.06108],[-83.69046,43.06109],[-83.68785,43.0612],[-83.68757,43.06121],[-83.68735,43.06121],[-83.68497,43.06126],[-83.68447,43.06127],[-83.68275,43.06129],[-83.68254,43.06129],[-83.68038,43.0613],[-83.67825,43.06132],[-83.67806,43.06127],[-83.6771,43.06129],[-83.67692,43.06133],[-83.67518,43.06135],[-83.6748,43.06135],[-83.67393,43.06136],[-83.67389,43.05968],[-83.67387,43.05927],[-83.67391,43.05905],[-83.67394,43.05879],[-83.67394,43.05844],[-83.67392,43.05834],[-83.6739,43.05799],[-83.67388,43.05784],[-83.67384,43.05764],[-83.6738,43.05751],[-83.67377,43.05738],[-83.67371,43.05724],[-83.67363,43.05707],[-83.67361,43.05704],[-83.67353,43.05685],[-83.67337,43.0566],[-83.67316,43.0563],[-83.67225,43.05507],[-83.67201,43.05473],[-83.67195,43.05464],[-83.67175,43.05439],[-83.67141,43.05411],[-83.67121,43.054],[-83.67105,43.05389],[-83.6708,43.05376],[-83.67053,43.05363],[-83.67021,43.05351],[-83.67,43.05344],[-83.66965,43.05334],[-83.6691,43.05318],[-83.6687,43.05305],[-83.66866,43.05304],[-83.66796,43.0528],[-83.6677,43.05272],[-83.66757,43.05268],[-83.66722,43.05258],[-83.6671,43.05254],[-83.66705,43.05253],[-83.6665,43.05235],[-83.66619,43.05226],[-83.66594,43.05218],[-83.66563,43.05208],[-83.66548,43.05204],[-83.66529,43.05197],[-83.66502,43.0519],[-83.66457,43.05175],[-83.66417,43.05159],[-83.66376,43.05136],[-83.6637,43.05132],[-83.66356,43.05121],[-83.66342,43.05109],[-83.66331,43.05098],[-83.6632,43.05087],[-83.66304,43.05067],[-83.66293,43.05053],[-83.6602,43.04719],[-83.65951,43.04635],[-83.65893,43.04564],[-83.65831,43.04488],[-83.65718,43.04349],[-83.65697,43.04323],[-83.65658,43.04274],[-83.65596,43.04201],[-83.65568,43.04158],[-83.65563,43.04144],[-83.65559,43.04126],[-83.65554,43.04108],[-83.65553,43.04089],[-83.65551,43.04048],[-83.65548,43.03967],[-83.65547,43.0388],[-83.65546,43.03804],[-83.65545,43.03785],[-83.65545,43.03773],[-83.65544,43.03749],[-83.65544,43.03704],[-83.65539,43.03576],[-83.65538,43.03542],[-83.65538,43.03524],[-83.65534,43.03391],[-83.65534,43.03371],[-83.65534,43.03331],[-83.65534,43.03287],[-83.65455,43.03289],[-83.65391,43.0329],[-83.65364,43.0329],[-83.65314,43.03291],[-83.65261,43.03292],[-83.65219,43.03293],[-83.65196,43.03293],[-83.65066,43.03295],[-83.65054,43.03296],[-83.65044,43.03296],[-83.6491,43.03297],[-83.64893,43.03298],[-83.64755,43.03299],[-83.6457,43.03303],[-83.64538,43.03304],[-83.64492,43.03304],[-83.64432,43.03304],[-83.64392,43.03305],[-83.6435,43.03306],[-83.64286,43.03307],[-83.64034,43.03313],[-83.63974,43.03315],[-83.63939,43.03315],[-83.63883,43.03316],[-83.63788,43.03318],[-83.63743,43.03319],[-83.63687,43.03318],[-83.63646,43.03318],[-83.63614,43.03319],[-83.63539,43.03319],[-83.63483,43.03319],[-83.63457,43.03319],[-83.63452,43.03319],[-83.63427,43.03318],[-83.63315,43.03317],[-83.63286,43.03317],[-83.63246,43.03316],[-83.63198,43.03316],[-83.63156,43.03316],[-83.63109,43.03315],[-83.63045,43.03314],[-83.63034,43.03314],[-83.62999,43.03314],[-83.62968,43.03314],[-83.62936,43.03314],[-83.62912,43.03314],[-83.62826,43.03314],[-83.62788,43.03314],[-83.62756,43.03314],[-83.62736,43.03314],[-83.62673,43.03314],[-83.62643,43.03314],[-83.62621,43.03314],[-83.62583,43.03313],[-83.62554,43.03313],[-83.62535,43.03313],[-83.62501,43.03313],[-83.62369,43.03311],[-83.62357,43.03311],[-83.62298,43.0331],[-83.6222,43.03309],[-83.62131,43.03308],[-83.62045,43.03307],[-83.61998,43.03307],[-83.61964,43.03307],[-83.61944,43.03307],[-83.61908,43.03307],[-83.61892,43.03306],[-83.61764,43.03306],[-83.61728,43.03306],[-83.61687,43.03305],[-83.61603,43.03305],[-83.61541,43.03305],[-83.61383,43.03308],[-83.6121,43.03312],[-83.61157,43.03313],[-83.61135,43.03314],[-83.61027,43.03316],[-83.60801,43.03321],[-83.60712,43.03324],[-83.60632,43.03327],[-83.60516,43.03329],[-83.60491,43.03331],[-83.60288,43.03338],[-83.60174,43.03343],[-83.60062,43.03348],[-83.59995,43.0335],[-83.59977,43.03351],[-83.59971,43.03351],[-83.59776,43.03358],[-83.59719,43.03359],[-83.59699,43.0336],[-83.59671,43.03361],[-83.59571,43.03364],[-83.5957,43.03335],[-83.59569,43.03307],[-83.59568,43.03296],[-83.59567,43.03252],[-83.59563,43.03152],[-83.59557,43.02999],[-83.59556,43.02897],[-83.59554,43.02835],[-83.59553,43.02787],[-83.59553,43.02783],[-83.59553,43.02746],[-83.59552,43.02716],[-83.59552,43.02685],[-83.59552,43.02635],[-83.59552,43.02631],[-83.59552,43.02626],[-83.59552,43.02607],[-83.5955,43.02573],[-83.59547,43.02494],[-83.59547,43.02478],[-83.59546,43.02424],[-83.59545,43.02398],[-83.59545,43.02387],[-83.59545,43.02379],[-83.59545,43.0236],[-83.59545,43.02346],[-83.59544,43.0233],[-83.59544,43.02284],[-83.59544,43.02246],[-83.59638,43.02246],[-83.59661,43.02244],[-83.59685,43.02243],[-83.59725,43.02233],[-83.59765,43.02211],[-83.59792,43.02191],[-83.59807,43.02173],[-83.59828,43.02145],[-83.59845,43.02124],[-83.59857,43.02108],[-83.59882,43.02083],[-83.59927,43.02051],[-83.59958,43.02035],[-83.59987,43.02025],[-83.60016,43.02016],[-83.6005,43.0201],[-83.60087,43.02006],[-83.60169,43.02004],[-83.60204,43.02003],[-83.60205,43.02054],[-83.60204,43.0209],[-83.60204,43.021],[-83.60156,43.02101],[-83.6004,43.02103],[-83.59994,43.02104],[-83.59971,43.02104],[-83.59971,43.02111],[-83.59973,43.02234],[-83.5996,43.02234],[-83.59949,43.02239],[-83.59924,43.02256],[-83.59901,43.02273],[-83.5988,43.02289],[-83.59878,43.02293],[-83.59881,43.02365],[-83.59884,43.02368],[-83.59909,43.02368],[-83.59932,43.02367],[-83.59958,43.02367],[-83.59955,43.02326],[-83.5995,43.02245],[-83.59949,43.02239],[-83.5996,43.02234],[-83.59973,43.02234],[-83.59971,43.02111],[-83.59971,43.02104],[-83.59994,43.02104],[-83.60016,43.02103],[-83.6004,43.02103],[-83.60086,43.02102],[-83.6011,43.02101],[-83.60156,43.02101],[-83.60204,43.021],[-83.60204,43.0209],[-83.60205,43.02054],[-83.60204,43.02003],[-83.60546,43.01998],[-83.60769,43.01995],[-83.60784,43.01995],[-83.60857,43.01991],[-83.60968,43.01979],[-83.61036,43.01969],[-83.61152,43.01948],[-83.61172,43.01944],[-83.61266,43.01921],[-83.61274,43.01919],[-83.61378,43.0189],[-83.61407,43.01883],[-83.61416,43.0188],[-83.61421,43.01879],[-83.61455,43.01873],[-83.61475,43.0187],[-83.61493,43.01868],[-83.61515,43.01866],[-83.61515,43.01846],[-83.61511,43.01662],[-83.6151,43.01627],[-83.61509,43.01545],[-83.61506,43.01352],[-83.61506,43.01323],[-83.61505,43.01296],[-83.61502,43.01118],[-83.61502,43.01085],[-83.61501,43.01054],[-83.61641,43.01051],[-83.61676,43.01051],[-83.6178,43.01048],[-83.61964,43.01044],[-83.61986,43.01044],[-83.62078,43.01042],[-83.62095,43.01041],[-83.62234,43.01038],[-83.62483,43.01033],[-83.6272,43.01027],[-83.62861,43.01024],[-83.62875,43.01024],[-83.62895,43.01023],[-83.62955,43.01022],[-83.6298,43.01021],[-83.63124,43.01018],[-83.63143,43.01018],[-83.63192,43.01017],[-83.6331,43.01014],[-83.63357,43.01013],[-83.63376,43.01013],[-83.63383,43.01012],[-83.63391,43.01012],[-83.63467,43.01011],[-83.63465,43.00957],[-83.63465,43.00945],[-83.63463,43.00866],[-83.63461,43.00785],[-83.63461,43.00758],[-83.6346,43.00744],[-83.63459,43.00687],[-83.63458,43.00605],[-83.63456,43.00553],[-83.63455,43.00493],[-83.63455,43.00487],[-83.63454,43.00471],[-83.63454,43.00435],[-83.63453,43.00416],[-83.63446,43.00363],[-83.63442,43.00319],[-83.63438,43.00268],[-83.63431,43.00174],[-83.63428,43.00124],[-83.63425,43.00086],[-83.63422,43.00043],[-83.63421,43.00027],[-83.63419,43.00007],[-83.63418,42.99987],[-83.63417,42.99964],[-83.63416,42.99949],[-83.63412,42.99876],[-83.63411,42.99846],[-83.63409,42.99816],[-83.63409,42.99809],[-83.63407,42.99775],[-83.63407,42.99767],[-83.63404,42.99725],[-83.63404,42.99712],[-83.63403,42.99697],[-83.63401,42.99668],[-83.63401,42.99656],[-83.634,42.99644],[-83.63398,42.99599],[-83.63397,42.99573],[-83.63397,42.9956],[-83.63396,42.99513],[-83.63394,42.99465],[-83.63394,42.99451],[-83.63393,42.99405],[-83.63393,42.99381],[-83.63393,42.99362],[-83.63392,42.99316],[-83.63392,42.99306],[-83.63392,42.99297],[-83.6339,42.99262],[-83.63389,42.99229],[-83.63388,42.99201],[-83.63387,42.99162],[-83.63386,42.99147],[-83.63384,42.99082],[-83.63384,42.99072],[-83.63383,42.99054],[-83.63382,42.99],[-83.6338,42.98955],[-83.63308,42.98955],[-83.63299,42.98955],[-83.63207,42.98956],[-83.63168,42.98957],[-83.63066,42.98958],[-83.63056,42.98958],[-83.62932,42.98959],[-83.62906,42.98959],[-83.62906,42.98969],[-83.62905,42.98976],[-83.629,42.98992],[-83.62898,42.99005],[-83.629,42.99075],[-83.62905,42.99181],[-83.62905,42.99184],[-83.62905,42.99193],[-83.62906,42.99201],[-83.62908,42.99278],[-83.6291,42.99314],[-83.62954,42.99313],[-83.62953,42.99311],[-83.62952,42.99272],[-83.62969,42.99271],[-83.62996,42.9927],[-83.6302,42.99269],[-83.63043,42.99269],[-83.63066,42.99268],[-83.63092,42.99267],[-83.63096,42.99267],[-83.63106,42.99267]]}},{"type":"Feature","properties":{"name":"Route 15 - Burton-Davison","route":"15","_color":"#E531FD","url":"https://flint.connexionz.net/RTT/Public/Schedule.aspx?RouteNo=15"},"geometry":{"type":"LineString","coordinates":[[-83.6883,43.01522],[-83.68854,43.0155],[-83.68857,43.01553],[-83.68862,43.0156],[-83.68855,43.01563],[-83.68853,43.01564],[-83.68848,43.01566],[-83.68843,43.01568],[-83.68798,43.01588],[-83.68755,43.01608],[-83.68745,43.01613],[-83.68736,43.01617],[-83.68729,43.01609],[-83.6871,43.01588],[-83.68696,43.0157],[-83.68691,43.01564],[-83.68658,43.01524],[-83.68669,43.01519],[-83.68724,43.01494],[-83.68764,43.01476],[-83.68783,43.01467],[-83.68846,43.01439],[-83.68854,43.01435],[-83.68916,43.01407],[-83.68908,43.01398],[-83.68846,43.01324],[-83.68837,43.01314],[-83.6882,43.01294],[-83.68796,43.01266],[-83.68788,43.01255],[-83.6878,43.01246],[-83.68757,43.01219],[-83.68736,43.01194],[-83.6873,43.01188],[-83.68726,43.01185],[-83.68699,43.0116],[-83.68675,43.01139],[-83.68616,43.01085],[-83.68598,43.01069],[-83.68521,43.00998],[-83.68515,43.00992],[-83.68478,43.00958],[-83.68461,43.00943],[-83.68443,43.00927],[-83.68417,43.00905],[-83.68352,43.00846],[-83.68342,43.00836],[-83.68318,43.00851],[-83.68282,43.00872],[-83.68244,43.00896],[-83.68219,43.00912],[-83.68203,43.00922],[-83.68189,43.0093],[-83.68174,43.00939],[-83.68161,43.00946],[-83.68146,43.00954],[-83.68133,43.0096],[-83.68117,43.00968],[-83.68102,43.00974],[-83.68084,43.00981],[-83.68066,43.00988],[-83.68047,43.00994],[-83.68018,43.01003],[-83.68007,43.01006],[-83.67996,43.01009],[-83.67958,43.01018],[-83.67942,43.01021],[-83.67911,43.01028],[-83.67866,43.01036],[-83.67842,43.0104],[-83.67819,43.01045],[-83.67792,43.01047],[-83.6776,43.01048],[-83.67706,43.0105],[-83.67275,43.01053],[-83.67135,43.01054],[-83.6684,43.01057],[-83.66817,43.01057],[-83.66786,43.01058],[-83.66753,43.0106],[-83.66721,43.01063],[-83.66678,43.01068],[-83.66645,43.01073],[-83.66611,43.0108],[-83.66557,43.01091],[-83.66375,43.0113],[-83.66353,43.01134],[-83.6633,43.01138],[-83.66308,43.01141],[-83.66281,43.01144],[-83.66254,43.01147],[-83.66227,43.01149],[-83.66152,43.01154],[-83.66028,43.01162],[-83.65474,43.01198],[-83.65399,43.01203],[-83.65288,43.0121],[-83.64984,43.0123],[-83.64927,43.01234],[-83.6478,43.01243],[-83.64742,43.01246],[-83.64708,43.01249],[-83.64695,43.0125],[-83.64674,43.01252],[-83.64628,43.01257],[-83.64596,43.01261],[-83.64568,43.01265],[-83.64535,43.0127],[-83.64338,43.013],[-83.64289,43.01308],[-83.64271,43.01311],[-83.64097,43.01329],[-83.64059,43.01334],[-83.64029,43.01337],[-83.64003,43.01338],[-83.63987,43.01338],[-83.63971,43.01338],[-83.63955,43.01338],[-83.6394,43.01336],[-83.63924,43.01335],[-83.63907,43.01333],[-83.6389,43.0133],[-83.6387,43.01327],[-83.63853,43.01323],[-83.63835,43.01318],[-83.63818,43.01313],[-83.6379,43.01303],[-83.63773,43.01297],[-83.63752,43.01288],[-83.63639,43.01239],[-83.63627,43.01235],[-83.63616,43.01232],[-83.63602,43.01229],[-83.63589,43.01227],[-83.63576,43.01226],[-83.63563,43.01226],[-83.63489,43.01227],[-83.63472,43.01227],[-83.63466,43.01237],[-83.63471,43.01432],[-83.63474,43.01536],[-83.63474,43.0154],[-83.63476,43.01547],[-83.63481,43.01559],[-83.63482,43.01606],[-83.63482,43.01617],[-83.63483,43.01646],[-83.63483,43.01657],[-83.63485,43.0173],[-83.63486,43.01766],[-83.63487,43.01804],[-83.63488,43.01822],[-83.63488,43.01824],[-83.63488,43.01848],[-83.63489,43.01874],[-83.63437,43.01874],[-83.63432,43.01874],[-83.63405,43.01872],[-83.63395,43.01872],[-83.63369,43.01872],[-83.63341,43.01872],[-83.63319,43.01872],[-83.63267,43.01873],[-83.63232,43.01873],[-83.63196,43.01873],[-83.63153,43.01873],[-83.63141,43.01873],[-83.63071,43.01873],[-83.63004,43.01873],[-83.62989,43.01873],[-83.62929,43.01873],[-83.62917,43.01873],[-83.62672,43.01873],[-83.62574,43.01873],[-83.62529,43.01873],[-83.62502,43.01872],[-83.62412,43.01869],[-83.62346,43.01868],[-83.62261,43.01868],[-83.61864,43.01866],[-83.61691,43.01868],[-83.6163,43.01867],[-83.61515,43.01866],[-83.61493,43.01868],[-83.61475,43.0187],[-83.61455,43.01873],[-83.61421,43.01879],[-83.61416,43.0188],[-83.61407,43.01883],[-83.61378,43.0189],[-83.61274,43.01919],[-83.61266,43.01921],[-83.61172,43.01944],[-83.61152,43.01948],[-83.61036,43.01969],[-83.60968,43.01979],[-83.60857,43.01991],[-83.60784,43.01995],[-83.60769,43.01995],[-83.60546,43.01998],[-83.6041,43.02],[-83.60204,43.02003],[-83.60205,43.02054],[-83.60204,43.0209],[-83.60204,43.021],[-83.6018,43.021],[-83.60156,43.02101],[-83.60134,43.02101],[-83.6011,43.02101],[-83.60086,43.02102],[-83.60062,43.02103],[-83.6004,43.02103],[-83.60016,43.02103],[-83.59994,43.02104],[-83.59971,43.02104],[-83.59971,43.02111],[-83.59973,43.02234],[-83.5996,43.02234],[-83.59949,43.02239],[-83.59924,43.02256],[-83.59901,43.02273],[-83.59897,43.02276],[-83.5988,43.02289],[-83.59878,43.02293],[-83.59881,43.02365],[-83.59884,43.02368],[-83.59909,43.02368],[-83.59932,43.02367],[-83.59958,43.02367],[-83.59955,43.02326],[-83.5995,43.02245],[-83.59949,43.02239],[-83.5996,43.02234],[-83.59973,43.02234],[-83.59971,43.02111],[-83.59971,43.02104],[-83.59994,43.02104],[-83.60016,43.02103],[-83.6004,43.02103],[-83.60062,43.02103],[-83.6011,43.02101],[-83.60204,43.021],[-83.60204,43.0209],[-83.60205,43.02054],[-83.60204,43.02003],[-83.60087,43.02006],[-83.6005,43.0201],[-83.60016,43.02016],[-83.59987,43.02025],[-83.59958,43.02035],[-83.59927,43.02051],[-83.59882,43.02083],[-83.59857,43.02108],[-83.59828,43.02145],[-83.59807,43.02173],[-83.59792,43.02191],[-83.59765,43.02211],[-83.59725,43.02233],[-83.59685,43.02243],[-83.59661,43.02244],[-83.59638,43.02246],[-83.59544,43.02246],[-83.59488,43.02246],[-83.59389,43.02248],[-83.59353,43.02241],[-83.59301,43.02221],[-83.59212,43.02158],[-83.59195,43.02146],[-83.59177,43.0213],[-83.59139,43.02105],[-83.59072,43.02069],[-83.59013,43.02047],[-83.58965,43.02034],[-83.58948,43.02031],[-83.58902,43.02024],[-83.58844,43.0202],[-83.58418,43.02025],[-83.58314,43.02025],[-83.58283,43.02024],[-83.58246,43.02022],[-83.58211,43.0202],[-83.58147,43.02013],[-83.5809,43.02006],[-83.58028,43.01996],[-83.57986,43.01989],[-83.57953,43.01982],[-83.57896,43.01969],[-83.57883,43.01967],[-83.57806,43.01946],[-83.57753,43.01932],[-83.57728,43.01926],[-83.57705,43.01922],[-83.57684,43.01918],[-83.57661,43.01915],[-83.57621,43.01912],[-83.57599,43.01911],[-83.57573,43.0191],[-83.57547,43.0191],[-83.57439,43.01912],[-83.57428,43.01912],[-83.57369,43.01913],[-83.56965,43.01923],[-83.56928,43.01923],[-83.56924,43.01923],[-83.56655,43.01928],[-83.56627,43.01928],[-83.56598,43.01929],[-83.5652,43.0193],[-83.56237,43.01937],[-83.56037,43.01942],[-83.55933,43.01944],[-83.55803,43.01947],[-83.55723,43.01949],[-83.5561,43.01952],[-83.55582,43.01952],[-83.55581,43.0194],[-83.55581,43.01917],[-83.55588,43.01905],[-83.55587,43.01865],[-83.55586,43.01821],[-83.55584,43.01753],[-83.55582,43.01702],[-83.55577,43.01572],[-83.55574,43.01482],[-83.55565,43.01324],[-83.55556,43.01313],[-83.55555,43.0129],[-83.55554,43.01265],[-83.55554,43.01259],[-83.55551,43.01182],[-83.55528,43.01182],[-83.55483,43.01183],[-83.55452,43.01183],[-83.55307,43.01187],[-83.55086,43.01191],[-83.54986,43.01194],[-83.54986,43.01206],[-83.54986,43.01222],[-83.54987,43.01227],[-83.54987,43.01232],[-83.54989,43.01236],[-83.5499,43.0124],[-83.54992,43.01244],[-83.54995,43.01248],[-83.54997,43.01252],[-83.54997,43.01252],[-83.55,43.01257],[-83.55002,43.01263],[-83.55003,43.01268],[-83.55008,43.01306],[-83.55008,43.01312],[-83.5501,43.01318],[-83.55012,43.01325],[-83.55019,43.01324],[-83.55024,43.01322],[-83.55064,43.01302],[-83.55069,43.013],[-83.55074,43.01299],[-83.5508,43.01299],[-83.55096,43.01298],[-83.55229,43.01295],[-83.55269,43.01295],[-83.55297,43.01294],[-83.55312,43.01294],[-83.55326,43.01294],[-83.55346,43.01293],[-83.55354,43.01293],[-83.55362,43.01292],[-83.55369,43.01291],[-83.5543,43.01277]]}},{"type":"Feature","properties":{"name":"Route 502 - Great Lakes Crossing Mall","route":"502","_color":"#EA0029","url":"https://flint.connexionz.net/RTT/Public/Schedule.aspx?RouteNo=502"},"geometry":{"type":"LineString","coordinates":[[-83.68702,43.01568],[-83.68738,43.01552],[-83.68745,43.01548],[-83.68752,43.01545],[-83.6876,43.01541],[-83.68768,43.01538],[-83.68775,43.01535],[-83.68781,43.01532],[-83.68784,43.01531],[-83.68804,43.01521],[-83.68807,43.0152],[-83.6881,43.01519],[-83.68814,43.01519],[-83.6882,43.01518],[-83.68826,43.01517],[-83.68854,43.0155],[-83.68857,43.01553],[-83.68862,43.0156],[-83.68855,43.01563],[-83.68853,43.01564],[-83.68848,43.01566],[-83.68843,43.01568],[-83.688,43.01588],[-83.68798,43.01588],[-83.68755,43.01608],[-83.68745,43.01613],[-83.68736,43.01617],[-83.68726,43.01622],[-83.68702,43.01633],[-83.6869,43.01638],[-83.68636,43.01663],[-83.68621,43.01669],[-83.68618,43.01671],[-83.68609,43.01675],[-83.68599,43.0168],[-83.68596,43.01681],[-83.68587,43.01685],[-83.68566,43.01695],[-83.68554,43.017],[-83.68554,43.017],[-83.6853,43.01711],[-83.68517,43.01717],[-83.68514,43.01718],[-83.68496,43.01727],[-83.68493,43.01728],[-83.68488,43.0173],[-83.68481,43.01734],[-83.68477,43.01729],[-83.68475,43.01727],[-83.68473,43.01724],[-83.68465,43.01712],[-83.68464,43.01711],[-83.68437,43.01674],[-83.68433,43.01668],[-83.68415,43.01644],[-83.68414,43.01643],[-83.68413,43.01642],[-83.68411,43.0164],[-83.68409,43.01638],[-83.68406,43.01635],[-83.68404,43.01633],[-83.68402,43.0163],[-83.68393,43.01618],[-83.68385,43.01607],[-83.68375,43.01591],[-83.68366,43.01577],[-83.68353,43.01557],[-83.68348,43.01547],[-83.68344,43.0154],[-83.6834,43.01531],[-83.68337,43.01524],[-83.68334,43.01518],[-83.6833,43.0151],[-83.68317,43.01483],[-83.68315,43.0148],[-83.68314,43.01479],[-83.68312,43.01475],[-83.6831,43.01473],[-83.68308,43.01469],[-83.68306,43.01465],[-83.68302,43.0146],[-83.68292,43.01444],[-83.68279,43.01425],[-83.68252,43.01386],[-83.6825,43.01383],[-83.68248,43.0138],[-83.68245,43.01376],[-83.68241,43.01369],[-83.68237,43.01364],[-83.68234,43.01361],[-83.68232,43.01358],[-83.68224,43.01349],[-83.68224,43.01349],[-83.68217,43.01342],[-83.68211,43.01334],[-83.68186,43.01306],[-83.68049,43.01151],[-83.68032,43.01132],[-83.68019,43.01116],[-83.6801,43.01104],[-83.68003,43.01092],[-83.6799,43.01071],[-83.67936,43.0097],[-83.6792,43.00932],[-83.67765,43.00569],[-83.67739,43.00511],[-83.67716,43.00454],[-83.67676,43.00359],[-83.67672,43.00349],[-83.67619,43.00229],[-83.67551,43.00068],[-83.67541,43.00046],[-83.67534,43.00025],[-83.67529,43.00007],[-83.67526,42.99997],[-83.67524,42.99983],[-83.67522,42.9997],[-83.67519,42.99952],[-83.67517,42.99932],[-83.67516,42.99913],[-83.67517,42.99898],[-83.67517,42.99883],[-83.67518,42.99866],[-83.67521,42.99852],[-83.67523,42.99835],[-83.67527,42.99817],[-83.6753,42.99804],[-83.6754,42.99775],[-83.67549,42.99751],[-83.67555,42.99737],[-83.67563,42.99723],[-83.67572,42.99707],[-83.6758,42.99692],[-83.67589,42.9968],[-83.676,42.99664],[-83.67609,42.99651],[-83.67616,42.99641],[-83.6763,42.99624],[-83.67642,42.99612],[-83.67657,42.99595],[-83.67669,42.99584],[-83.67682,42.99572],[-83.67698,42.99559],[-83.67712,42.99548],[-83.67734,42.99532],[-83.67751,42.99521],[-83.67778,42.99503],[-83.67946,42.99399],[-83.67973,42.99381],[-83.67993,42.99367],[-83.68016,42.99351],[-83.68029,42.99341],[-83.68042,42.9933],[-83.68059,42.99316],[-83.68075,42.99302],[-83.68091,42.99287],[-83.68104,42.99274],[-83.68118,42.9926],[-83.68133,42.99244],[-83.68145,42.9923],[-83.68157,42.99216],[-83.68166,42.99204],[-83.68176,42.99189],[-83.68186,42.99173],[-83.68194,42.9916],[-83.68204,42.99144],[-83.68211,42.99131],[-83.68219,42.99114],[-83.68223,42.99106],[-83.68226,42.991],[-83.68235,42.99077],[-83.68242,42.99059],[-83.68249,42.99037],[-83.68253,42.9902],[-83.68257,42.99002],[-83.68263,42.98972],[-83.68264,42.98957],[-83.68266,42.98938],[-83.68268,42.98917],[-83.68268,42.98902],[-83.68267,42.98869],[-83.68264,42.98799],[-83.68263,42.98759],[-83.68261,42.98714],[-83.68215,42.97678],[-83.68202,42.97384],[-83.682,42.97348],[-83.68199,42.97315],[-83.68199,42.97276],[-83.682,42.97255],[-83.68201,42.97229],[-83.68203,42.97189],[-83.68205,42.97164],[-83.68207,42.97136],[-83.68211,42.97107],[-83.68214,42.97075],[-83.68219,42.97032],[-83.68232,42.96928],[-83.68241,42.96845],[-83.68248,42.96786],[-83.68278,42.96529],[-83.68283,42.96476],[-83.68287,42.96428],[-83.68291,42.96375],[-83.68294,42.96314],[-83.68295,42.96297],[-83.68295,42.96283],[-83.68296,42.96225],[-83.68295,42.9617],[-83.68293,42.96134],[-83.68289,42.96061],[-83.68285,42.95993],[-83.68282,42.95958],[-83.68257,42.95583],[-83.68223,42.95068],[-83.68207,42.94829],[-83.68196,42.94667],[-83.68181,42.94425],[-83.68176,42.94311],[-83.68174,42.94274],[-83.68171,42.94188],[-83.68148,42.93559],[-83.68139,42.93317],[-83.68136,42.93225],[-83.68124,42.92879],[-83.6812,42.92762],[-83.68117,42.92697],[-83.68115,42.92636],[-83.68113,42.92584],[-83.68111,42.92511],[-83.68108,42.92437],[-83.68105,42.92341],[-83.68103,42.92302],[-83.68102,42.92279],[-83.68099,42.92259],[-83.68097,42.92242],[-83.68094,42.92225],[-83.6809,42.92207],[-83.68085,42.92186],[-83.68081,42.92171],[-83.68076,42.92157],[-83.6807,42.92139],[-83.68063,42.92121],[-83.68057,42.92106],[-83.68046,42.92083],[-83.68036,42.92064],[-83.68026,42.92045],[-83.68013,42.92025],[-83.67999,42.92004],[-83.67982,42.9198],[-83.67962,42.91956],[-83.67943,42.91933],[-83.67921,42.9191],[-83.679,42.9189],[-83.67876,42.91868],[-83.67856,42.91851],[-83.67834,42.91834],[-83.6781,42.91817],[-83.67783,42.91799],[-83.67575,42.9166],[-83.67377,42.91535],[-83.67151,42.91391],[-83.67106,42.91361],[-83.67016,42.9131],[-83.66952,42.91273],[-83.66885,42.9124],[-83.66876,42.91236],[-83.6682,42.9121],[-83.66702,42.91168],[-83.66593,42.91133],[-83.66152,42.90994],[-83.66072,42.90969],[-83.66057,42.90964],[-83.65805,42.90887],[-83.65459,42.90778],[-83.6539,42.9075],[-83.65344,42.9073],[-83.65298,42.90707],[-83.65266,42.9069],[-83.65227,42.90667],[-83.65187,42.90642],[-83.65155,42.90619],[-83.65124,42.90596],[-83.6503,42.90516],[-83.64982,42.90463],[-83.64953,42.90425],[-83.64864,42.90293],[-83.64833,42.9025],[-83.64798,42.90197],[-83.64779,42.90173],[-83.6475,42.90141],[-83.64713,42.90105],[-83.6469,42.90086],[-83.64664,42.90064],[-83.64595,42.90018],[-83.64543,42.89988],[-83.64488,42.89962],[-83.64434,42.8994],[-83.6425,42.89882],[-83.6399,42.898],[-83.63631,42.89693],[-83.63495,42.89646],[-83.6347,42.89637],[-83.6338,42.89602],[-83.63285,42.89559],[-83.6319,42.8951],[-83.63103,42.89455],[-83.6305,42.89422],[-83.63003,42.8939],[-83.62969,42.89366],[-83.62896,42.8931],[-83.62801,42.89243],[-83.62549,42.89056],[-83.62492,42.89013],[-83.61961,42.88616],[-83.61366,42.88172],[-83.61288,42.88113],[-83.61233,42.8808],[-83.61078,42.87994],[-83.6092,42.87911],[-83.60866,42.8788],[-83.60792,42.87838],[-83.60627,42.87746],[-83.60522,42.87689],[-83.60416,42.87632],[-83.60315,42.87586],[-83.6022,42.87535],[-83.60188,42.87514],[-83.60074,42.87448],[-83.59921,42.87368],[-83.59837,42.87317],[-83.59805,42.87292],[-83.59694,42.87203],[-83.5961,42.87134],[-83.59521,42.87049],[-83.59442,42.86956],[-83.59387,42.86883],[-83.59317,42.86773],[-83.5926,42.86661],[-83.59224,42.86557],[-83.59198,42.86474],[-83.59184,42.86417],[-83.59175,42.86378],[-83.59163,42.86292],[-83.59155,42.86189],[-83.59144,42.86055],[-83.59137,42.85605],[-83.59125,42.85435],[-83.59117,42.85349],[-83.59113,42.85332],[-83.59104,42.85282],[-83.59079,42.85231],[-83.59048,42.85165],[-83.58843,42.84858],[-83.58823,42.84828],[-83.58659,42.84595],[-83.5853,42.84401],[-83.58424,42.84247],[-83.58314,42.84079],[-83.58248,42.83982],[-83.58191,42.83898],[-83.57932,42.83503],[-83.57785,42.8329],[-83.57714,42.83185],[-83.57605,42.83024],[-83.57524,42.82904],[-83.57458,42.82804],[-83.57389,42.82704],[-83.57324,42.82607],[-83.57269,42.82521],[-83.57227,42.82458],[-83.57195,42.82408],[-83.57168,42.82367],[-83.57121,42.82278],[-83.571,42.82229],[-83.57075,42.82162],[-83.57067,42.82142],[-83.57032,42.82019],[-83.57023,42.81986],[-83.57014,42.81927],[-83.57002,42.81826],[-83.56999,42.81697],[-83.56995,42.81571],[-83.56995,42.81539],[-83.56992,42.81469],[-83.56992,42.81442],[-83.56991,42.81394],[-83.56985,42.81294],[-83.56978,42.81252],[-83.56951,42.81176],[-83.56921,42.81115],[-83.5691,42.81095],[-83.569,42.8108],[-83.56871,42.81041],[-83.56841,42.81004],[-83.568,42.80965],[-83.56745,42.80917],[-83.56714,42.80894],[-83.56529,42.80758],[-83.56344,42.80621],[-83.56261,42.80559],[-83.55738,42.80171],[-83.55691,42.80136],[-83.55536,42.80021],[-83.54921,42.79566],[-83.54757,42.79443],[-83.54246,42.79062],[-83.54114,42.78963],[-83.54044,42.78911],[-83.53987,42.78864],[-83.53985,42.78862],[-83.53919,42.78801],[-83.53849,42.7873],[-83.53799,42.78671],[-83.53726,42.78578],[-83.53674,42.78498],[-83.53557,42.78317],[-83.53511,42.78244],[-83.5349,42.78213],[-83.53463,42.78181],[-83.53372,42.7807],[-83.53324,42.78023],[-83.53249,42.77952],[-83.53181,42.7789],[-83.52979,42.77728],[-83.52813,42.77594],[-83.52733,42.7753],[-83.5267,42.7748],[-83.52387,42.77248],[-83.52219,42.77112],[-83.52048,42.76971],[-83.51733,42.76718],[-83.51666,42.76662],[-83.51616,42.76621],[-83.51571,42.76584],[-83.51476,42.76509],[-83.51411,42.76456],[-83.51238,42.76314],[-83.51131,42.76226],[-83.51018,42.76133],[-83.50848,42.75996],[-83.50797,42.75952],[-83.50729,42.75894],[-83.5067,42.75837],[-83.50649,42.75813],[-83.50617,42.75779],[-83.50544,42.75691],[-83.50449,42.75565],[-83.50348,42.7543],[-83.50265,42.75322],[-83.50149,42.75176],[-83.50121,42.75147],[-83.50067,42.75091],[-83.49959,42.74998],[-83.49896,42.74946],[-83.49817,42.74889],[-83.49736,42.74837],[-83.49663,42.74793],[-83.49558,42.74737],[-83.49449,42.74686],[-83.49363,42.74653],[-83.49264,42.74615],[-83.49034,42.74541],[-83.48937,42.74512],[-83.4873,42.74446],[-83.48465,42.74362],[-83.48335,42.74322],[-83.48268,42.74302],[-83.48093,42.74245],[-83.47562,42.74081],[-83.47273,42.73991],[-83.47192,42.73964],[-83.4706,42.73922],[-83.46964,42.73896],[-83.46898,42.73879],[-83.46826,42.73864],[-83.46729,42.73847],[-83.46607,42.7383],[-83.46511,42.7382],[-83.46329,42.73807],[-83.45948,42.73774],[-83.45877,42.73769],[-83.45808,42.73765],[-83.45763,42.73763],[-83.45718,42.73764],[-83.4563,42.73768],[-83.45547,42.7378],[-83.45443,42.738],[-83.45418,42.73806],[-83.4536,42.73822],[-83.45264,42.73856],[-83.45183,42.73891],[-83.45132,42.73916],[-83.45028,42.73968],[-83.44988,42.73989],[-83.44809,42.74085],[-83.44702,42.74142],[-83.44621,42.74182],[-83.44544,42.74222],[-83.44452,42.74263],[-83.44365,42.74304],[-83.442,42.74377],[-83.44047,42.74443],[-83.438,42.74551],[-83.43688,42.74594],[-83.43626,42.74615],[-83.43555,42.74634],[-83.43452,42.74658],[-83.43399,42.74667],[-83.43382,42.7467],[-83.43312,42.74681],[-83.43212,42.7469],[-83.43153,42.74693],[-83.4307,42.74694],[-83.42943,42.7469],[-83.42845,42.74684],[-83.42696,42.74674],[-83.42391,42.7466],[-83.41979,42.74641],[-83.41859,42.74634],[-83.41699,42.74626],[-83.41604,42.74621],[-83.41444,42.74614],[-83.41289,42.74607],[-83.41049,42.74597],[-83.40973,42.74592],[-83.40791,42.74583],[-83.40731,42.7458],[-83.40572,42.74572],[-83.4037,42.74561],[-83.40253,42.74553],[-83.40127,42.7454],[-83.40004,42.74524],[-83.3996,42.74516],[-83.39868,42.745],[-83.39704,42.74466],[-83.39543,42.74423],[-83.39409,42.74381],[-83.39234,42.74318],[-83.39096,42.74259],[-83.38975,42.74202],[-83.38885,42.74157],[-83.38839,42.74129],[-83.38819,42.74117],[-83.38694,42.7404],[-83.38662,42.74021],[-83.38558,42.73956],[-83.38453,42.73889],[-83.38432,42.73875],[-83.38399,42.73852],[-83.38291,42.73786],[-83.38131,42.73685],[-83.37983,42.73591],[-83.37897,42.73542],[-83.37842,42.73507],[-83.37801,42.7348],[-83.37799,42.73479],[-83.37725,42.73429],[-83.37656,42.73386],[-83.37647,42.7338],[-83.37591,42.73347],[-83.37529,42.7331],[-83.37484,42.73284],[-83.37413,42.73246],[-83.37374,42.73226],[-83.37349,42.73214],[-83.37291,42.73187],[-83.37235,42.73163],[-83.37172,42.73137],[-83.37121,42.73118],[-83.37011,42.73077],[-83.36978,42.73065],[-83.36956,42.73057],[-83.36495,42.72894],[-83.3594,42.72699],[-83.35898,42.72684],[-83.35842,42.72667],[-83.35784,42.72644],[-83.3574,42.72625],[-83.35689,42.72601],[-83.35645,42.72579],[-83.35594,42.7255],[-83.35556,42.72526],[-83.35515,42.72499],[-83.35475,42.72471],[-83.35401,42.72418],[-83.35333,42.72369],[-83.35322,42.72361],[-83.35301,42.72346],[-83.34952,42.72097],[-83.34905,42.72063],[-83.3469,42.71904],[-83.34658,42.7188],[-83.3424,42.71582],[-83.34235,42.71578],[-83.3421,42.7156],[-83.34095,42.71476],[-83.34078,42.71463],[-83.33948,42.71369],[-83.33731,42.71215],[-83.3358,42.71109],[-83.33534,42.71077],[-83.33435,42.71012],[-83.33367,42.70972],[-83.33302,42.70935],[-83.33233,42.70898],[-83.33163,42.70863],[-83.3312,42.70843],[-83.33093,42.7083],[-83.3304,42.70806],[-83.32963,42.70775],[-83.32896,42.70748],[-83.32839,42.70727],[-83.32775,42.70704],[-83.32709,42.70683],[-83.32653,42.70666],[-83.32599,42.7065],[-83.32525,42.70631],[-83.32426,42.70605],[-83.32345,42.70587],[-83.32172,42.70556],[-83.32056,42.7054],[-83.32035,42.70537],[-83.31954,42.70531],[-83.31918,42.70528],[-83.31886,42.70525],[-83.31852,42.70523],[-83.31814,42.7052],[-83.31777,42.70518],[-83.3174,42.70517],[-83.3171,42.70515],[-83.31682,42.70515],[-83.31647,42.70514],[-83.31618,42.70514],[-83.31584,42.70513],[-83.31539,42.70514],[-83.31536,42.70514],[-83.31336,42.70503],[-83.31275,42.70502],[-83.31248,42.70502],[-83.31226,42.70502],[-83.31208,42.70501],[-83.31188,42.70499],[-83.3117,42.70498],[-83.31151,42.70495],[-83.3113,42.70492],[-83.31111,42.70488],[-83.31093,42.70484],[-83.31075,42.70479],[-83.31059,42.70474],[-83.31041,42.70468],[-83.31023,42.70461],[-83.31005,42.70454],[-83.30915,42.70412],[-83.30892,42.70402],[-83.30877,42.70394],[-83.3086,42.70386],[-83.30849,42.70381],[-83.30838,42.70377],[-83.30827,42.70374],[-83.30816,42.70372],[-83.30804,42.7037],[-83.30791,42.70369],[-83.30776,42.70369],[-83.30728,42.70369],[-83.3072,42.70369],[-83.307,42.70372],[-83.30698,42.7033],[-83.30697,42.70308],[-83.30695,42.70282],[-83.30694,42.70256],[-83.30693,42.70228],[-83.30692,42.70202],[-83.3069,42.7014],[-83.3069,42.70131],[-83.30688,42.70093],[-83.30687,42.70048],[-83.30686,42.70037],[-83.30684,42.69976],[-83.30682,42.6993],[-83.30682,42.6991],[-83.30681,42.6989],[-83.30679,42.69854],[-83.30678,42.69839],[-83.30667,42.69792],[-83.30665,42.69788],[-83.3066,42.69787],[-83.30656,42.69787],[-83.30646,42.69791],[-83.30627,42.69792],[-83.30622,42.69792],[-83.30607,42.69792],[-83.30593,42.69793],[-83.30588,42.69793],[-83.3058,42.69794],[-83.30569,42.69794],[-83.30557,42.69795],[-83.30547,42.69797],[-83.30538,42.69798],[-83.30531,42.698],[-83.30524,42.69802],[-83.30513,42.69805],[-83.30502,42.69809],[-83.30494,42.69812],[-83.30402,42.69854],[-83.30389,42.69859],[-83.30381,42.69862],[-83.30371,42.69865],[-83.30361,42.69868],[-83.30351,42.6987],[-83.3034,42.69872],[-83.30328,42.69874],[-83.30318,42.69875],[-83.30306,42.69876],[-83.30293,42.69875],[-83.30272,42.69875],[-83.30257,42.69874],[-83.30257,42.69885],[-83.30256,42.69899],[-83.30254,42.69926],[-83.30254,42.69933],[-83.30254,42.6994],[-83.30254,42.69945],[-83.30255,42.69952],[-83.30256,42.69959],[-83.30259,42.69977],[-83.3026,42.69987],[-83.30177,42.69994],[-83.30163,42.69995],[-83.30165,42.7001],[-83.30167,42.70024],[-83.30171,42.70047],[-83.30174,42.70071],[-83.30178,42.70094],[-83.3018,42.70114],[-83.30204,42.70112],[-83.30216,42.70111],[-83.30217,42.70111],[-83.30241,42.7011],[-83.30245,42.70109],[-83.30247,42.7011],[-83.30249,42.7011],[-83.30251,42.7011],[-83.30253,42.70111],[-83.30255,42.70112],[-83.30256,42.70114],[-83.30258,42.70116],[-83.30259,42.7012],[-83.30259,42.70124],[-83.3026,42.70126],[-83.30261,42.70131],[-83.30261,42.70134],[-83.30262,42.70136],[-83.30263,42.70139],[-83.30265,42.70142],[-83.30266,42.70144],[-83.30268,42.70146],[-83.30272,42.7015],[-83.30278,42.70154],[-83.30282,42.70156],[-83.30284,42.70157],[-83.30289,42.7016],[-83.30296,42.70162],[-83.30301,42.70162],[-83.30304,42.70163],[-83.30308,42.70163],[-83.30316,42.70163],[-83.30335,42.70161],[-83.30361,42.70159],[-83.30366,42.70158],[-83.30372,42.70158],[-83.30381,42.70157],[-83.30397,42.70156],[-83.30428,42.70153],[-83.30438,42.70152]]}}]}
